latitude,longitude,town,postcode,epci,county,images/0,images/1,images/2,images/3,images/4,images/5,images/6,images/7,images/8,images/9,images/10,images/11,images/12,images/13
45.6754,0.24273,Ruelle-sur-Touvre,16600,CA du Grand Angoul«¶me,Charente,https://api.v2.clean2gether.com/uploads/5fe3052c_c85a_4df6_a5d1_6d127057279a_jpg_1a3a062922.jpg,,,,,,,,,,,,,
45.59092,0.27279,Dirac,16410,CA du Grand Angoul«¶me,Charente,https://api.v2.clean2gether.com/uploads/0291_B2_E8_6_B06_4_C7_E_8350_7756_A0_B07728_jpg_846c4b6d2c.jpg,,,,,,,,,,,,,
45.54825,0.12207,Mouthiers-sur-Bo«Æme,16440,CA du Grand Angoul«¶me,Charente,https://api.v2.clean2gether.com/uploads/ca6a7e33_7238_4a67_a833_972e3aff6a9d_jpg_65d561f868.jpg,https://api.v2.clean2gether.com/uploads/8f9351ea_404c_41fe_9f79_7f6ec25a54dd_jpg_2c7fda7ca8.jpg,,,,,,,,,,,,
45.64459,0.11869,Angoul«¶me,16000,CA du Grand Angoul«¶me,Charente,https://api.v2.clean2gether.com/uploads/1_D0_BDF_99_560_E_4_E18_B086_0_FB_69_F6_CCCD_6_jpg_e1b0acfb55.jpg,,,,,,,,,,,,,
45.63751,0.14252,Angoul«¶me,16000,CA du Grand Angoul«¶me,Charente,https://api.v2.clean2gether.com/uploads/e3ad4490_f297_45ff_b455_fa66ce882984_jpg_9ffddb7edb.jpg,,,,,,,,,,,,,
45.64074,0.19529,Soyaux,16800,CA du Grand Angoul«¶me,Charente,https://api.v2.clean2gether.com/uploads/212ef854_898b_42d0_83a2_e64b35889154_jpg_5172e5bbb8.jpg,https://api.v2.clean2gether.com/uploads/3c0506ce_2d6c_4355_8736_2c406eafa0c2_jpg_952ecec497.jpg,,,,,,,,,,,,
45.79096,0.3016,La Rochette,16110,CC La Rochefoucauld - Porte du P«∏rigord,Charente,https://api.v2.clean2gether.com/uploads/4_E9979_A9_C236_43_C3_8072_5_EE_7_D3_E84_A01_jpg_795ddb7496.jpg,,,,,,,,,,,,,
45.73976,0.24252,Brie,16590,CA du Grand Angoul«¶me,Charente,https://api.v2.clean2gether.com/uploads/D4_DB_8520_D9_D2_44_C9_A5_F8_7_AE_5656872_BE_jpg_925a2f4855.jpg,,,,,,,,,,,,,
45.68457,0.23062,Ruelle-sur-Touvre,16600,CA du Grand Angoul«¶me,Charente,https://api.v2.clean2gether.com/uploads/7_DBF_1139_6_B65_4_D33_8_B29_7095_E0138_CA_0_jpg_f8e2bf259d.jpg,https://api.v2.clean2gether.com/uploads/1_C2752_EB_FBB_1_4_FED_8_DE_0_B7_E5175_D464_E_jpg_0cbac624c7.jpg,https://api.v2.clean2gether.com/uploads/686_FA_54_D_DC_40_4_BFB_BD_83_95882098_AA_06_jpg_ffb28b92ca.jpg,,,,,,,,,,,
45.72674,0.22393,Champniers,16430,CA du Grand Angoul«¶me,Charente,https://api.v2.clean2gether.com/uploads/F725_D91_B_7697_4442_9_CEA_05_B4_C7832_E28_jpg_4652b7cbc2.jpg,,,,,,,,,,,,,
45.27346,-0.5716,Saint-Aubin-de-Blaye,33820,CC de l'Estuaire,Gironde,https://api.v2.clean2gether.com/uploads/fc8ccbdf_81c5_4653_9c01_09cfdd86a9e4_jpg_2b12aa926c.jpg,https://api.v2.clean2gether.com/uploads/593c8bf1_d207_42d4_8701_6c64ca48cbc7_jpg_45d39d4f66.jpg,,,,,,,,,,,,
45.64063,0.1934,Soyaux,16800,CA du Grand Angoul«¶me,Charente,https://api.v2.clean2gether.com/uploads/336e13f2_2be3_434b_a323_0d9010a597de_jpg_e28a244870.jpg,,,,,,,,,,,,,
45.67585,0.13639,Saint-Yrieix-sur-Charente,16710,CA du Grand Angoul«¶me,Charente,https://api.v2.clean2gether.com/uploads/52ee9f01_831e_4543_9f93_6b05410a5d6d_jpg_bafe05e4cb.jpg,https://api.v2.clean2gether.com/uploads/4077bd10_3ab6_447d_afce_f8aac7ecf6b7_jpg_0c093c53a5.jpg,,,,,,,,,,,,
45.69194,0.02475,Asni«˘res-sur-Nou«˘re,16290,CA du Grand Angoul«¶me,Charente,https://api.v2.clean2gether.com/uploads/b2c85810_c55a_4fa5_b555_b22f1453975e_jpg_9af32593fc.jpg,,,,,,,,,,,,,
45.62375,0.1296,La Couronne,16400,CA du Grand Angoul«¶me,Charente,https://api.v2.clean2gether.com/uploads/e380ad8d_6215_426a_abd5_6910da05b148_jpg_892222b227.jpg,,,,,,,,,,,,,
45.32927,-0.5001,Courpignac,17130,CC de la Haute Saintonge,Charente-Maritime,https://api.v2.clean2gether.com/uploads/29246b9b_e192_4d00_bb2a_55718cad1e8d_jpg_4e5f0b324c.jpg,https://api.v2.clean2gether.com/uploads/c25de881_57c2_47bc_bb22_898be47824d4_jpg_755cff25fe.jpg,,,,,,,,,,,,
45.57575,-0.31472,Cierzac,17520,CC de la Haute Saintonge,Charente-Maritime,https://api.v2.clean2gether.com/uploads/4647f423_840a_4e59_a7f0_75746e2f4f23_jpg_74c41af354.jpg,,,,,,,,,,,,,
45.5872,-0.33126,Salles-d'Angles,16130,CC de la Haute Saintonge,Charente,https://api.v2.clean2gether.com/uploads/ce222621_6b24_4016_ad89_8b91bb44fef1_jpg_ddc99f01f3.jpg,,,,,,,,,,,,,
45.64026,0.13609,Angoul«¶me,16000,CA du Grand Angoul«¶me,Charente,https://api.v2.clean2gether.com/uploads/571b3162_f57f_4928_97d2_7e793285a36d_jpg_3be612d17b.jpg,,,,,,,,,,,,,
45.65353,-1.1246,Saint-Palais-sur-Mer,17420,CA Royan Atlantique,,https://api.v2.clean2gether.com/uploads/2ba46485_1ea3_4cbe_a156_620c8d0a2ec5_jpg_ee1c9b1e56.jpg,https://api.v2.clean2gether.com/uploads/906d0d6d_375e_466d_9534_293ed879611b_jpg_c40493ea8e.jpg,,,,,,,,,,,,
45.64625,0.1117,Angoul«¶me,16000,CA du Grand Angoul«¶me,Charente,https://api.v2.clean2gether.com/uploads/FA_9_C5_FF_6_E126_44_D8_9880_015_FC_5_C20247_jpg_2d7dcef873.jpg,,,,,,,,,,,,,
45.64735,0.11632,Angoul«¶me,16000,CA du Grand Angoul«¶me,Charente,https://api.v2.clean2gether.com/uploads/F009_D7_A1_460_D_4767_B9_F8_F5_CFC_9_EBE_0_CC_jpg_edb01a6f97.jpg,,,,,,,,,,,,,
45.65433,0.2547,Touvre,16600,CA du Grand Angoul«¶me,Charente,https://api.v2.clean2gether.com/uploads/75c53bb3_9118_4c2f_a74a_8b17fbc68797_jpg_a3ff806bfa.jpg,https://api.v2.clean2gether.com/uploads/9d686904_d529_417d_94db_d46925c9bee3_jpg_54763ea087.jpg,https://api.v2.clean2gether.com/uploads/c400a94f_0772_44cc_a422_efbace9a3c36_jpg_aeb7cea25a.jpg,,,,,,,,,,,
45.79641,-0.03003,Saint-Cybardeaux,16170,CC du Rouillacais,Charente,https://api.v2.clean2gether.com/uploads/076546aa_68c2_4446_95b0_cd007cc4dd36_jpg_23404d036a.jpg,,,,,,,,,,,,,
45.70727,-0.30167,Boutiers-Saint-Trojan,16100,CA du Grand Cognac,Charente,https://api.v2.clean2gether.com/uploads/7665_E07_F_3_EC_1_4_F23_B12_F_6507_F54_B577_B_jpg_a595d5164c.jpg,,,,,,,,,,,,,
45.79591,-0.03015,Saint-Cybardeaux,16170,CC du Rouillacais,Charente,https://api.v2.clean2gether.com/uploads/c00108dc_e039_46e3_8980_485cc3b3e167_jpg_dfb5260ca2.jpg,,,,,,,,,,,,,
45.53599,-0.16887,Touzac,16120,CA du Grand Cognac,Charente,https://api.v2.clean2gether.com/uploads/99a770ea_a6a7_4cf4_9fa1_380269a56f5d_jpg_6e8d704113.jpg,,,,,,,,,,,,,
45.46957,-0.20206,Montchaude,16300,CC des 4B Sud Charente,Charente,https://api.v2.clean2gether.com/uploads/adab7072_c863_4530_b29b_ae9c2da90258_jpg_43be9523ce.jpg,,,,,,,,,,,,,
45.58883,-0.34212,Saint-Martial-sur-N«∏,16130,CC de la Haute Saintonge,Charente-Maritime,https://api.v2.clean2gether.com/uploads/2a06dfef_64d2_4bee_a7b9_e17cf47deaec_jpg_205b21fee8.jpg,,,,,,,,,,,,,
45.62105,0.40377,Saint-Germain-de-Montbron,16380,CC La Rochefoucauld - Porte du P«∏rigord,Charente,https://api.v2.clean2gether.com/uploads/6566471_A_7125_45_EA_A4_F7_EB_7_CB_0_EE_8_FB_9_jpg_969bd8981c.jpg,,,,,,,,,,,,,
45.65401,0.22463,Magnac-sur-Touvre,16600,CA du Grand Angoul«¶me,Charente,https://api.v2.clean2gether.com/uploads/99890705_d747_404d_b346_cbf0452b7fed_jpg_4cb639c18d.jpg,,,,,,,,,,,,,
45.67235,0.00522,Hiersac,16290,CA du Grand Cognac,Charente,https://api.v2.clean2gether.com/uploads/1fd40ba6_55ff_4b3f_aada_14cd3d00f5ed_jpg_54fd026650.jpg,,,,,,,,,,,,,
45.6408,0.24232,Magnac-sur-Touvre,16600,CA du Grand Angoul«¶me,Charente,https://api.v2.clean2gether.com/uploads/0_C3_C4_AD_3_376_B_4_A15_BC_59_64490_E06_A236_jpg_2ff86441d8.jpg,,,,,,,,,,,,,
45.32977,1.34855,Chabrignac,19350,CA du Bassin de Brive,Corr«˘ze,https://api.v2.clean2gether.com/uploads/be733ba6_6a62_4973_837f_03b686b00428_jpg_178bd75a0b.jpg,,,,,,,,,,,,,
45.79051,0.30149,La Rochette,16110,CC La Rochefoucauld - Porte du P«∏rigord,Charente,https://api.v2.clean2gether.com/uploads/f36f37b3_c23c_4af0_8805_f1881a7aa143_jpg_2f00a9941d.jpg,,,,,,,,,,,,,
45.70096,-0.30341,Cognac,16100,CA du Grand Cognac,Charente,https://api.v2.clean2gether.com/uploads/36e979ab_3317_4350_a2b6_d1506aa05f5a_jpg_3c3d17a10f.jpg,,,,,,,,,,,,,
45.68827,0.11822,Saint-Yrieix-sur-Charente,16710,CA du Grand Angoul«¶me,Charente,https://api.v2.clean2gether.com/uploads/D64_C3_F8_F_6990_493_B_A47_A_CB_0_A7301_AC_17_jpg_5d0c85f1ee.jpg,,,,,,,,,,,,,
45.72287,-0.2841,Nercillac,16200,CA du Grand Cognac,Charente,https://api.v2.clean2gether.com/uploads/fd349ed9_75f9_4ebb_b9a6_31552f71e36a_jpg_99df8d6681.jpg,https://api.v2.clean2gether.com/uploads/fb3bfec1_9f81_474a_a353_2847252f894a_jpg_a40ffafe4f.jpg,,,,,,,,,,,,
45.68879,0.11724,Saint-Yrieix-sur-Charente,16710,CA du Grand Angoul«¶me,Charente,https://api.v2.clean2gether.com/uploads/E1716_D75_875_A_4_A80_A05_E_3_E730_D54_B955_jpg_417354db62.jpg,,,,,,,,,,,,,
44.83232,-0.76185,Martignas-sur-Jalle,33127,Bordeaux M«∏tropole,Gironde,https://api.v2.clean2gether.com/uploads/44d0cfbb_cd21_4a2b_b93b_f13c72453874_jpg_8e95b9b65d.jpg,,,,,,,,,,,,,
45.64963,-0.00748,Champmillon,16290,CA du Grand Cognac,Charente,https://api.v2.clean2gether.com/uploads/DF_6_D767_C_3_BE_3_4414_8_DA_1_BBB_9_DCC_24905_jpg_344527f659.jpg,,,,,,,,,,,,,
44.83352,-0.76529,Martignas-sur-Jalle,33127,Bordeaux M«∏tropole,Gironde,https://api.v2.clean2gether.com/uploads/41b6dd06_26be_42de_a098_6ef16d75f513_jpg_55f407d098.jpg,,,,,,,,,,,,,
45.67391,0.12587,Saint-Yrieix-sur-Charente,16710,CA du Grand Angoul«¶me,Charente,https://api.v2.clean2gether.com/uploads/eb8ea105_cdca_4a5b_8e34_9bc893ac5b5e_jpg_bfcee88ed2.jpg,https://api.v2.clean2gether.com/uploads/8020ac33_eefe_4209_9001_266e5e4826c1_jpg_2a51322873.jpg,,,,,,,,,,,,
45.65189,-0.3505,Gimeux,16130,CA du Grand Cognac,Charente,https://api.v2.clean2gether.com/uploads/0bb68d05_85b9_43b2_adf0_a75bc21a8aeb_jpg_28fa611b09.jpg,,,,,,,,,,,,,
45.53692,0.23953,Torsac,16410,CC Lavalette Tude Dronne,Charente,https://api.v2.clean2gether.com/uploads/fb7a6352_6e8a_4138_bc8f_ef887e2a466e_jpg_5e64746157.jpg,https://api.v2.clean2gether.com/uploads/c7456a17_34d0_488c_92aa_d167f53563f8_jpg_b1f0f57506.jpg,,,,,,,,,,,,
45.67285,0.17542,Gond-Pontouvre,16160,CA du Grand Angoul«¶me,Charente,https://api.v2.clean2gether.com/uploads/ddf273eb_fac7_4562_ae31_8b35ee9fb44a_jpg_7634593efe.jpg,,,,,,,,,,,,,
44.82322,-0.57749,Bordeaux,33000,Bordeaux M«∏tropole,Gironde,https://api.v2.clean2gether.com/uploads/fe2a59d8_80f8_4bc8_ad0a_ead4ee6a7a53_jpg_fc52e10172.jpg,,,,,,,,,,,,,
45.67657,0.24159,Ruelle-sur-Touvre,16600,CA du Grand Angoul«¶me,Charente,https://api.v2.clean2gether.com/uploads/46195065_204f_4218_8b93_a62e3f3a026f_jpg_5bb7ce4a04.jpg,,,,,,,,,,,,,
45.45101,-0.12972,Salles-de-Barbezieux,16300,CC des 4B Sud Charente,Charente,https://api.v2.clean2gether.com/uploads/8ce0326a_fc68_4604_b022_bd057bc16df3_jpg_d837d34616.jpg,https://api.v2.clean2gether.com/uploads/61044de9_5ad1_4f57_a4c0_5fee39f0ef43_jpg_662f615b5d.jpg,,,,,,,,,,,,
45.72112,-0.34535,Cherves-Richemont,16370,CA du Grand Cognac,Charente,https://api.v2.clean2gether.com/uploads/9ccc28c0_0e1f_4741_8cef_98e6b4622026_jpg_1a27edec35.jpg,,,,,,,,,,,,,
45.66607,0.28531,Mornac,16600,CA du Grand Angoul«¶me,Charente,https://api.v2.clean2gether.com/uploads/16_E39_D3_E_E132_4_A36_AFFA_CCF_71_CC_28_A61_jpg_3c558b607e.jpg,,,,,,,,,,,,,
45.66245,0.37757,Chazelles,16380,CC La Rochefoucauld - Porte du P«∏rigord,Charente,https://api.v2.clean2gether.com/uploads/6_F78_C68_C_A167_4_A07_83_CB_2997_A48_CABDA_jpg_670e00d582.jpg,,,,,,,,,,,,,
45.44415,0.10105,P«∏rignac,16250,CC des 4B Sud Charente,Charente,https://api.v2.clean2gether.com/uploads/99_DA_3102_B868_4662_9337_C8977_BF_57083_jpg_2284161199.jpg,https://api.v2.clean2gether.com/uploads/E7_BB_8_A9_F_C013_4947_A685_A2_A18_C6_E329_F_jpg_1bc818936e.jpg,,,,,,,,,,,,
45.6897,0.25819,Ruelle-sur-Touvre,16600,CA du Grand Angoul«¶me,Charente,https://api.v2.clean2gether.com/uploads/4357b10c_b0bd_485c_81ea_4a345063b366_jpg_02ea72a946.jpg,,,,,,,,,,,,,
45.69408,0.27606,Mornac,16600,CA du Grand Angoul«¶me,Charente,https://api.v2.clean2gether.com/uploads/1164e795_d07e_4859_85b0_bdd44340232d_jpg_c3a5e480c6.jpg,,,,,,,,,,,,,
45.44653,0.10519,P«∏rignac,16250,CC des 4B Sud Charente,Charente,https://api.v2.clean2gether.com/uploads/15_D4388_F_7_A97_4_F19_8760_C4_CAB_3_FB_89_EF_jpg_2d740cc8be.jpg,https://api.v2.clean2gether.com/uploads/EFF_98_DB_0_71_D4_4117_9_C10_2168187_E2711_jpg_16bcf5db1a.jpg,https://api.v2.clean2gether.com/uploads/A68_FFEB_8_84_DC_4_EB_1_B259_0420_BC_104_E7_B_jpg_73169dbe35.jpg,,,,,,,,,,,
44.66948,-0.45719,Castres-Gironde,33640,CC de Montesquieu,Gironde,https://api.v2.clean2gether.com/uploads/6ba2fc17_e9d2_4fb5_9514_8c79c499bb0f_jpg_f18fb5dbe2.jpg,,,,,,,,,,,,,
45.7609,-0.20071,Houlette,16200,CA du Grand Cognac,Charente,https://api.v2.clean2gether.com/uploads/5435c713_3b7e_4c5e_ba68_2120457e7a7a_jpg_83738177d3.jpg,https://api.v2.clean2gether.com/uploads/31cc087c_2599_4a5e_a3e6_370660ca3a04_jpg_7a1a8ea729.jpg,,,,,,,,,,,,
45.99296,-1.37973,Saint-Georges-d'Ol«∏ron,17190,CC de l'Ile d'Ol«∏ron,Charente-Maritime,https://api.v2.clean2gether.com/uploads/0312688b_cf22_4a08_a2ef_7e390f629853_jpg_0ae19ba3f5.jpg,,,,,,,,,,,,,
45.95744,0.57539,Ambernac,16490,CC de Charente Limousine,Charente,https://api.v2.clean2gether.com/uploads/a4cd6e03_8940_4277_a8fd_b3dea72a4327_jpg_f236044d9f.jpg,,,,,,,,,,,,,
45.70541,0.30737,Mornac,16600,CA du Grand Angoul«¶me,Charente,https://api.v2.clean2gether.com/uploads/4a55b300_9b7e_406b_a6dc_bccf54688234_jpg_e220fd960f.jpg,,,,,,,,,,,,,
45.72661,-0.38679,Louzac-Saint-Andr«∏,16100,CA du Grand Cognac,Charente,https://api.v2.clean2gether.com/uploads/C3_F2177_F_A0_AD_4_E82_8_FDB_0069232195_AA_jpg_10756fe0a7.jpg,,,,,,,,,,,,,
45.71854,-0.39341,Louzac-Saint-Andr«∏,16100,CA du Grand Cognac,Charente,https://api.v2.clean2gether.com/uploads/A62_C5_FB_5_8_E72_4_B17_97_EF_28_FA_7_D4950_C2_jpg_eaa36ab122.jpg,https://api.v2.clean2gether.com/uploads/4_B700527_6_B3_D_4412_BE_72_E6719_D12_FBE_1_jpg_5c3323b6ff.jpg,https://api.v2.clean2gether.com/uploads/CE_668_A46_26_B8_45_AE_B8_C5_0620_FB_7_B8010_jpg_325f0c9c4e.jpg,,,,,,,,,,,
45.68938,0.1533,Saint-Yrieix-sur-Charente,16710,CA du Grand Angoul«¶me,Charente,https://api.v2.clean2gether.com/uploads/3dd47b5d_2dcf_467c_938b_91696889a102_jpg_a59ffb6437.jpg,,,,,,,,,,,,,
45.68947,0.15279,Saint-Yrieix-sur-Charente,16710,CA du Grand Angoul«¶me,Charente,https://api.v2.clean2gether.com/uploads/af4d1b2a_0112_4d7f_97a9_e3a85d7d0beb_jpg_4670f4386b.jpg,,,,,,,,,,,,,
45.23529,-0.00933,Rioux-Martin,16210,CC Lavalette Tude Dronne,Charente,https://api.v2.clean2gether.com/uploads/505_A7599_8595_4558_99_A8_91_DCE_942_FA_57_jpg_d8e982d380.jpg,,,,,,,,,,,,,
45.80698,0.19586,Tourriers,16560,CC Coeur de Charente,Charente,https://api.v2.clean2gether.com/uploads/c14b56eb_2e20_402f_889d_a9a9207c95f8_jpg_58fee7f9db.jpg,,,,,,,,,,,,,
45.38915,-0.18041,Le T«Ωtre,16360,CC des 4B Sud Charente,Charente,https://api.v2.clean2gether.com/uploads/48515694_8e7f_4362_a9a5_c701beefa9d8_jpg_39ce1795ef.jpg,,,,,,,,,,,,,
45.68476,0.13306,Saint-Yrieix-sur-Charente,16710,CA du Grand Angoul«¶me,Charente,https://api.v2.clean2gether.com/uploads/8_EC_5_B4_F7_01_D6_496_D_912_F_42_AE_1390_B05_D_jpg_14d808381b.jpg,,,,,,,,,,,,,
45.68387,0.10775,Saint-Yrieix-sur-Charente,16710,CA du Grand Angoul«¶me,Charente,https://api.v2.clean2gether.com/uploads/f33a00d1_84a2_4043_ace3_d9ad74154057_jpg_1b00c6e803.jpg,,,,,,,,,,,,,
45.85214,0.29384,Saint-Amant-de-Bonnieure,16230,CC Coeur de Charente,Charente,https://api.v2.clean2gether.com/uploads/a3af271d_0f87_49f1_960f_0600d495e241_jpg_ebe786b33e.jpg,,,,,,,,,,,,,
45.64832,0.13597,Angoul«¶me,16000,CA du Grand Angoul«¶me,Charente,https://api.v2.clean2gether.com/uploads/8a3a6262_ee8e_4bbb_830a_fb3d37d7fa8a_jpg_87f421cb50.jpg,,,,,,,,,,,,,
45.76383,0.0288,Saint-Genis-d'Hiersac,16570,CC du Rouillacais,Charente,https://api.v2.clean2gether.com/uploads/6e112f9e_53ce_45dc_bc9f_28dc5218e498_jpg_e34db04454.jpg,,,,,,,,,,,,,
45.69571,0.08801,Fl«∏ac,16730,CA du Grand Angoul«¶me,Charente,https://api.v2.clean2gether.com/uploads/38727_C7_F_BA_1_E_4_FC_2_A7_E9_A510_EC_5_C2822_jpg_5d9fcaccee.jpg,,,,,,,,,,,,,
45.61664,0.13379,La Couronne,16400,CA du Grand Angoul«¶me,Charente,https://api.v2.clean2gether.com/uploads/94b28eef_f82e_4f17_8b6b_9b21a9e21064_jpg_b16905adb7.jpg,,,,,,,,,,,,,
45.67396,-0.1686,Gondeville,16200,CA du Grand Cognac,Charente,https://api.v2.clean2gether.com/uploads/d3c63024_de64_4c40_b475_feed09bf7b6b_jpg_976ee3f1ea.jpg,https://api.v2.clean2gether.com/uploads/1b9ba9dc_d932_4840_b31a_f0996e14466f_jpg_7d448bab03.jpg,https://api.v2.clean2gether.com/uploads/1c73f04e_a5ff_41d3_9165_1775495c77ec_jpg_116a14d752.jpg,,,,,,,,,,,
45.71975,-0.17291,Les M«∏tairies,16200,CA du Grand Cognac,Charente,https://api.v2.clean2gether.com/uploads/0_D6_C09_FE_B27_B_40_E3_ADD_0_6_AEB_9_EEF_0_A16_jpg_2b64176d5e.jpg,,,,,,,,,,,,,
45.61763,0.13112,La Couronne,16400,CA du Grand Angoul«¶me,Charente,https://api.v2.clean2gether.com/uploads/4890f60b_6908_45c6_b6e8_f4a3256f9ed1_jpg_048f9684f3.jpg,,,,,,,,,,,,,
46.05569,0.34956,Le Bouchage,16350,CC de Charente Limousine,Charente,https://api.v2.clean2gether.com/uploads/f9a490b3_a6dc_4199_9731_9ece00638cdc_jpg_7c91b2d2a9.jpg,,,,,,,,,,,,,
45.61652,0.13319,La Couronne,16400,CA du Grand Angoul«¶me,Charente,https://api.v2.clean2gether.com/uploads/511d3a33_8b42_4140_b355_3224f2ee6ea4_jpg_8ca070224f.jpg,,,,,,,,,,,,,
46.14066,-0.91295,Saint-Christophe,17220,CA de La Rochelle,Charente-Maritime,https://api.v2.clean2gether.com/uploads/1c48760c_38ce_4404_ab3f_31d671fbf933_jpg_472410f675.jpg,,,,,,,,,,,,,
45.57506,0.22372,Torsac,16410,CA du Grand Angoul«¶me,Charente,https://api.v2.clean2gether.com/uploads/A2_F03_F25_03_EC_49_B2_918_B_FCE_2192_DA_007_jpg_34aef76578.jpg,https://api.v2.clean2gether.com/uploads/0_F47_C5_AD_6051_49_A6_A900_546702_CE_5883_jpg_f9c00f66b6.jpg,https://api.v2.clean2gether.com/uploads/F0455463_9_B3_C_4060_8_E6_B_C1_F1_FC_817239_jpg_bf10d4baf6.jpg,https://api.v2.clean2gether.com/uploads/5_C02_C2_AA_9_DD_8_407_F_B2_E9_F30_DFCCD_78_ED_jpg_4cd747e669.jpg,,,,,,,,,,
45.92334,0.49688,Saint-Laurent-de-C«∏ris,16450,CC de Charente Limousine,Charente,https://api.v2.clean2gether.com/uploads/D3_F10_FDD_753_B_4_E39_A4_A1_0_D5174_AD_2_AB_7_jpg_d2fb9b00f5.jpg,,,,,,,,,,,,,
45.67524,0.21965,Ruelle-sur-Touvre,16600,CA du Grand Angoul«¶me,Charente,https://api.v2.clean2gether.com/uploads/c7376f98_42e6_40b3_9f7e_7f387ef43a12_jpg_0fed4ac8be.jpg,,,,,,,,,,,,,
45.92628,0.48196,Saint-Laurent-de-C«∏ris,16450,CC de Charente Limousine,Charente,https://api.v2.clean2gether.com/uploads/874cee64_78b7_458d_965c_65299c853107_jpg_ab30cbc99d.jpg,,,,,,,,,,,,,
45.93202,0.4303,Parzac,16450,CC de Charente Limousine,Charente,https://api.v2.clean2gether.com/uploads/77943f04_7ef2_4688_aff9_ecf1a101be9d_jpg_4155937086.jpg,https://api.v2.clean2gether.com/uploads/33fae8a8_ea97_4442_b174_9ab2fb3d14a5_jpg_357615423c.jpg,,,,,,,,,,,,
45.66065,0.20924,L'Isle-d'Espagnac,16340,CA du Grand Angoul«¶me,Charente,https://api.v2.clean2gether.com/uploads/3be1c9ab_6466_4337_88f9_da067bef961d_jpg_b0e18a61a3.jpg,,,,,,,,,,,,,
45.64468,0.18155,Soyaux,16800,CA du Grand Angoul«¶me,Charente,https://api.v2.clean2gether.com/uploads/A9_BBAF_1_C_8_A10_40_A6_80_DB_59_DF_39_C06_F03_jpg_81aab63dbe.jpg,,,,,,,,,,,,,
45.75721,-0.41443,Saint-Sulpice-de-Cognac,16370,CA du Grand Cognac,Charente,https://api.v2.clean2gether.com/uploads/8965_E98_B_5_D2_B_415_A_95_B1_ACC_0_B3_A167_C7_jpg_3056a96782.jpg,,,,,,,,,,,,,
45.61719,0.07339,La Couronne,16400,CA du Grand Angoul«¶me,Charente,https://api.v2.clean2gether.com/uploads/97634_EF_3_C2_BE_4382_A11_C_6902_A575_F906_jpg_53c6831ad7.jpg,https://api.v2.clean2gether.com/uploads/ADC_2_AC_73_B18_B_49_BC_AA_7_B_751_F393826_EE_jpg_d5dc33560e.jpg,,,,,,,,,,,,
45.61807,-0.21903,Segonzac,16130,CA du Grand Cognac,Charente,https://api.v2.clean2gether.com/uploads/2429fea7_5c8b_4ad8_863f_6b25fe1e80ea_jpg_78cf173359.jpg,https://api.v2.clean2gether.com/uploads/9eb67d4b_fb84_434e_9709_e4ea1ad2bbc3_jpg_32add370fb.jpg,https://api.v2.clean2gether.com/uploads/33e6e1d2_eb68_4d1c_b2a1_8462fcd9308f_jpg_3ede08a2b6.jpg,,,,,,,,,,,
45.2286,0.17086,Saint-Privat-des-Pr«∏s,24410,CC du Pays de Saint Aulaye,Dordogne,https://api.v2.clean2gether.com/uploads/031_AB_6_B5_98_E9_4_A88_BEA_5_85286_F9_CDA_22_jpg_93622a71bf.jpg,,,,,,,,,,,,,
45.22896,0.17152,Saint-Privat-des-Pr«∏s,24410,CC du Pays de Saint Aulaye,Dordogne,https://api.v2.clean2gether.com/uploads/3_B0_AF_96_F_8_B1_C_409_F_ABA_4_259_EAECF_64_D2_jpg_1825fbb75c.jpg,,,,,,,,,,,,,
45.6459,0.11088,Saint-Michel,16470,CA du Grand Angoul«¶me,Charente,https://api.v2.clean2gether.com/uploads/eb54078e_2c4c_4ac4_9ee0_0022ba48b591_jpg_2078b50aa7.jpg,,,,,,,,,,,,,
45.6744,0.26245,Mornac,16600,CA du Grand Angoul«¶me,Charente,https://api.v2.clean2gether.com/uploads/1_C6_DAEA_5_76_F2_4620_9191_D876_C2_BC_3_A96_jpg_3db0dd6148.jpg,,,,,,,,,,,,,
45.3486,-0.0391,Passirac,16480,CC des 4B Sud Charente,Charente,https://api.v2.clean2gether.com/uploads/FB_46_F23_A_4769_4470_8_F0_E_C5_B2_AE_7_B1767_jpg_33f3c40569.jpg,,,,,,,,,,,,,
45.67519,-0.27444,Gensac-la-Pallue,16130,CA du Grand Cognac,Charente,https://api.v2.clean2gether.com/uploads/5bb36e9c_c45c_4d78_beab_e46cdf1e3af5_jpg_082f6f7254.jpg,,,,,,,,,,,,,
45.6149,0.13355,La Couronne,16400,CA du Grand Angoul«¶me,Charente,https://api.v2.clean2gether.com/uploads/40a9daad_6c7c_4039_9582_50c6d25f2a30_jpg_3022a15180.jpg,,,,,,,,,,,,,
45.61593,0.1324,La Couronne,16400,CA du Grand Angoul«¶me,Charente,https://api.v2.clean2gether.com/uploads/6dd61fbc_87e6_484f_b0dc_310f81baba3a_jpg_dd5b0beed3.jpg,,,,,,,,,,,,,
45.64754,0.49061,Montbron,16220,CC La Rochefoucauld - Porte du P«∏rigord,Charente,https://api.v2.clean2gether.com/uploads/1899128c_384b_4d3d_9505_45da3b36031b_jpg_4ade982ee5.jpg,https://api.v2.clean2gether.com/uploads/f4759b22_c5b9_41d4_914e_3e730a2c564e_jpg_9b7da80a70.jpg,https://api.v2.clean2gether.com/uploads/a6e5747c_9d6a_457c_8391_25df32ea51cd_jpg_48c824fc4c.jpg,,,,,,,,,,,
45.64206,0.1883,Soyaux,16800,CA du Grand Angoul«¶me,Charente,https://api.v2.clean2gether.com/uploads/34f05542_3be1_4926_a8f8_3751877326a8_jpg_6b9eadf0eb.jpg,,,,,,,,,,,,,
45.64436,-0.20408,Mainxe,16200,CA du Grand Cognac,Charente,https://api.v2.clean2gether.com/uploads/bcf213bb_e3ec_490d_803a_ad733086ab1a_jpg_ef78f7a593.jpg,,,,,,,,,,,,,
44.82664,-0.7911,Martignas-sur-Jalle,33127,Bordeaux M«∏tropole,Gironde,https://api.v2.clean2gether.com/uploads/06681312_57c3_40bb_be76_a7f03b549949_jpg_b195859e04.jpg,,,,,,,,,,,,,
45.63392,-0.38442,Gimeux,16130,CA du Grand Cognac,Charente,https://api.v2.clean2gether.com/uploads/61aec05a_7252_4578_b837_fe6f72867105_jpg_3be63433e6.jpg,,,,,,,,,,,,,
45.69012,-0.20786,Chassors,16200,CA du Grand Cognac,Charente,https://api.v2.clean2gether.com/uploads/ece299fb_7a69_4497_a9c4_2dd3ed9a3ab3_jpg_e4659f725c.jpg,https://api.v2.clean2gether.com/uploads/22cec36b_2cc2_4b1e_a5e2_107bea2d8649_jpg_7d44ca8881.jpg,https://api.v2.clean2gether.com/uploads/60007e43_1a70_4f2a_b3e1_73d1dc3c8307_jpg_f2cc059180.jpg,,,,,,,,,,,
44.84755,0.85446,Le Buisson-de-Cadouin,24480,CC des Bastides Dordogne-P«∏rigord,Dordogne,https://api.v2.clean2gether.com/uploads/615ce5bb_5df9_470a_8adb_b8cc34e623a3_jpg_a3e996c1c3.jpg,https://api.v2.clean2gether.com/uploads/aba49bd9_60c9_4746_b077_c1036d8422c0_jpg_ae09e99285.jpg,,,,,,,,,,,,
45.58828,0.10774,La Couronne,16400,CA du Grand Angoul«¶me,Charente,https://api.v2.clean2gether.com/uploads/633_BA_440_61_E5_4853_99_F0_1_E64_B1_C96304_jpg_2606bdc462.jpg,,,,,,,,,,,,,
46.02534,0.13514,La Faye,16700,CC Val de Charente,Charente,https://api.v2.clean2gether.com/uploads/20d6db01_2e59_497a_9993_07d61692e370_jpg_9e8be62295.jpg,,,,,,,,,,,,,
45.67467,0.11115,Fl«∏ac,16730,CA du Grand Angoul«¶me,Charente,https://api.v2.clean2gether.com/uploads/98fdd3ad_4758_48d4_86dc_2093868cae94_jpg_349e5e750a.jpg,https://api.v2.clean2gether.com/uploads/7fb600e8_95ce_4dbe_9d82_4d048f08c959_jpg_2cd1fe784a.jpg,,,,,,,,,,,,
44.82174,0.80742,Moli«˘res,24480,CC des Bastides Dordogne-P«∏rigord,Dordogne,https://api.v2.clean2gether.com/uploads/1b69021b_2bb9_4ea3_b7fb_519355f70d2b_jpg_14e0efa992.jpg,https://api.v2.clean2gether.com/uploads/3693a856_9642_407f_832d_b740b5441684_jpg_0757571086.jpg,https://api.v2.clean2gether.com/uploads/3df16d22_92cc_421f_af2c_4767f246e149_jpg_e93a59b5ef.jpg,https://api.v2.clean2gether.com/uploads/4f6e029f_0945_4484_9ecb_bcd491f070ad_jpg_9fc7cc756b.jpg,https://api.v2.clean2gether.com/uploads/201c3e6a_8eec_4a0a_a774_02ee4258c00b_jpg_2ce3f87fb2.jpg,https://api.v2.clean2gether.com/uploads/26bcf634_655f_462e_a61d_fee2f746e890_jpg_073e8f2083.jpg,https://api.v2.clean2gether.com/uploads/432b31a1_a97f_48ec_aac3_84eedc375eed_jpg_df16220250.jpg,,,,,,,
44.84824,0.85096,Le Buisson-de-Cadouin,24480,CC des Bastides Dordogne-P«∏rigord,Dordogne,https://api.v2.clean2gether.com/uploads/3786ed94_f36e_4999_a509_c60f8a231d0b_jpg_488fdf0900.jpg,https://api.v2.clean2gether.com/uploads/bb2ed39a_26cc_4b03_80da_a0f33d19baf4_jpg_9eb23d03d3.jpg,https://api.v2.clean2gether.com/uploads/2dd1bdf4_3ef5_4959_833b_ab87ea15c293_jpg_1408537eae.jpg,https://api.v2.clean2gether.com/uploads/49cab32f_b9c4_4ff8_b2df_20b0f38a1412_jpg_0f1efe5b0c.jpg,https://api.v2.clean2gether.com/uploads/d980d757_05c2_48f1_b325_ca5d98128ab1_jpg_4b541066f4.jpg,https://api.v2.clean2gether.com/uploads/969babd2_fda5_45f4_b484_5db80e30ff63_jpg_13fee5e551.jpg,https://api.v2.clean2gether.com/uploads/004cfd6c_5e59_4166_9e85_64ff81550201_jpg_baec0893c2.jpg,https://api.v2.clean2gether.com/uploads/5a5f84ea_6184_47e8_bc43_399a2728fad3_jpg_e71e40794f.jpg,https://api.v2.clean2gether.com/uploads/1cb3d86e_4de6_4ffd_b685_c0ebf5680c3f_jpg_68f24d16eb.jpg,https://api.v2.clean2gether.com/uploads/aed5d8b2_0a4b_4730_9eec_f253a92da1d8_jpg_9425b3776d.jpg,https://api.v2.clean2gether.com/uploads/dcb349cd_e90e_4492_a2d1_968547fab1c6_jpg_9ca6fff282.jpg,https://api.v2.clean2gether.com/uploads/e5a1c68a_52ae_47ef_879f_99d136baf52e_jpg_c974e7fb9c.jpg,https://api.v2.clean2gether.com/uploads/4ee13475_e8c3_4428_be6f_58073ffbde77_jpg_9d7baffb8f.jpg,https://api.v2.clean2gether.com/uploads/3a4e7ab9_7fb3_415f_8368_ecd24451d2c8_jpg_6081323430.jpg
45.58929,-0.07304,Ch«Ωteauneuf-sur-Charente,16120,CA du Grand Cognac,Charente,https://api.v2.clean2gether.com/uploads/f2a5c88c_ce72_42c3_b3ab_658c6a531ac1_jpg_bfa73fed79.jpg,,,,,,,,,,,,,
45.41643,-0.19515,Reignac,16360,CC des 4B Sud Charente,Charente,https://api.v2.clean2gether.com/uploads/AE_0_C1_E50_5_D92_4933_AA_00_10_F6_D4182_CDF_jpg_6d50a36ae9.jpg,https://api.v2.clean2gether.com/uploads/52_DB_72_F1_1356_483_A_B8_A6_B22725_C78910_jpg_09b487f2e4.jpg,,,,,,,,,,,,
45.67718,0.06177,Fl«∏ac,16730,CA du Grand Angoul«¶me,Charente,https://api.v2.clean2gether.com/uploads/9d265fdb_ba4b_4093_b079_000bdc8a61b9_jpg_901054e7b0.jpg,,,,,,,,,,,,,
45.63908,0.234,Magnac-sur-Touvre,16600,CA du Grand Angoul«¶me,Charente,https://api.v2.clean2gether.com/uploads/0d6644ac_3cfa_4aa7_8c5e_06980979f5fb_jpg_a6fee450b4.jpg,https://api.v2.clean2gether.com/uploads/e974b818_5d7c_4d42_8b02_db10d4572a3a_jpg_dc5b6cabe7.jpg,,,,,,,,,,,,
45.66862,0.28358,Mornac,16600,CA du Grand Angoul«¶me,Charente,https://api.v2.clean2gether.com/uploads/FFF_37_AEA_D310_4_F88_964_D_7_F2_DCA_9927_AC_jpg_79a87765cd.jpg,,,,,,,,,,,,,
45.58382,0.35821,Vouzan,16410,CA du Grand Angoul«¶me,Charente,https://api.v2.clean2gether.com/uploads/FA_16_F2_D0_3_CE_6_49_D1_B5_CA_4_A8_F0504_BD_5_F_jpg_6b48bc35e3.jpg,https://api.v2.clean2gether.com/uploads/8_F009733_38_C8_4920_AF_89_5_DA_30_A369_E89_jpg_fef9f085a4.jpg,https://api.v2.clean2gether.com/uploads/9_C1_A6_FA_3_7_AD_9_4_E2_A_B73_A_46127_EC_5_E43_D_jpg_d621cedcb0.jpg,,,,,,,,,,,
45.67447,0.31069,Mornac,16110,CA du Grand Angoul«¶me,Charente,https://api.v2.clean2gether.com/uploads/7113_B7_AE_BC_99_4_CEC_AC_23_2338_AF_544757_jpg_382c6890d4.jpg,,,,,,,,,,,,,
45.692,0.02412,Douzat,16290,CC du Rouillacais,Charente,https://api.v2.clean2gether.com/uploads/5_D9_C0923_33_E1_438_F_8327_F824_CEE_7971_E_jpg_6564b58d87.jpg,,,,,,,,,,,,,
45.63698,0.22454,Soyaux,16800,CA du Grand Angoul«¶me,Charente,https://api.v2.clean2gether.com/uploads/b0c33c59_5179_47fc_adbf_cff2a4a9f8b9_jpg_d8796c2e31.jpg,,,,,,,,,,,,,
45.7099,0.15854,Champniers,16430,CA du Grand Angoul«¶me,Charente,https://api.v2.clean2gether.com/uploads/5948e262_a108_4b0b_b4f4_cdb763fc9557_jpg_87f6288ab2.jpg,,,,,,,,,,,,,
45.7919,-0.13814,Sonneville,16170,CC du Rouillacais,Charente,https://api.v2.clean2gether.com/uploads/1a3460e6_a032_4453_8c3f_0aa123d7f5ff_jpg_612d1e2736.jpg,,,,,,,,,,,,,
45.93499,0.46498,Saint-Laurent-de-C«∏ris,16450,CC de Charente Limousine,Charente,https://api.v2.clean2gether.com/uploads/D6573378_156_E_47_CE_B9_EF_7_FBD_2_E0_D374_B_jpg_3a98543d1e.jpg,,,,,,,,,,,,,
45.64783,0.1904,Soyaux,16800,CA du Grand Angoul«¶me,Charente,https://api.v2.clean2gether.com/uploads/90a51d4a_07fa_4aed_b76e_b22711065059_jpg_299eb5034e.jpg,,,,,,,,,,,,,
45.7893,-0.13601,Sonneville,16170,CC du Rouillacais,Charente,https://api.v2.clean2gether.com/uploads/738ef923_5a24_4c06_aecb_60d701ebfcc9_jpg_427adeecfa.jpg,,,,,,,,,,,,,
45.64761,0.18938,Soyaux,16800,CA du Grand Angoul«¶me,Charente,https://api.v2.clean2gether.com/uploads/3dfdf4a4_5fa7_4f17_8a99_53905f05f910_jpg_c2acfad31e.jpg,,,,,,,,,,,,,
45.85536,0.38301,La T«Ωche,16260,CC Coeur de Charente,Charente,https://api.v2.clean2gether.com/uploads/63c52b4b_4273_4dae_a146_04aa93f003f3_jpg_feb5a06b73.jpg,,,,,,,,,,,,,
45.67444,-0.2966,Ch«Ωteaubernard,16100,CA du Grand Cognac,Charente,https://api.v2.clean2gether.com/uploads/8_FC_20837_45_D9_4750_8576_23_FD_5_A3_E45_B9_jpg_9ceee6552c.jpg,,,,,,,,,,,,,
44.84776,-0.7604,Martignas-sur-Jalle,33127,Bordeaux M«∏tropole,Gironde,https://api.v2.clean2gether.com/uploads/1d1addea_d4d9_4fea_ba0c_ba07b4681f05_jpg_12e14e05db.jpg,https://api.v2.clean2gether.com/uploads/cd2b5035_e146_4287_9851_bbad5955883e_jpg_6d8ea5abc7.jpg,https://api.v2.clean2gether.com/uploads/5a84b7b0_60be_4ef2_8b2a_5568b3d119d2_jpg_6c0eab8563.jpg,,,,,,,,,,,
45.70554,-0.34756,Cognac,16100,CA du Grand Cognac,Charente,https://api.v2.clean2gether.com/uploads/0f1bb684_28a0_4b1c_95f7_897b8f7094d5_jpg_0cea8e6e0c.jpg,https://api.v2.clean2gether.com/uploads/5d88df93_2c68_4b75_b310_0073a76cf07c_jpg_7815d3ccbb.jpg,https://api.v2.clean2gether.com/uploads/ad8a235e_d2d1_4f3a_b972_6ca7db2e085a_jpg_62040f726f.jpg,,,,,,,,,,,
45.47079,0.24147,Ronsenac,16320,CC Lavalette Tude Dronne,Charente,https://api.v2.clean2gether.com/uploads/1eec9db3_c292_464a_88b5_0e1d1caef933_jpg_9f4d146a19.jpg,,,,,,,,,,,,,
44.82932,-0.777,Martignas-sur-Jalle,33127,Bordeaux M«∏tropole,Gironde,https://api.v2.clean2gether.com/uploads/a5071201_8fe2_40d5_b32d_8916a1011e5f_jpg_79b932e6ef.jpg,,,,,,,,,,,,,
45.55569,-0.00415,Roullet-Saint-Est«˘phe,16440,CA du Grand Angoul«¶me,Charente,https://api.v2.clean2gether.com/uploads/E05_FAC_8_F_5_F8_D_4784_B0_E9_6_B36_A9_FBBF_52_jpg_c36817aeda.jpg,,,,,,,,,,,,,
45.94924,0.85945,Brigueuil,16420,CC de Charente Limousine,Charente,https://api.v2.clean2gether.com/uploads/f62054f9_b8c7_4d21_9401_ca10b9c005dd_jpg_9eeb88bd14.jpg,,,,,,,,,,,,,
45.94492,0.85851,Brigueuil,16420,CC de Charente Limousine,Charente,https://api.v2.clean2gether.com/uploads/d64fbcfe_a005_4e28_832e_f506849b45f9_jpg_986b723ed5.jpg,https://api.v2.clean2gether.com/uploads/6bf58a06_46c7_4fe9_9eb2_6dea01d61258_jpg_fd62c5d21c.jpg,,,,,,,,,,,,
45.56214,0.01937,Roullet-Saint-Est«˘phe,16440,CA du Grand Angoul«¶me,Charente,https://api.v2.clean2gether.com/uploads/4801_D8_E3_F955_42_E0_96_BB_2_E8_E3745_B4_D3_jpg_15c4bb46b4.jpg,,,,,,,,,,,,,
45.66409,0.17092,Gond-Pontouvre,16160,CA du Grand Angoul«¶me,Charente,https://api.v2.clean2gether.com/uploads/5a23cc06_329c_4671_967d_cecb82851572_jpg_71e5f3503d.jpg,,,,,,,,,,,,,
45.64493,0.11378,Angoul«¶me,16000,CA du Grand Angoul«¶me,Charente,https://api.v2.clean2gether.com/uploads/dd59e539_eac2_40ec_9343_8a4a1edbe547_jpg_42d5175374.jpg,,,,,,,,,,,,,
45.64507,0.1133,Angoul«¶me,16000,CA du Grand Angoul«¶me,Charente,https://api.v2.clean2gether.com/uploads/0ec5d0b6_6b85_4af1_bed4_cbc60b5f3339_jpg_3182c49a47.jpg,https://api.v2.clean2gether.com/uploads/dea84d20_338e_43ca_aa78_23faffa83a34_jpg_779d441103.jpg,,,,,,,,,,,,
45.6456,0.11534,Angoul«¶me,16000,CA du Grand Angoul«¶me,Charente,https://api.v2.clean2gether.com/uploads/c4adae2d_b582_4bd8_a024_b4f514d13392_jpg_6e7e90acef.jpg,,,,,,,,,,,,,
45.8433,0.15021,Cellettes,16230,CC Coeur de Charente,Charente,https://api.v2.clean2gether.com/uploads/8_E8_EE_0_F5_8377_4818_B1_BA_CC_61052_EC_381_jpg_2267229d37.jpg,https://api.v2.clean2gether.com/uploads/168_F96_D5_050_C_472_F_8_E81_98512_D89_D822_jpg_52eacec8c7.jpg,,,,,,,,,,,,
45.68799,-0.07466,M«∏rignac,16200,CA du Grand Cognac,Charente,https://api.v2.clean2gether.com/uploads/8_A087_C1_A_39_F4_4_CCC_86_A2_4_E29_DC_90956_B_jpg_7db78909cd.jpg,,,,,,,,,,,,,
45.68868,-0.07495,M«∏rignac,16200,CA du Grand Cognac,Charente,https://api.v2.clean2gether.com/uploads/8_A087_C1_A_39_F4_4_CCC_86_A2_4_E29_DC_90956_B_jpg_7ca0f5d044.jpg,,,,,,,,,,,,,
45.06443,-0.53972,Lansac,33710,CC du Grand Cubzaguais,Gironde,https://api.v2.clean2gether.com/uploads/7fa8d01f_0890_488e_89ee_fbc8b62ec68e_jpg_e14b7fab2f.jpg,,,,,,,,,,,,,
45.73648,-0.25355,R«∏parsac,16200,CA du Grand Cognac,Charente,https://api.v2.clean2gether.com/uploads/7b472f3e_1091_4fb0_b059_5dd855e4450b_jpg_712665b236.jpg,https://api.v2.clean2gether.com/uploads/dd681d02_eaca_40f6_97ff_9700329bb718_jpg_229d551a62.jpg,https://api.v2.clean2gether.com/uploads/55dec792_d06e_4889_8006_f422e521b47a_jpg_fff9198fb0.jpg,https://api.v2.clean2gether.com/uploads/8db56d52_1693_4172_963d_0ae9a4630220_jpg_daffe499bd.jpg,https://api.v2.clean2gether.com/uploads/eb337ca3_90bc_4915_8abe_78f449c19b3f_jpg_cfe6b5bd45.jpg,,,,,,,,,
45.68845,-0.07612,M«∏rignac,16200,CA du Grand Cognac,Charente,https://api.v2.clean2gether.com/uploads/4_B89_E638_1_AE_0_4711_A344_8_E1041_C701_A0_jpg_7b05f2d1e2.jpg,,,,,,,,,,,,,
45.71537,0.26397,Brie,16590,CA du Grand Angoul«¶me,Charente,https://api.v2.clean2gether.com/uploads/6_D437_DBE_C306_4334_A8_A8_F4_FD_9_B48_CF_71_jpg_78323bde54.jpg,https://api.v2.clean2gether.com/uploads/2_AC_8_B3_F2_EA_7_C_4080_AD_2_F_07_AC_9505_FC_27_jpg_c43bda3a80.jpg,https://api.v2.clean2gether.com/uploads/0646_E307_77_D4_4_DD_9_9_D05_B8_A47052972_E_jpg_e7b2cbdc9e.jpg,https://api.v2.clean2gether.com/uploads/EAA_8769_A_35_B4_47_D3_886_F_675_E6_D9447_A4_jpg_ba2c2362b3.jpg,https://api.v2.clean2gether.com/uploads/788_C7023_3_ED_9_49_DB_9_DD_0_4_C9_BDEEC_30_D6_jpg_7738ad5bed.jpg,,,,,,,,,
45.6204,-0.11128,Graves-Saint-Amant,16120,CA du Grand Cognac,Charente,https://api.v2.clean2gether.com/uploads/b6b34f2d_8493_4836_9d47_3f5eadabd391_jpg_2cef53677d.jpg,,,,,,,,,,,,,
45.71409,0.26496,Brie,16590,CA du Grand Angoul«¶me,Charente,https://api.v2.clean2gether.com/uploads/509_E492_F_4908_4_C6_D_8_C4_C_787_E522_AF_5_C7_jpg_ae607a9451.jpg,https://api.v2.clean2gether.com/uploads/4_C7544_AF_1_FF_3_459_E_98_B9_966_C9_CD_15_B50_jpg_23b4e51ad2.jpg,https://api.v2.clean2gether.com/uploads/B1_CA_0_CA_3_65_FA_49_FB_A819_1_C1_A147_A6_C89_jpg_56f3fff77f.jpg,https://api.v2.clean2gether.com/uploads/E64_B530_C_038_D_47_A5_A288_CE_5_C6_BF_306_C3_jpg_47d2c6b61c.jpg,https://api.v2.clean2gether.com/uploads/863718_DC_0_AFD_4_C8_B_9_EF_1_FCEFB_9870599_jpg_33966c298b.jpg,,,,,,,,,
45.79037,0.19132,Tourriers,16560,CC Coeur de Charente,Charente,https://api.v2.clean2gether.com/uploads/f229229d_b15c_45d5_90eb_a7fabeead27d_jpg_647ef9ee96.jpg,,,,,,,,,,,,,
45.73788,0.38999,La Rochefoucauld-en-Angoumois,16110,CC La Rochefoucauld - Porte du P«∏rigord,Charente,https://api.v2.clean2gether.com/uploads/8c33df43_d23e_44a1_b958_5b9e63bfd7ee_jpg_d4cd1a29d1.jpg,,,,,,,,,,,,,
45.71514,0.35782,Saint-Projet-Saint-Constant,16110,CC La Rochefoucauld - Porte du P«∏rigord,Charente,https://api.v2.clean2gether.com/uploads/abde6539_7c5e_41eb_b20a_4699207bd165_jpg_0b14615f2c.jpg,,,,,,,,,,,,,
45.62557,0.35608,Chazelles,16380,CC La Rochefoucauld - Porte du P«∏rigord,Charente,https://api.v2.clean2gether.com/uploads/C1_A7_CB_45_D650_4699_88_D1_5_C69602_FF_541_jpg_27db28066f.jpg,,,,,,,,,,,,,
45.56921,0.22071,Torsac,16410,CA du Grand Angoul«¶me,Charente,https://api.v2.clean2gether.com/uploads/EC_943811_41_C0_4_D5_D_9_BEF_737_FEE_601_F7_A_jpg_adbbc08e60.jpg,,,,,,,,,,,,,
45.72502,0.2724,Brie,16590,CA du Grand Angoul«¶me,Charente,https://api.v2.clean2gether.com/uploads/8649_CAFC_E9_B8_4_C6_F_A541_C2892_DD_6_F7_C0_jpg_57817788ad.jpg,,,,,,,,,,,,,
45.71756,0.2742,Brie,16590,CA du Grand Angoul«¶me,Charente,https://api.v2.clean2gether.com/uploads/6_D01_DECA_AAE_5_4379_8_EB_6_E8_E2_B1_EAEBCC_jpg_96412fbb8e.jpg,,,,,,,,,,,,,
45.72494,0.27178,Brie,16590,CA du Grand Angoul«¶me,Charente,https://api.v2.clean2gether.com/uploads/CEE_39_E3_B_B36_B_451_B_BA_51_603_C6_E733_D20_jpg_19ae8707f2.jpg,,,,,,,,,,,,,
45.69021,0.0236,Douzat,16290,CC du Rouillacais,Charente,https://api.v2.clean2gether.com/uploads/143b629d_85b8_44ab_810b_049a36248012_jpg_be9dd0b18f.jpg,,,,,,,,,,,,,
45.9133,0.20378,Lich«˘res,16460,CC Coeur de Charente,Charente,https://api.v2.clean2gether.com/uploads/7a25f561_ac46_47b3_885e_779df23ee76a_jpg_6acff02c67.jpg,https://api.v2.clean2gether.com/uploads/f9c2f3e2_1938_4db4_a57a_e944c07972bd_jpg_983874c148.jpg,https://api.v2.clean2gether.com/uploads/1367b8a8_cde6_4dc0_aef7_e14f9e9e29ff_jpg_f12f6fb5c1.jpg,,,,,,,,,,,
45.89185,-0.0095,Aigre,16140,CC Coeur de Charente,Charente,https://api.v2.clean2gether.com/uploads/64b2af24_879b_4bdc_91e2_e07f6a3534a1_jpg_a1da949955.jpg,,,,,,,,,,,,,
45.61188,0.24922,Dirac,16410,CA du Grand Angoul«¶me,Charente,https://api.v2.clean2gether.com/uploads/c56ef252_31cc_43e2_a3ee_380eff65a385_jpg_ae5b31e6a1.jpg,https://api.v2.clean2gether.com/uploads/d0c8ef42_2ad2_40da_b6c2_067f2eafeb40_jpg_240fd478f0.jpg,,,,,,,,,,,,
45.89474,-0.00688,Aigre,16140,CC Coeur de Charente,Charente,https://api.v2.clean2gether.com/uploads/e70db01f_dc17_4299_8667_0e9f9261a78e_jpg_52a5be73d1.jpg,,,,,,,,,,,,,
45.89508,-0.0065,Aigre,16140,CC Coeur de Charente,Charente,https://api.v2.clean2gether.com/uploads/ce15eaab_917a_412e_85b3_7cf7d7c5b1d0_jpg_f3ef4734f3.jpg,,,,,,,,,,,,,
45.52155,0.09316,Plassac-Rouffiac,16250,CA du Grand Angoul«¶me,Charente,https://api.v2.clean2gether.com/uploads/c3936373_43ea_4607_a459_723e08903181_jpg_8f11a60518.jpg,https://api.v2.clean2gether.com/uploads/8869e52f_6a5d_4d62_8779_be5b823874a9_jpg_829e7da4a3.jpg,https://api.v2.clean2gether.com/uploads/ccd44068_4e33_46df_a2bd_2d9332a43e74_jpg_20fe398ccf.jpg,https://api.v2.clean2gether.com/uploads/44ec4e0b_f099_4e13_b549_c28bd641aace_jpg_a2459f3b0b.jpg,,,,,,,,,,
45.67426,0.19585,L'Isle-d'Espagnac,16600,CA du Grand Angoul«¶me,Charente,https://api.v2.clean2gether.com/uploads/B14513_A3_031_F_4226_8556_3_E65_E05792_B1_jpg_f57919f820.jpg,https://api.v2.clean2gether.com/uploads/9255_C9_ED_B3_D7_4_DDF_B21_A_6_D1650_DE_9_E39_jpg_58240ccfbf.jpg,,,,,,,,,,,,
45.67634,0.22198,Ruelle-sur-Touvre,16600,CA du Grand Angoul«¶me,Charente,https://api.v2.clean2gether.com/uploads/D2577363_9737_496_F_942_A_AAF_2139_A1517_jpg_d406740b8c.jpg,,,,,,,,,,,,,
45.03305,-0.41325,Aubie-et-Espessas,33240,CC du Grand Cubzaguais,Gironde,https://api.v2.clean2gether.com/uploads/5_D0813_E8_8_AD_8_4_F03_81_C9_C7_D13_C8_FE_76_F_jpg_66fe317aaf.jpg,https://api.v2.clean2gether.com/uploads/FE_1_BBDE_0_FACE_4_A3_B_AB_11_DA_8_C7_E6_B8_B9_E_jpg_5bbfe31819.jpg,https://api.v2.clean2gether.com/uploads/1_BF_3_B70_B_B205_41_B9_803_E_6_D78_C14_A60_AD_jpg_29c244c52a.jpg,https://api.v2.clean2gether.com/uploads/37539_BED_5_E26_4_D70_87_D5_F1_BB_6_A0_BD_51_F_jpg_8742a46282.jpg,https://api.v2.clean2gether.com/uploads/1_C762_B71_8572_4_D4_A_B71_C_96_F52_C8_ED_505_jpg_ab6093c675.jpg,,,,,,,,,
46.13126,-1.12977,Aytr«∏,17440,CA de La Rochelle,Charente-Maritime,https://api.v2.clean2gether.com/uploads/ACDB_9023_FDB_5_4_E33_A826_62_F90_F632_F36_jpg_e20658061e.jpg,,,,,,,,,,,,,
45.5371,0.23867,Fouquebrune,16410,CC Lavalette Tude Dronne,Charente,https://api.v2.clean2gether.com/uploads/0409_E5_D0_272_C_470_C_A34_B_50534_A4_E8986_jpg_f106e62d46.jpg,,,,,,,,,,,,,
45.65533,0.18829,Angoul«¶me,16340,CA du Grand Angoul«¶me,Charente,https://api.v2.clean2gether.com/uploads/f88ca665_660d_4063_b588_fb356897a423_jpg_96ad3ad6c9.jpg,,,,,,,,,,,,,
45.6449,0.1057,Saint-Michel,16470,CA du Grand Angoul«¶me,Charente,https://api.v2.clean2gether.com/uploads/a9e8fa4a_47ac_472a_b09e_03003d6cdd52_jpg_83ff6b16c7.jpg,,,,,,,,,,,,,
45.77733,0.29354,Agris,16110,CC La Rochefoucauld - Porte du P«∏rigord,Charente,https://api.v2.clean2gether.com/uploads/AB_860_FBA_FE_27_49_C9_9143_F8_D058_A32_B48_jpg_998bdea39f.jpg,https://api.v2.clean2gether.com/uploads/E7_F1_E2_C0_F9_DD_428_C_86_B0_A1_A7123_AA_6_D2_jpg_24b9880e3c.jpg,https://api.v2.clean2gether.com/uploads/27451_A34_23_B4_4456_8_A77_BF_60_E720_DF_67_jpg_f6a1d3acaf.jpg,,,,,,,,,,,
45.79574,0.21373,Tourriers,16560,CC Coeur de Charente,Charente,https://api.v2.clean2gether.com/uploads/0eeb59e6_19e2_4cf5_aa84_b63771f95970_jpg_4c61b2caeb.jpg,,,,,,,,,,,,,
45.65562,-0.2605,Gensac-la-Pallue,16130,CA du Grand Cognac,Charente,https://api.v2.clean2gether.com/uploads/07f244a8_ddaa_4298_a28c_ba2ff82a659e_jpg_230f1bc767.jpg,,,,,,,,,,,,,
45.67682,0.24096,Ruelle-sur-Touvre,16600,CA du Grand Angoul«¶me,Charente,https://api.v2.clean2gether.com/uploads/dcf8706d_983d_4106_aa63_b1009ae25c61_jpg_427da76b53.jpg,,,,,,,,,,,,,
44.52704,-0.31454,Fargues,33210,CC du Sud Gironde,Gironde,https://api.v2.clean2gether.com/uploads/4c091d47_e7b8_494b_9641_241de9a4f867_jpg_ff08449fcd.jpg,,,,,,,,,,,,,
44.52677,-0.3148,Fargues,33210,CC du Sud Gironde,Gironde,https://api.v2.clean2gether.com/uploads/e940e10a_f5b3_41d7_9ffa_38fbec1dcc7c_jpg_eadf5b821e.jpg,,,,,,,,,,,,,
44.52459,-0.31594,Fargues,33210,CC du Sud Gironde,Gironde,https://api.v2.clean2gether.com/uploads/a2359fd9_4783_4fd3_89d9_476b1bdae35e_jpg_1372f0c948.jpg,,,,,,,,,,,,,
44.52568,-0.3158,Fargues,33210,CC du Sud Gironde,Gironde,https://api.v2.clean2gether.com/uploads/068a0bd0_4fa3_420a_b23c_f1a3c3392bb7_jpg_32f11ddf27.jpg,,,,,,,,,,,,,
45.56202,0.10123,Mouthiers-sur-Bo«Æme,16440,CA du Grand Angoul«¶me,Charente,https://api.v2.clean2gether.com/uploads/43_B94810_AAAE_4_CF_2_B526_F6_AE_795_E0_F39_jpg_cade4a6705.jpg,,,,,,,,,,,,,
45.66265,0.16428,Gond-Pontouvre,16160,CA du Grand Angoul«¶me,Charente,https://api.v2.clean2gether.com/uploads/bd7db261_914d_4999_ad5d_188c032a0d26_jpg_b9df6513d6.jpg,,,,,,,,,,,,,
45.92316,0.20339,Moutonneau,16460,CC Coeur de Charente,Charente,https://api.v2.clean2gether.com/uploads/efcd105c_979f_41cb_9d58_83e9e899afe4_jpg_fa2dfcc60a.jpg,,,,,,,,,,,,,
45.65087,0.15694,Angoul«¶me,16000,CA du Grand Angoul«¶me,Charente,https://api.v2.clean2gether.com/uploads/9de01960_0e3d_45fa_a159_6be2db15656f_jpg_6c1269e645.jpg,,,,,,,,,,,,,
45.68669,0.16888,Gond-Pontouvre,16160,CA du Grand Angoul«¶me,Charente,https://api.v2.clean2gether.com/uploads/1cc949ca_862c_4c5f_ac19_3274a8fc72bd_jpg_83a4d40721.jpg,,,,,,,,,,,,,
45.68791,0.17024,Gond-Pontouvre,16160,CA du Grand Angoul«¶me,Charente,https://api.v2.clean2gether.com/uploads/0e47ab5c_b4c3_45ec_9d76_7b4c4e374bfb_jpg_c9dffffe94.jpg,,,,,,,,,,,,,
45.64274,-0.20398,Segonzac,16130,CA du Grand Cognac,Charente,https://api.v2.clean2gether.com/uploads/0b72079b_370a_4328_bf0c_be6d59941cca_jpg_c7ba5feb85.jpg,,,,,,,,,,,,,
45.45095,-0.12194,Salles-de-Barbezieux,16300,CC des 4B Sud Charente,Charente,https://api.v2.clean2gether.com/uploads/c058c162_a4a1_4a6d_bd24_48aa55edcec5_jpg_34a42b55fb.jpg,,,,,,,,,,,,,
46.017,0.21595,Condac,16700,CC Val de Charente,Charente,https://api.v2.clean2gether.com/uploads/1b0eb370_e3e6_4040_bbde_091d83573a09_jpg_c3636fc760.jpg,https://api.v2.clean2gether.com/uploads/d1534483_1221_40e1_a605_c05eed0b6098_jpg_651bf27637.jpg,,,,,,,,,,,,
45.62719,0.14253,Angoul«¶me,16000,CA du Grand Angoul«¶me,Charente,https://api.v2.clean2gether.com/uploads/5_BBDCA_33_97_A9_437_B_9526_4_FD_1423865_BE_jpg_f3c02f8755.jpg,,,,,,,,,,,,,
45.68816,-0.07316,M«∏rignac,16200,CA du Grand Cognac,Charente,https://api.v2.clean2gether.com/uploads/D558_C285_AAA_8_47_F5_9580_029_A5_BF_493_C1_jpg_d50c5a4afc.jpg,,,,,,,,,,,,,
45.68765,-0.07351,M«∏rignac,16200,CA du Grand Cognac,Charente,https://api.v2.clean2gether.com/uploads/2_BEEDBC_8_FC_58_4_EB_3_BA_08_E3_C42_EF_6_DD_59_jpg_9e942c659a.jpg,,,,,,,,,,,,,
45.72539,0.27211,Brie,16590,CA du Grand Angoul«¶me,Charente,https://api.v2.clean2gether.com/uploads/95ebd82b_4c4d_40cf_aa37_b4d6882462ae_jpg_c185c6b5eb.jpg,https://api.v2.clean2gether.com/uploads/da65f966_d1e4_47c7_9a44_03494a5119e1_jpg_5efa5e4f9b.jpg,,,,,,,,,,,,
45.62163,-0.01449,Mosnac,16120,CA du Grand Cognac,Charente,https://api.v2.clean2gether.com/uploads/6344_A1_A2_DAD_1_47_FC_AEF_8_ECA_0_AA_19170_A_jpg_4c79378bbf.jpg,https://api.v2.clean2gether.com/uploads/6533_A1_EF_B25_C_4043_9_BEF_6_E6609163304_jpg_b2bb0e7716.jpg,https://api.v2.clean2gether.com/uploads/66724_F7_C_2307_47_DF_BD_8_A_17_D6_B1_CE_85_A4_jpg_bec4906d69.jpg,https://api.v2.clean2gether.com/uploads/67_AFBCBD_EA_47_42_FC_AADA_8_A635_FF_33_AA_1_jpg_95371a9155.jpg,https://api.v2.clean2gether.com/uploads/B226_B67_D_27_CA_4386_9_CB_5_EE_9_B8_DE_76_CEE_jpg_664dee908d.jpg,,,,,,,,,
45.6648,0.33492,Pranzac,16110,CC La Rochefoucauld - Porte du P«∏rigord,Charente,https://api.v2.clean2gether.com/uploads/7_EAE_3409_D273_4_E0_F_A94_D_C48388_D7_D939_jpg_da3e224939.jpg,,,,,,,,,,,,,
45.63945,0.23435,Magnac-sur-Touvre,16600,CA du Grand Angoul«¶me,Charente,https://api.v2.clean2gether.com/uploads/e1ab6bc5_3ee3_45ce_beff_4ab24a58bfd4_jpg_d164711f62.jpg,https://api.v2.clean2gether.com/uploads/859a8b18_c787_4e6b_b172_05deaf725654_jpg_8b87ffdc0d.jpg,https://api.v2.clean2gether.com/uploads/7bf5f855_1d31_445a_bc24_cf514a6a7492_jpg_6a34367dae.jpg,https://api.v2.clean2gether.com/uploads/6affabce_1ca1_48b6_9435_f23f95872af3_jpg_1da67f26a3.jpg,,,,,,,,,,
45.67634,0.17471,Gond-Pontouvre,16160,CA du Grand Angoul«¶me,Charente,https://api.v2.clean2gether.com/uploads/a61e9fc7_a14c_4e67_8e5e_c6a8d9bffe4e_jpg_1a0212e3be.jpg,,,,,,,,,,,,,
45.69982,0.28855,Mornac,16600,CA du Grand Angoul«¶me,Charente,https://api.v2.clean2gether.com/uploads/85fdbc14_8788_4192_954a_5800022230d0_jpg_a9fce70883.jpg,,,,,,,,,,,,,
45.91618,0.08701,Lign«∏,16140,CC Coeur de Charente,Charente,https://api.v2.clean2gether.com/uploads/3dd88eba_5074_46f1_9ffa_56f13eb72f4d_jpg_3a9a71a979.jpg,,,,,,,,,,,,,
45.70796,0.25411,Brie,16430,CA du Grand Angoul«¶me,Charente,https://api.v2.clean2gether.com/uploads/8f09c04c_5267_4c6a_99e8_fa7f8f1fd292_jpg_2aa9ced725.jpg,,,,,,,,,,,,,
45.71157,0.23389,Champniers,16430,CA du Grand Angoul«¶me,Charente,https://api.v2.clean2gether.com/uploads/dd28f4b7_693c_4d90_b79c_ba6e2de5811d_jpg_e4f831a738.jpg,,,,,,,,,,,,,
45.71091,0.23122,Champniers,16430,CA du Grand Angoul«¶me,Charente,https://api.v2.clean2gether.com/uploads/fe095147_ee8a_4041_ba86_58f73a98ccfe_jpg_e52d502c77.jpg,,,,,,,,,,,,,
45.68737,0.2115,Champniers,16600,CA du Grand Angoul«¶me,Charente,https://api.v2.clean2gether.com/uploads/72182677_010f_4a8e_8a95_f3de385186c0_jpg_f4ad7851e2.jpg,,,,,,,,,,,,,
45.70087,0.163,Champniers,16430,CA du Grand Angoul«¶me,Charente,https://api.v2.clean2gether.com/uploads/e7b5b859_72ec_424d_8a18_de8907651f8c_jpg_eff1d48f30.jpg,,,,,,,,,,,,,
45.87501,0.58589,Roumazi«˘res-Loubert,16270,CC de Charente Limousine,Charente,https://api.v2.clean2gether.com/uploads/CF_9_B6480_A4_F4_423_E_AD_40_CA_058171_D099_jpg_ad3e0f3317.jpg,,,,,,,,,,,,,
46.01579,0.21065,Ruffec,16700,CC Val de Charente,Charente,https://api.v2.clean2gether.com/uploads/49_F97460_61_AE_46_DD_AC_2_A_26_FC_998_E8_A21_jpg_ba110b757b.jpg,,,,,,,,,,,,,
45.63536,0.1065,Saint-Michel,16400,CA du Grand Angoul«¶me,Charente,https://api.v2.clean2gether.com/uploads/932f9409_d234_4542_9a43_a09ee4d369f0_jpg_97b353c2c2.jpg,,,,,,,,,,,,,
45.8743,0.0212,Marcillac-Lanville,16140,CC du Rouillacais,Charente,https://api.v2.clean2gether.com/uploads/013_A1729_CAB_6_40_AC_90_FA_E8_F0_BC_668_E6_E_jpg_a61b83f3b5.jpg,,,,,,,,,,,,,
45.87503,0.021,Marcillac-Lanville,16140,CC du Rouillacais,Charente,https://api.v2.clean2gether.com/uploads/459439_D9_5_F3_A_45_AD_8054_DDFDB_093_AC_38_jpg_4296710e4e.jpg,,,,,,,,,,,,,
45.9229,0.48179,Saint-Laurent-de-C«∏ris,16450,CC de Charente Limousine,Charente,https://api.v2.clean2gether.com/uploads/E1_E77_E32_A15_A_4964_A18_D_51_D6_D518644_F_jpg_be5e085cb9.jpg,,,,,,,,,,,,,
44.68281,-0.56827,La Br«˘de,33650,CC de Montesquieu,Gironde,https://api.v2.clean2gether.com/uploads/50_CBBEA_5_FC_3_C_4_B3_C_911_B_CEB_23_AAF_8_D6_F_jpg_22ca3d6672.jpg,,,,,,,,,,,,,
46.07947,-1.00171,Thair«∏,17290,CA de La Rochelle,Charente-Maritime,https://api.v2.clean2gether.com/uploads/bb68561b_0f97_4b07_bf31_6189e25d57b1_jpg_66c845ed0d.jpg,,,,,,,,,,,,,
43.15802,-1.27775,Lasse,64220,CA du Pays Basque,Pyr«∏n«∏es-Atlantiques,https://api.v2.clean2gether.com/uploads/f05e9854_75db_4e49_ad64_9feba9cdeb46_jpg_73739c43bf.jpg,,,,,,,,,,,,,
46.1996,0.11847,Chaunay,86510,CC du Civraisien en Poitou,Vienne,https://api.v2.clean2gether.com/uploads/50d18350_46ef_4f8a_b411_27d228029ae9_jpg_5c495570d3.jpg,,,,,,,,,,,,,
44.86783,-0.31701,Saint-Germain-du-Puch,33870,CA du Libournais,Gironde,https://api.v2.clean2gether.com/uploads/85ebe4e2_8b28_44db_85e3_089995e62441_jpg_aa5af1b9b6.jpg,,,,,,,,,,,,,
44.86802,-0.31741,Saint-Germain-du-Puch,33870,CA du Libournais,Gironde,https://api.v2.clean2gether.com/uploads/32801d6c_5957_4731_92f9_48bce55e9be0_jpg_ebd2d98214.jpg,,,,,,,,,,,,,
44.87211,-0.32169,Vayres,33870,CA du Libournais,Gironde,https://api.v2.clean2gether.com/uploads/f21175eb_1cff_4083_bb4d_db400c2637f1_jpg_47040938bf.jpg,,,,,,,,,,,,,
43.09853,-1.44146,Aldudes,64430,CA du Pays Basque,Pyr«∏n«∏es-Atlantiques,https://api.v2.clean2gether.com/uploads/f73015e5_a3cc_4866_9cbc_9f49f6ba95de_jpg_ef41ab88b6.jpg,https://api.v2.clean2gether.com/uploads/c79e81d7_6fc3_475f_9365_ae49b0f0761f_jpg_6e96dfb604.jpg,https://api.v2.clean2gether.com/uploads/08470641_a568_410b_93df_6939a33c2064_jpg_aa29178567.jpg,,,,,,,,,,,
44.80198,-0.63089,Pessac,33600,Bordeaux M«∏tropole,Gironde,https://api.v2.clean2gether.com/uploads/7_DE_43035_3_E05_4_E9_C_B14_D_DC_906_F227_B7_B_jpg_a991ff531c.jpg,,,,,,,,,,,,,
45.71934,0.27611,Brie,16590,CA du Grand Angoul«¶me,Charente,https://api.v2.clean2gether.com/uploads/8268_5d85973ead.png,,,,,,,,,,,,,
45.67193,0.28799,Mornac,16600,CA du Grand Angoul«¶me,Charente,https://api.v2.clean2gether.com/uploads/01043ea9_b68e_406f_a84c_c37f5d9b7a4f_jpg_4238ccdd0f.jpg,,,,,,,,,,,,,
45.58225,0.24843,Dirac,16410,CA du Grand Angoul«¶me,Charente,https://api.v2.clean2gether.com/uploads/f1baa928_93b1_4376_843e_d31efd447586_jpg_05a5f1dade.jpg,,,,,,,,,,,,,
45.58727,0.26348,Dirac,16410,CA du Grand Angoul«¶me,Charente,https://api.v2.clean2gether.com/uploads/9b43faa2_5786_41e4_a9f3_bf953d460ad1_jpg_0ab03f5d4b.jpg,,,,,,,,,,,,,
45.25731,2.08214,Saint-Merd-de-Lapleau,19320,CC de Ventadour - Egletons - Mon«∏di«˘res,Corr«˘ze,https://api.v2.clean2gether.com/uploads/39_D1668_D_52_CB_4385_9_C51_40_EAB_58_B75_CE_jpg_b761514f4f.jpg,https://api.v2.clean2gether.com/uploads/7_B6_EC_4_BA_B117_4565_AC_32_03_B97_B9_D2_F27_jpg_cd04b14c4f.jpg,https://api.v2.clean2gether.com/uploads/62974_ACC_072_E_42_EF_8371_BC_08_E2_FB_725_E_jpg_98ade6f194.jpg,https://api.v2.clean2gether.com/uploads/27_D26317_921_D_4_FF_3_9_B13_F7_D4_F554710_C_jpg_c5b8b598f9.jpg,,,,,,,,,,
45.71484,0.18134,Champniers,16430,CA du Grand Angoul«¶me,Charente,https://api.v2.clean2gether.com/uploads/040_CE_001_B830_4_C3_E_A945_4_EBB_8292_E04_C_jpg_12d7b21290.jpg,,,,,,,,,,,,,
45.70803,0.25302,Champniers,16430,CA du Grand Angoul«¶me,Charente,https://api.v2.clean2gether.com/uploads/86442_BD_5_BA_38_40_AF_B90_A_FA_3_B19_B9458_D_jpg_0003c48b8b.jpg,,,,,,,,,,,,,
46.57784,0.35019,Poitiers,86000,CU du Grand Poitiers,Vienne,https://api.v2.clean2gether.com/uploads/828992_C8_5_A2_A_4_B7_D_BDE_8_A7_B988_EAA_8_DF_jpg_747a1f41ed.jpg,,,,,,,,,,,,,
45.16489,-0.50606,Saint-Christoly-de-Blaye,33920,CC de Blaye,Gironde,https://api.v2.clean2gether.com/uploads/4c952595_25e8_4ae6_8a16_35d357b8de3f_jpg_1fa1490272.jpg,https://api.v2.clean2gether.com/uploads/4d0b93a8_68c4_4db4_bcb3_6f8b655c1d9c_jpg_88cf2592a7.jpg,,,,,,,,,,,,
44.68954,-0.5752,La Br«˘de,33650,CC de Montesquieu,Gironde,https://api.v2.clean2gether.com/uploads/0157f374_3b10_40c4_9a17_1928b7dc94de_jpg_2da0d7249f.jpg,,,,,,,,,,,,,
43.67206,-1.42638,Soorts-Hossegor,40150,CC Maremne Adour C«Ôte Sud,Landes,https://api.v2.clean2gether.com/uploads/8_E949549_2_E35_460_E_A412_53_EE_46_A793_D0_jpg_d129455d7c.jpg,https://api.v2.clean2gether.com/uploads/92_B85520_A95_D_405_E_894_F_07_D819569_D61_jpg_1fa1f1c557.jpg,https://api.v2.clean2gether.com/uploads/3_C9_B96_DA_2994_4_C59_A0_FB_DB_9_F80_FF_8554_jpg_3b3822a56c.jpg,,,,,,,,,,,
44.77944,-0.63993,Gradignan,33170,Bordeaux M«∏tropole,Gironde,https://api.v2.clean2gether.com/uploads/66645026_923b_46ab_87a7_f70b7a670e42_jpg_0b81d33e2f.jpg,https://api.v2.clean2gether.com/uploads/7136005b_5e18_43c2_be67_45c02221f92b_jpg_131833d4c0.jpg,https://api.v2.clean2gether.com/uploads/37304aa5_d115_41fd_adb6_909596493543_jpg_334da61b9d.jpg,https://api.v2.clean2gether.com/uploads/75d71587_fa8e_4b64_8d06_ee9d850a3e4f_jpg_8948354810.jpg,,,,,,,,,,
45.64492,0.12267,Angoul«¶me,16000,CA du Grand Angoul«¶me,Charente,https://api.v2.clean2gether.com/uploads/217201ce_aec2_4e3b_af91_7de6f07f25f1_jpg_f450823add.jpg,,,,,,,,,,,,,
45.57726,0.23356,Torsac,16410,CA du Grand Angoul«¶me,Charente,https://api.v2.clean2gether.com/uploads/7cef4dd3_71c6_4802_93a7_63e7f0879ec1_3eaebf2d2e.jpg,,,,,,,,,,,,,
45.64146,0.13999,Angoul«¶me,16000,CA du Grand Angoul«¶me,Charente,https://api.v2.clean2gether.com/uploads/50bfb544_55c4_4bf9_9e79_468b36a47cd3_a18979ee95.jpg,,,,,,,,,,,,,
45.17358,1.48697,Ussac,19270,CA du Bassin de Brive,Corr«˘ze,https://api.v2.clean2gether.com/uploads/6c8e8a25_ad67_482c_a301_7fe569b29428_481ee79a7f.jpg,,,,,,,,,,,,,
44.78104,-0.54829,Villenave-d'Ornon,33140,Bordeaux M«∏tropole,Gironde,https://api.v2.clean2gether.com/uploads/57_C54_A36_2_AF_2_4002_B8_F6_10905_C9_FF_32_A_2a3f12bcf8.jpg,https://api.v2.clean2gether.com/uploads/68_C15_E76_CDEC_499_D_9_D40_F5527_AF_68_B25_c9cf1aa088.jpg,https://api.v2.clean2gether.com/uploads/67913796_927_E_4_BED_8_F2_B_2_F6_F6_EB_96798_86fb6baebe.jpg,,,,,,,,,,,
45.63731,0.20999,Soyaux,16800,CA du Grand Angoul«¶me,Charente,https://api.v2.clean2gether.com/uploads/1362456_B_B636_4_BC_0_AA_03_DF_49_C3_EA_90_DD_67b9b0247e.jpg,https://api.v2.clean2gether.com/uploads/47_EE_8363_FE_97_48_D8_8958_5_DDB_392_E15_C7_d7c1b70c13.jpg,,,,,,,,,,,,
44.63053,-0.48356,Saint-Selve,33650,CC de Montesquieu,Gironde,https://api.v2.clean2gether.com/uploads/809_CF_64_A_6071_4_B75_A00_C_DC_72680_FA_9_A6_aeb689c0a0.jpg,https://api.v2.clean2gether.com/uploads/3_A49_D993_A81_B_4129_91_A8_D48_E51_A8_C0_E7_6f3eea57bf.jpg,,,,,,,,,,,,
44.77913,-0.55857,Villenave-d'Ornon,33140,Bordeaux M«∏tropole,Gironde,https://api.v2.clean2gether.com/uploads/DFDE_7_CC_0_5_C1_A_4_ACD_85_B3_A17439576_AE_8_bd7ca449b7.jpg,https://api.v2.clean2gether.com/uploads/35_D93910_9130_4_A4_C_8_D71_26463_FFAC_0_A6_7cc1662184.jpg,https://api.v2.clean2gether.com/uploads/9_B6_EE_4_F3_D7_EA_4_EE_2_832_C_C8_F1_D15_F7_E58_c85e0043cb.jpg,https://api.v2.clean2gether.com/uploads/A8_D9889_E_D368_4648_BAA_4_3_C8785752411_4314b7bdba.jpg,https://api.v2.clean2gether.com/uploads/C2_BA_6_DF_9_AFCA_4965_95_FD_23_CAB_5_B4_C52_E_ae180a23fc.jpg,,,,,,,,,
45.22349,0.08293,Saint-Quentin-de-Chalais,16210,CC Lavalette Tude Dronne,Charente,https://api.v2.clean2gether.com/uploads/21ed73a8_e221_4c07_baa4_d32ac659f5aa_2b14a3db5c.jpg,,,,,,,,,,,,,
45.23305,0.07499,Saint-Quentin-de-Chalais,16210,CC Lavalette Tude Dronne,Charente,https://api.v2.clean2gether.com/uploads/3a9a9180_f086_4092_a95f_63cc2093bfb7_32b849f04b.jpg,https://api.v2.clean2gether.com/uploads/40d82d02_75b9_4003_9f59_fefcf3ee9d25_10e73809c6.jpg,,,,,,,,,,,,
44.74293,-0.60081,L«∏ognan,33850,CC de Montesquieu,Gironde,https://api.v2.clean2gether.com/uploads/79_CD_36_CE_B5_D0_430_B_B2_EB_EA_5_D4_F786959_54ef84d0dc.jpg,,,,,,,,,,,,,
45.58684,0.25359,Dirac,16410,CA du Grand Angoul«¶me,Charente,https://api.v2.clean2gether.com/uploads/6_D2_E41_EF_FE_32_4_D14_A569_0_EE_7_B7_C0_E29_F_30fa9b9409.jpg,https://api.v2.clean2gether.com/uploads/3_AC_0294_F_8_C16_4_F20_8_B24_35_A9_C4_C88232_00186b2772.jpg,https://api.v2.clean2gether.com/uploads/C43571_AC_35_AB_4419_85_F5_9920874_B2_F5_B_1ade6fbb77.jpg,,,,,,,,,,,
44.75141,-0.65379,Can«∏jan,33610,CC Jalle-Eau-Bourde,Gironde,https://api.v2.clean2gether.com/uploads/df4d645d_10f2_4925_807c_962a6b85c2c5_e529e80d23.jpg,https://api.v2.clean2gether.com/uploads/083d8446_69e9_4ca3_a2a4_35488d968eb1_9f925a2147.jpg,,,,,,,,,,,,
45.69944,0.25395,Champniers,16430,CA du Grand Angoul«¶me,Charente,https://api.v2.clean2gether.com/uploads/8_BAF_97_B5_D3_A2_495_C_95_DD_11928090_FAC_7_ecb8e63a70.jpg,https://api.v2.clean2gether.com/uploads/7_F7633_CD_D693_4_F14_BCF_0_FB_8029_CC_1_CAA_ee6cdf9fa8.jpg,,,,,,,,,,,,
45.55861,0.00726,Roullet-Saint-Est«˘phe,16440,CA du Grand Angoul«¶me,Charente,https://api.v2.clean2gether.com/uploads/A7093_B26_9143_41_A6_8_A44_6_A952_E21_F3_D3_c24ace0d44.jpg,,,,,,,,,,,,,
45.01819,0.10683,M«∏nesplet,24700,CC Isle Double Landais,Dordogne,https://api.v2.clean2gether.com/uploads/eedeb818_f412_469f_ab3e_8d28565f5fe6_b7ff3cd96d.jpg,,,,,,,,,,,,,
43.63509,-1.39848,B«∏nesse-Maremne,40130,CC Maremne Adour C«Ôte Sud,Landes,https://api.v2.clean2gether.com/uploads/e07c530e_7f80_48c1_a70f_f78e4ef8f6bc_3152fc87e2.jpg,https://api.v2.clean2gether.com/uploads/b7fcdab5_6108_45af_be69_b66a9759b4f0_eb63d478fa.jpg,https://api.v2.clean2gether.com/uploads/44527d64_63db_4b88_9d71_e5708bdf3085_78d25e2462.jpg,https://api.v2.clean2gether.com/uploads/6d941dc2_bf74_40ac_bece_1d6645b1785c_00f0ded74b.jpg,https://api.v2.clean2gether.com/uploads/9811ee29_4478_416d_99ff_16085ea0ac93_50a93c062d.jpg,https://api.v2.clean2gether.com/uploads/cbd995f0_ef33_42cb_98dc_5032edfa0699_7284f415a4.jpg,https://api.v2.clean2gether.com/uploads/3657b02d_b12d_4e12_b036_7eba4c16de20_bb408ea454.jpg,https://api.v2.clean2gether.com/uploads/aad827b8_6441_4be1_8107_8243f7a75376_7368788f57.jpg,https://api.v2.clean2gether.com/uploads/da9dec1a_ed56_471c_b0a5_5d037b500bc3_1869293fa6.jpg,https://api.v2.clean2gether.com/uploads/33d81867_dd84_46bd_93c8_2fd7362fd10e_c46ac1d584.jpg,https://api.v2.clean2gether.com/uploads/f0651763_8f85_44ca_b9bf_da1d3b55a277_12bc744bee.jpg,https://api.v2.clean2gether.com/uploads/4fa049ab_5ab0_45c4_b1aa_3975f5e7a237_01d02b1519.jpg,,
45.69924,0.25306,Ruelle-sur-Touvre,16430,CA du Grand Angoul«¶me,Charente,https://api.v2.clean2gether.com/uploads/ed53ff4a_88a1_4c79_bbc6_50476f42fd13_9a0f28445b.jpg,,,,,,,,,,,,,
45.74696,-0.44082,Saint-Sulpice-de-Cognac,16370,CA du Grand Cognac,Charente,https://api.v2.clean2gether.com/uploads/5e48fbd6_a744_484f_a940_63e383ca1b7b_d3801e4424.jpg,,,,,,,,,,,,,
45.64699,0.11142,Angoul«¶me,16000,CA du Grand Angoul«¶me,Charente,https://api.v2.clean2gether.com/uploads/04338_C66_94_F5_45_D3_AA_2_B_3_E96290_D53_A2_9eaeada874.jpg,,,,,,,,,,,,,
45.67789,-0.06942,M«∏rignac,16200,CA du Grand Cognac,Charente,https://api.v2.clean2gether.com/uploads/95af0a3f_4c57_43ca_b556_14acfc71e8ed_88165796c3.jpg,,,,,,,,,,,,,
45.69046,0.16049,Gond-Pontouvre,16160,CA du Grand Angoul«¶me,Charente,https://api.v2.clean2gether.com/uploads/c0a1019c_42c4_4b8f_9858_042084737ab0_e53ea00e03.jpg,,,,,,,,,,,,,
45.70041,-0.4203,Ch«∏rac,17610,CA de Saintes,Charente-Maritime,https://api.v2.clean2gether.com/uploads/a3492509_3a24_4291_9ac7_9fb4087e3cc6_38ba12a9ad.jpg,,,,,,,,,,,,,
45.93021,-0.1004,Chives,17510,CC Vals de Saintonge,Charente-Maritime,https://api.v2.clean2gether.com/uploads/fe99fd9d_4001_47b7_8b2a_66f9b5b6da63_a6344267a9.jpg,,,,,,,,,,,,,
45.51041,-0.2036,Lagarde-sur-le-N«∏,16300,CC des 4B Sud Charente,Charente,https://api.v2.clean2gether.com/uploads/f8f5c4e4_fdf4_47cd_9b58_c41e2bc4abfc_4beed22722.jpg,,,,,,,,,,,,,
45.55338,0.3498,Rougnac,16320,CC Lavalette Tude Dronne,Charente,https://api.v2.clean2gether.com/uploads/362fb02d_82d3_4c0e_b705_0f09e8682ecd_b0472b394c.jpg,,,,,,,,,,,,,
45.60442,0.26386,Dirac,16410,CA du Grand Angoul«¶me,Charente,https://api.v2.clean2gether.com/uploads/61608763_B974_4_D80_A054_6_ADEEEFFB_914_df0b7b6e94.jpg,,,,,,,,,,,,,
44.88247,-1.07536,Le Porge,33680,CC M«∏dullienne,Gironde,https://api.v2.clean2gether.com/uploads/7_F3991_F0_1_DA_8_4993_9_BCE_83_BA_01_AFBE_3_E_5fb968fbae.jpg,https://api.v2.clean2gether.com/uploads/23980_E31_F38_D_42_FB_9985_95_ED_9_BB_39_AC_2_6d99b94eff.jpg,,,,,,,,,,,,
44.97857,-0.45065,Cubzac-les-Ponts,33240,CC du Grand Cubzaguais,Gironde,https://api.v2.clean2gether.com/uploads/2332167a_4cc1_4333_bcc0_4b84b82cb7d4_67b83dd17f.jpg,,,,,,,,,,,,,
45.67641,0.24108,Ruelle-sur-Touvre,16600,CA du Grand Angoul«¶me,Charente,https://api.v2.clean2gether.com/uploads/52270898_3c5e_4f80_b238_a6d8e735a780_80d5d883d8.jpg,,,,,,,,,,,,,
44.95125,-0.25365,Saillans,33141,CC du Fronsadais,Gironde,https://api.v2.clean2gether.com/uploads/3c8fcb8d_505c_43a6_a2e3_a5da411ef5c2_5da5b51764.jpg,https://api.v2.clean2gether.com/uploads/448c99d7_2ee2_43d6_ae58_4e2a6c05c421_f2b7641246.jpg,https://api.v2.clean2gether.com/uploads/9323295a_2cf7_48b8_a29a_4f16a21b9eff_f014403580.jpg,,,,,,,,,,,
45.55392,0.21877,Torsac,16410,CA du Grand Angoul«¶me,Charente,https://api.v2.clean2gether.com/uploads/776_CD_6_FC_581_D_4421_AC_41_D548_A2_B6_E280_ff8fd35a7b.jpg,,,,,,,,,,,,,
45.3652,-0.52927,Soubran,17150,CC de la Haute Saintonge,Charente-Maritime,https://api.v2.clean2gether.com/uploads/5a42da30_e1f6_4b13_948e_51c979ec6c16_e1a11bae15.jpg,,,,,,,,,,,,,
45.90577,0.0568,Aigre,16140,CC Coeur de Charente,Charente,https://api.v2.clean2gether.com/uploads/59a65c14_1a50_4f25_b34e_ef23ab6033f6_0e842eca8a.jpg,https://api.v2.clean2gether.com/uploads/b8e8d2a0_b203_459f_8ec2_8b7f85a24cc4_605bc27e3b.jpg,,,,,,,,,,,,
45.70529,0.2934,Mornac,16600,CA du Grand Angoul«¶me,Charente,https://api.v2.clean2gether.com/uploads/3f234cf5_8982_4a03_ab76_3aa584b22ad3_8588b798e7.jpg,,,,,,,,,,,,,
45.78148,0.30523,La Rochette,16110,CC La Rochefoucauld - Porte du P«∏rigord,Charente,https://api.v2.clean2gether.com/uploads/B968_E14_B_01_E6_4993_8_D41_F7_B61_EDAEB_61_2dc72be895.jpg,,,,,,,,,,,,,
45.69414,0.33904,Bunzac,16110,CC La Rochefoucauld - Porte du P«∏rigord,Charente,https://api.v2.clean2gether.com/uploads/08e9b520_f394_40f9_b978_94d3a66b3e2d_b97bbe42d9.jpg,,,,,,,,,,,,,
45.73147,-0.65307,Saintes,17100,CA de Saintes,Charente-Maritime,https://api.v2.clean2gether.com/uploads/1_EBAC_3_C0_443_A_4_A1_C_A702_706_B2859_F15_E_869bc35a2d.jpg,,,,,,,,,,,,,
45.56888,0.18517,Torsac,16410,CA du Grand Angoul«¶me,Charente,https://api.v2.clean2gether.com/uploads/19a99c1b_0218_4699_9700_94c9559aba79_58459cfb78.jpg,,,,,,,,,,,,,
45.63435,0.20295,Soyaux,16800,CA du Grand Angoul«¶me,Charente,https://api.v2.clean2gether.com/uploads/91590283_4d9f_4133_abc5_122dac3c1193_ff7e3e1da7.jpg,,,,,,,,,,,,,
45.68508,0.15589,Gond-Pontouvre,16160,CA du Grand Angoul«¶me,Charente,https://api.v2.clean2gether.com/uploads/33bb5166_8951_4eaa_a58b_aafe2670562d_96fd557c12.jpg,,,,,,,,,,,,,
45.69073,0.14516,Saint-Yrieix-sur-Charente,16710,CA du Grand Angoul«¶me,Charente,https://api.v2.clean2gether.com/uploads/9850ddde_f16f_4dc1_8234_373fbd23e890_4e550e4e74.jpg,,,,,,,,,,,,,
45.65118,0.11284,Angoul«¶me,16000,CA du Grand Angoul«¶me,Charente,https://api.v2.clean2gether.com/uploads/FF_0_A6731_9_F77_439_A_891_F_93_E1_EA_870445_a7a7b028fc.jpg,,,,,,,,,,,,,
45.55824,0.14385,Mouthiers-sur-Bo«Æme,16440,CA du Grand Angoul«¶me,Charente,https://api.v2.clean2gether.com/uploads/5356_D28_F_E18_D_4_A06_A73_E_0993987_AC_113_5cb38719ba.jpg,,,,,,,,,,,,,
45.5607,0.11945,Mouthiers-sur-Bo«Æme,16440,CA du Grand Angoul«¶me,Charente,https://api.v2.clean2gether.com/uploads/A74_A7133_B251_4_D67_9386_38965_DADD_029_34ab222725.jpg,,,,,,,,,,,,,
45.6819,0.17549,Gond-Pontouvre,16160,CA du Grand Angoul«¶me,Charente,https://api.v2.clean2gether.com/uploads/fd15b728_74c5_4a00_800e_754fae1dea6f_e8d30ed3b6.jpg,https://api.v2.clean2gether.com/uploads/dd614f36_9251_4da0_9a71_f9c5c3a36ec1_4010305a98.jpg,,,,,,,,,,,,
45.66844,-0.94872,Saujon,17600,CA Royan Atlantique,Charente-Maritime,https://api.v2.clean2gether.com/uploads/95_B57_CB_5_BDDD_43_FF_B973_3_AA_1072_E21_FE_da3b25800d.jpg,,,,,,,,,,,,,
45.74048,-0.39476,Louzac-Saint-Andr«∏,16100,CA du Grand Cognac,Charente,https://api.v2.clean2gether.com/uploads/0_BD_8978_B_8_CAB_4_C5_D_9170_30_C1_FBD_8_F3_C6_714fbfb482.jpg,,,,,,,,,,,,,
44.87185,-1.12793,Le Porge,33680,CC M«∏dullienne,Gironde,https://api.v2.clean2gether.com/uploads/5_D41_D4_C3_0_B28_4_B61_9_B45_FD_685_E8_AC_611_1939ca3310.jpg,,,,,,,,,,,,,
45.68947,0.74819,Saint-Mathieu,87440,CC Ouest Limousin,Haute-Vienne,https://api.v2.clean2gether.com/uploads/f2004452_3ccd_4ca6_ad4a_5b8eaa607f3c_b091460799.jpg,https://api.v2.clean2gether.com/uploads/2a9d10bc_dc59_43e3_9b2c_b76220c376c7_403ef171d1.jpg,,,,,,,,,,,,
45.96219,0.20355,Verteuil-sur-Charente,16510,CC Val de Charente,Charente,https://api.v2.clean2gether.com/uploads/4210ea36_6c9c_4b9c_a388_304f43fc995b_dcfccdbc27.jpg,https://api.v2.clean2gether.com/uploads/506804fd_6a01_4794_ac78_570603ba8192_72df9a7c07.jpg,https://api.v2.clean2gether.com/uploads/ecabf7df_e57c_4735_9401_0b9dccc29490_024ebdb798.jpg,,,,,,,,,,,
45.6259,0.26243,Garat,16410,CA du Grand Angoul«¶me,Charente,https://api.v2.clean2gether.com/uploads/4_A6_F8_E15_0_E10_45_BD_82_C8_7_A21_E75_CDA_10_58a373e85d.jpg,,,,,,,,,,,,,
45.01035,-0.39472,Val de Virv«∏e,33240,CC du Grand Cubzaguais,Gironde,https://api.v2.clean2gether.com/uploads/08dab5df_52c0_4677_8b1f_d2ef626320a6_136774a3e1.jpg,,,,,,,,,,,,,
45.7234,-0.17573,Les M«∏tairies,16200,CA du Grand Cognac,Charente,https://api.v2.clean2gether.com/uploads/0_AEA_1_FE_7_A02_F_46_D9_8371_882_D12_C7728_F_a36b84c06a.jpg,,,,,,,,,,,,,
45.56121,0.27911,Dignac,16410,CA du Grand Angoul«¶me,Charente,https://api.v2.clean2gether.com/uploads/f2350b26_0304_43af_a284_8c800c5ba3fa_41b3d6601d.jpg,,,,,,,,,,,,,
45.98629,0.13009,Courc«Ôme,16240,CC Val de Charente,Charente,https://api.v2.clean2gether.com/uploads/D2_D07921_B9_F0_4_ECC_AED_4_1061_F4_C6_A505_9d00dee083.jpg,,,,,,,,,,,,,
45.63903,0.03734,Trois-Palis,16730,CA du Grand Angoul«¶me,Charente,https://api.v2.clean2gether.com/uploads/2d823931_9041_4483_84c6_ace5512355ac_d3e04a0f7e.jpg,https://api.v2.clean2gether.com/uploads/ca8bb2e2_9d0e_4b0a_9c4c_9b3ebdd6c48a_89cb067f28.jpg,,,,,,,,,,,,
45.67745,0.17645,Gond-Pontouvre,16160,CA du Grand Angoul«¶me,Charente,https://api.v2.clean2gether.com/uploads/bb08a157_b7e6_4163_8711_5cc8b6ffcf58_1f67972c74.jpg,,,,,,,,,,,,,
45.68242,0.15995,Gond-Pontouvre,16160,CA du Grand Angoul«¶me,Charente,https://api.v2.clean2gether.com/uploads/cbbc69cf_05f6_4161_a030_f83f8e9f5506_47f21d60b7.jpg,,,,,,,,,,,,,
45.71277,0.11555,Vindelle,16430,CA du Grand Angoul«¶me,Charente,https://api.v2.clean2gether.com/uploads/7_ECB_7_D8_B_E86_B_4_FA_6_BB_0_D_A59_B84708_B7_D_f5c61146c2.jpg,https://api.v2.clean2gether.com/uploads/CF_4483_DC_8_F42_4_D45_BABB_D4477_D366221_ee1dac5477.jpg,https://api.v2.clean2gether.com/uploads/DB_60_D094_A149_44_BF_B248_C7_BF_072685_D6_cbc38a5683.jpg,,,,,,,,,,,
45.74293,0.26208,Brie,16590,CA du Grand Angoul«¶me,Charente,https://api.v2.clean2gether.com/uploads/25_C9_C8_A7_4971_46_A5_8130_88_EA_58021_FA_6_30c6d85469.jpg,,,,,,,,,,,,,
45.58116,0.20333,Torsac,16410,CA du Grand Angoul«¶me,Charente,https://api.v2.clean2gether.com/uploads/8013e371_4844_444d_b8ed_cc7de975542e_d1d18345a6.jpg,,,,,,,,,,,,,
45.7028,0.26324,Champniers,16430,CA du Grand Angoul«¶me,Charente,https://api.v2.clean2gether.com/uploads/A9969_BBB_0_FF_6_4_DC_8_AB_1_F_D5_F9_ED_1_B43_D9_9106e305c3.jpg,,,,,,,,,,,,,
45.5563,-0.28747,Saint-Palais-du-N«∏,16300,CC des 4B Sud Charente,Charente,https://api.v2.clean2gether.com/uploads/8d1df697_4b5e_422f_9040_b9931e07da19_0e74667743.jpg,,,,,,,,,,,,,
45.6532,-0.35057,Gimeux,16130,CA du Grand Cognac,Charente,https://api.v2.clean2gether.com/uploads/0c00533b_0c9a_4e58_a7d9_fca22696b442_f398c98f62.jpg,,,,,,,,,,,,,
45.65021,0.11263,Angoul«¶me,16000,CA du Grand Angoul«¶me,Charente,https://api.v2.clean2gether.com/uploads/931788_E6_4_E62_4_C14_9_D41_797974_E46_B5_E_f4efc36d25.jpg,,,,,,,,,,,,,
45.65976,0.16095,Angoul«¶me,16000,CA du Grand Angoul«¶me,Charente,https://api.v2.clean2gether.com/uploads/11707_2bb036533b.png,,,,,,,,,,,,,
44.89039,-0.68011,Le Haillan,33185,Bordeaux M«∏tropole,Gironde,https://api.v2.clean2gether.com/uploads/4_AB_51_AC_5_30_AE_44_C1_BA_3_D_97422428_C6_A4_838f20fbcc.jpg,,,,,,,,,,,,,
44.97713,-0.45327,Cubzac-les-Ponts,33240,CC du Grand Cubzaguais,Gironde,https://api.v2.clean2gether.com/uploads/16c531e7_af90_453b_9368_b462773c1d62_3307044423.jpg,,,,,,,,,,,,,
45.67295,0.11235,Saint-Yrieix-sur-Charente,16730,CA du Grand Angoul«¶me,Charente,https://api.v2.clean2gether.com/uploads/2fe2a86f_be9a_4e74_9905_85d629fa72f1_80cda8989d.jpg,,,,,,,,,,,,,
45.9478,0.13054,Charm«∏,16140,CC Coeur de Charente,Charente,https://api.v2.clean2gether.com/uploads/0f7f6d4b_93cb_4cdd_bd3e_5be04d30bfee_e72a25632b.jpg,,,,,,,,,,,,,
45.70487,0.19261,Champniers,16430,CA du Grand Angoul«¶me,Charente,https://api.v2.clean2gether.com/uploads/dfa3afb5_a909_4ab6_bde9_8d22a562d838_ff7df6d19e.jpg,,,,,,,,,,,,,
45.77792,0.31195,Agris,16110,CC La Rochefoucauld - Porte du P«∏rigord,Charente,https://api.v2.clean2gether.com/uploads/8ba84cf1_a803_412d_a278_b874e096e552_453fed9fd2.jpg,,,,,,,,,,,,,
45.54948,0.122,Mouthiers-sur-Bo«Æme,16440,CA du Grand Angoul«¶me,Charente,https://api.v2.clean2gether.com/uploads/11973_b32bcf7829.png,,,,,,,,,,,,,
44.83744,-0.07309,Saint-Magne-de-Castillon,33350,CC Castillon/Pujols,Gironde,https://api.v2.clean2gether.com/uploads/203230c5_b556_44dd_850a_6bf28acdf9d1_8b90b89f27.jpg,,,,,,,,,,,,,
45.604810802555114,0.3156001120805741,Sers,16410,CA du Grand Angoul«¶me,Charente,https://api.v2.clean2gether.com/uploads/c2g_upload_84ac170a96.jpg,,,,,,,,,,,,,
45.69290124666479,0.06663018061001402,Asni«˘res-sur-Nou«˘re,16290,CA du Grand Angoul«¶me,Charente,https://api.v2.clean2gether.com/uploads/c2g_upload_5944144368.jpg,,,,,,,,,,,,,
45.638587397616504,0.07074493914842606,Nersac,16440,CA du Grand Angoul«¶me,Charente,https://api.v2.clean2gether.com/uploads/c2g_upload_33c6672bd5.jpg,,,,,,,,,,,,,
45.65976,0.16095,Angoul«¶me,16000,CA du Grand Angoul«¶me,Charente,https://api.v2.clean2gether.com/uploads/11707_2bb036533b.png,,,,,,,,,,,,,
44.89039,-0.68011,Le Haillan,33185,Bordeaux M«∏tropole,Gironde,https://api.v2.clean2gether.com/uploads/4_AB_51_AC_5_30_AE_44_C1_BA_3_D_97422428_C6_A4_838f20fbcc.jpg,,,,,,,,,,,,,
44.97713,-0.45327,Cubzac-les-Ponts,33240,CC du Grand Cubzaguais,Gironde,https://api.v2.clean2gether.com/uploads/16c531e7_af90_453b_9368_b462773c1d62_3307044423.jpg,,,,,,,,,,,,,
45.67295,0.11235,Saint-Yrieix-sur-Charente,16730,CA du Grand Angoul«¶me,Charente,https://api.v2.clean2gether.com/uploads/2fe2a86f_be9a_4e74_9905_85d629fa72f1_80cda8989d.jpg,,,,,,,,,,,,,
45.9478,0.13054,Charm«∏,16140,CC Coeur de Charente,Charente,https://api.v2.clean2gether.com/uploads/0f7f6d4b_93cb_4cdd_bd3e_5be04d30bfee_e72a25632b.jpg,,,,,,,,,,,,,
45.70487,0.19261,Champniers,16430,CA du Grand Angoul«¶me,Charente,https://api.v2.clean2gether.com/uploads/dfa3afb5_a909_4ab6_bde9_8d22a562d838_ff7df6d19e.jpg,,,,,,,,,,,,,
45.77792,0.31195,Agris,16110,CC La Rochefoucauld - Porte du P«∏rigord,Charente,https://api.v2.clean2gether.com/uploads/8ba84cf1_a803_412d_a278_b874e096e552_453fed9fd2.jpg,,,,,,,,,,,,,
45.54948,0.122,Mouthiers-sur-Bo«Æme,16440,CA du Grand Angoul«¶me,Charente,https://api.v2.clean2gether.com/uploads/11973_b32bcf7829.png,,,,,,,,,,,,,
44.83744,-0.07309,Saint-Magne-de-Castillon,33350,CC Castillon/Pujols,Gironde,https://api.v2.clean2gether.com/uploads/203230c5_b556_44dd_850a_6bf28acdf9d1_8b90b89f27.jpg,,,,,,,,,,,,,
45.604810802555114,0.3156001120805741,Sers,16410,CA du Grand Angoul«¶me,Charente,https://api.v2.clean2gether.com/uploads/c2g_upload_84ac170a96.jpg,,,,,,,,,,,,,
45.69290124666479,0.06663018061001402,Asni«˘res-sur-Nou«˘re,16290,CA du Grand Angoul«¶me,Charente,https://api.v2.clean2gether.com/uploads/c2g_upload_5944144368.jpg,,,,,,,,,,,,,
45.638587397616504,0.07074493914842606,Nersac,16440,CA du Grand Angoul«¶me,Charente,https://api.v2.clean2gether.com/uploads/c2g_upload_33c6672bd5.jpg,,,,,,,,,,,,,
45.65976,0.16095,Angoul«¶me,16000,CA du Grand Angoul«¶me,Charente,https://api.v2.clean2gether.com/uploads/11707_2bb036533b.png,,,,,,,,,,,,,
44.89039,-0.68011,Le Haillan,33185,Bordeaux M«∏tropole,Gironde,https://api.v2.clean2gether.com/uploads/4_AB_51_AC_5_30_AE_44_C1_BA_3_D_97422428_C6_A4_838f20fbcc.jpg,,,,,,,,,,,,,
44.97713,-0.45327,Cubzac-les-Ponts,33240,CC du Grand Cubzaguais,Gironde,https://api.v2.clean2gether.com/uploads/16c531e7_af90_453b_9368_b462773c1d62_3307044423.jpg,,,,,,,,,,,,,
45.67295,0.11235,Saint-Yrieix-sur-Charente,16730,CA du Grand Angoul«¶me,Charente,https://api.v2.clean2gether.com/uploads/2fe2a86f_be9a_4e74_9905_85d629fa72f1_80cda8989d.jpg,,,,,,,,,,,,,
45.9478,0.13054,Charm«∏,16140,CC Coeur de Charente,Charente,https://api.v2.clean2gether.com/uploads/0f7f6d4b_93cb_4cdd_bd3e_5be04d30bfee_e72a25632b.jpg,,,,,,,,,,,,,
45.70487,0.19261,Champniers,16430,CA du Grand Angoul«¶me,Charente,https://api.v2.clean2gether.com/uploads/dfa3afb5_a909_4ab6_bde9_8d22a562d838_ff7df6d19e.jpg,,,,,,,,,,,,,
45.77792,0.31195,Agris,16110,CC La Rochefoucauld - Porte du P«∏rigord,Charente,https://api.v2.clean2gether.com/uploads/8ba84cf1_a803_412d_a278_b874e096e552_453fed9fd2.jpg,,,,,,,,,,,,,
45.54948,0.122,Mouthiers-sur-Bo«Æme,16440,CA du Grand Angoul«¶me,Charente,https://api.v2.clean2gether.com/uploads/11973_b32bcf7829.png,,,,,,,,,,,,,
44.83744,-0.07309,Saint-Magne-de-Castillon,33350,CC Castillon/Pujols,Gironde,https://api.v2.clean2gether.com/uploads/203230c5_b556_44dd_850a_6bf28acdf9d1_8b90b89f27.jpg,,,,,,,,,,,,,
45.604810802555114,0.3156001120805741,Sers,16410,CA du Grand Angoul«¶me,Charente,https://api.v2.clean2gether.com/uploads/c2g_upload_84ac170a96.jpg,,,,,,,,,,,,,
45.69290124666479,0.06663018061001402,Asni«˘res-sur-Nou«˘re,16290,CA du Grand Angoul«¶me,Charente,https://api.v2.clean2gether.com/uploads/c2g_upload_5944144368.jpg,,,,,,,,,,,,,
45.638587397616504,0.07074493914842606,Nersac,16440,CA du Grand Angoul«¶me,Charente,https://api.v2.clean2gether.com/uploads/c2g_upload_33c6672bd5.jpg,,,,,,,,,,,,,
45.65976,0.16095,Angoul«¶me,16000,CA du Grand Angoul«¶me,Charente,https://api.v2.clean2gether.com/uploads/11707_2bb036533b.png,,,,,,,,,,,,,
44.89039,-0.68011,Le Haillan,33185,Bordeaux M«∏tropole,Gironde,https://api.v2.clean2gether.com/uploads/4_AB_51_AC_5_30_AE_44_C1_BA_3_D_97422428_C6_A4_838f20fbcc.jpg,,,,,,,,,,,,,
44.97713,-0.45327,Cubzac-les-Ponts,33240,CC du Grand Cubzaguais,Gironde,https://api.v2.clean2gether.com/uploads/16c531e7_af90_453b_9368_b462773c1d62_3307044423.jpg,,,,,,,,,,,,,
45.67295,0.11235,Saint-Yrieix-sur-Charente,16730,CA du Grand Angoul«¶me,Charente,https://api.v2.clean2gether.com/uploads/2fe2a86f_be9a_4e74_9905_85d629fa72f1_80cda8989d.jpg,,,,,,,,,,,,,
45.9478,0.13054,Charm«∏,16140,CC Coeur de Charente,Charente,https://api.v2.clean2gether.com/uploads/0f7f6d4b_93cb_4cdd_bd3e_5be04d30bfee_e72a25632b.jpg,,,,,,,,,,,,,
45.70487,0.19261,Champniers,16430,CA du Grand Angoul«¶me,Charente,https://api.v2.clean2gether.com/uploads/dfa3afb5_a909_4ab6_bde9_8d22a562d838_ff7df6d19e.jpg,,,,,,,,,,,,,
45.77792,0.31195,Agris,16110,CC La Rochefoucauld - Porte du P«∏rigord,Charente,https://api.v2.clean2gether.com/uploads/8ba84cf1_a803_412d_a278_b874e096e552_453fed9fd2.jpg,,,,,,,,,,,,,
45.54948,0.122,Mouthiers-sur-Bo«Æme,16440,CA du Grand Angoul«¶me,Charente,https://api.v2.clean2gether.com/uploads/11973_b32bcf7829.png,,,,,,,,,,,,,
44.83744,-0.07309,Saint-Magne-de-Castillon,33350,CC Castillon/Pujols,Gironde,https://api.v2.clean2gether.com/uploads/203230c5_b556_44dd_850a_6bf28acdf9d1_8b90b89f27.jpg,,,,,,,,,,,,,
45.604810802555114,0.3156001120805741,Sers,16410,CA du Grand Angoul«¶me,Charente,https://api.v2.clean2gether.com/uploads/c2g_upload_84ac170a96.jpg,,,,,,,,,,,,,
45.69290124666479,0.06663018061001402,Asni«˘res-sur-Nou«˘re,16290,CA du Grand Angoul«¶me,Charente,https://api.v2.clean2gether.com/uploads/c2g_upload_5944144368.jpg,,,,,,,,,,,,,
45.638587397616504,0.07074493914842606,Nersac,16440,CA du Grand Angoul«¶me,Charente,https://api.v2.clean2gether.com/uploads/c2g_upload_33c6672bd5.jpg,,,,,,,,,,,,,
45.617575176447346,0.1323049378070481,La Couronne,16400,CA du Grand Angoul«¶me,Charente,https://api.v2.clean2gether.com/uploads/c2g_upload_c0a731d28b.jpg,,,,,,,,,,,,,
45.601526357906614,0.26369648357239084,Dirac,16410,CA du Grand Angoul«¶me,Charente,https://api.v2.clean2gether.com/uploads/c2g_upload_3c1707e644.jpg,https://api.v2.clean2gether.com/uploads/c2g_upload_b163b1a065.jpg,https://api.v2.clean2gether.com/uploads/c2g_upload_1e391e13aa.jpg,,,,,,,,,,,
45.68670232638348,0.16878202557563782,Gond-Pontouvre,16160,CA du Grand Angoul«¶me,Charente,https://api.v2.clean2gether.com/uploads/c2g_upload_4dc2d990dd.jpg,,,,,,,,,,,,,
45.60805961083825,0.12439816277277652,La Couronne,16400,CA du Grand Angoul«¶me,Charente,https://api.v2.clean2gether.com/uploads/c2g_upload_07e697980b.jpg,,,,,,,,,,,,,
45.615848971312474,0.13226831946636458,La Couronne,16400,CA du Grand Angoul«¶me,Charente,https://api.v2.clean2gether.com/uploads/c2g_upload_9c420998a1.jpg,,,,,,,,,,,,,
45.64612158758866,0.08251413702964783,Linars,16730,CA du Grand Angoul«¶me,Charente,https://api.v2.clean2gether.com/uploads/c2g_upload_e3b169ec3f.jpg,,,,,,,,,,,,,
45.60354533545953,0.13907991349697113,La Couronne,16400,CA du Grand Angoul«¶me,Charente,https://api.v2.clean2gether.com/uploads/c2g_upload_670e6a975a.jpg,,,,,,,,,,,,,
45.72709379227132,0.2249404415488243,Champniers,16430,CA du Grand Angoul«¶me,Charente,https://api.v2.clean2gether.com/uploads/c2g_upload_3d4bd03b96.jpg,,,,,,,,,,,,,
45.64719319703911,0.23451592773199081,Soyaux,16800,CA du Grand Angoul«¶me,Charente,https://api.v2.clean2gether.com/uploads/c2g_upload_59f238a1ab.jpg,,,,,,,,,,,,,
45.60083800492532,0.11409332382872812,La Couronne,16400,CA du Grand Angoul«¶me,Charente,https://api.v2.clean2gether.com/uploads/c2g_upload_76017e2d87.jpg,,,,,,,,,,,,,
