latitude,longitude,town,postcode,epci,county,images/0,images/1,images/2,images/3,images/4,images/5,images/6,images/7,images/8,images/9,images/10,images/11,images/12,images/13
45.6754,0.24273,Ruelle-sur-Touvre,16600,CA du Grand Angoulême,Charente,https://api.v2.clean2gether.com/uploads/5fe3052c_c85a_4df6_a5d1_6d127057279a_jpg_1a3a062922.jpg,,,,,,,,,,,,,
45.59092,0.27279,Dirac,16410,CA du Grand Angoulême,Charente,https://api.v2.clean2gether.com/uploads/0291_B2_E8_6_B06_4_C7_E_8350_7756_A0_B07728_jpg_846c4b6d2c.jpg,,,,,,,,,,,,,
45.54825,0.12207,Mouthiers-sur-Boëme,16440,CA du Grand Angoulême,Charente,https://api.v2.clean2gether.com/uploads/ca6a7e33_7238_4a67_a833_972e3aff6a9d_jpg_65d561f868.jpg,https://api.v2.clean2gether.com/uploads/8f9351ea_404c_41fe_9f79_7f6ec25a54dd_jpg_2c7fda7ca8.jpg,,,,,,,,,,,,
45.64459,0.11869,Angoulême,16000,CA du Grand Angoulême,Charente,https://api.v2.clean2gether.com/uploads/1_D0_BDF_99_560_E_4_E18_B086_0_FB_69_F6_CCCD_6_jpg_e1b0acfb55.jpg,,,,,,,,,,,,,
45.70302,-0.30443,Boutiers-Saint-Trojan,16100,CA du Grand Cognac,Charente,https://api.v2.clean2gether.com/uploads/E23_F170_F_AAF_9_437_F_983_C_F3_FE_3_F8_EB_9_C6_jpg_2711778c10.jpg,,,,,,,,,,,,,
45.63751,0.14252,Angoulême,16000,CA du Grand Angoulême,Charente,https://api.v2.clean2gether.com/uploads/e3ad4490_f297_45ff_b455_fa66ce882984_jpg_9ffddb7edb.jpg,,,,,,,,,,,,,
45.64074,0.19529,Soyaux,16800,CA du Grand Angoulême,Charente,https://api.v2.clean2gether.com/uploads/212ef854_898b_42d0_83a2_e64b35889154_jpg_5172e5bbb8.jpg,https://api.v2.clean2gether.com/uploads/3c0506ce_2d6c_4355_8736_2c406eafa0c2_jpg_952ecec497.jpg,,,,,,,,,,,,
45.6417,-0.1382,Saint-Même-les-Carrières,16720,CA du Grand Cognac,Charente,https://api.v2.clean2gether.com/uploads/C6_FC_6_B2_E_8_CC_9_4_C2_D_AE_8_A_55_CADD_653_C47_jpg_9a4f616544.jpg,https://api.v2.clean2gether.com/uploads/A88_E0_A63_52_A1_481_E_81_BC_65_D4_CE_6_EC_943_jpg_f6e8d22f4b.jpg,,,,,,,,,,,,
45.79096,0.3016,La Rochette,16110,CC La Rochefoucauld - Porte du Périgord,Charente,https://api.v2.clean2gether.com/uploads/4_E9979_A9_C236_43_C3_8072_5_EE_7_D3_E84_A01_jpg_795ddb7496.jpg,,,,,,,,,,,,,
45.73976,0.24252,Brie,16590,CA du Grand Angoulême,Charente,https://api.v2.clean2gether.com/uploads/D4_DB_8520_D9_D2_44_C9_A5_F8_7_AE_5656872_BE_jpg_925a2f4855.jpg,,,,,,,,,,,,,
45.68457,0.23062,Ruelle-sur-Touvre,16600,CA du Grand Angoulême,Charente,https://api.v2.clean2gether.com/uploads/7_DBF_1139_6_B65_4_D33_8_B29_7095_E0138_CA_0_jpg_f8e2bf259d.jpg,https://api.v2.clean2gether.com/uploads/1_C2752_EB_FBB_1_4_FED_8_DE_0_B7_E5175_D464_E_jpg_0cbac624c7.jpg,https://api.v2.clean2gether.com/uploads/686_FA_54_D_DC_40_4_BFB_BD_83_95882098_AA_06_jpg_ffb28b92ca.jpg,,,,,,,,,,,
45.72674,0.22393,Champniers,16430,CA du Grand Angoulême,Charente,https://api.v2.clean2gether.com/uploads/F725_D91_B_7697_4442_9_CEA_05_B4_C7832_E28_jpg_4652b7cbc2.jpg,,,,,,,,,,,,,
45.27346,-0.5716,Saint-Aubin-de-Blaye,33820,CC de l'Estuaire,Gironde,https://api.v2.clean2gether.com/uploads/fc8ccbdf_81c5_4653_9c01_09cfdd86a9e4_jpg_2b12aa926c.jpg,https://api.v2.clean2gether.com/uploads/593c8bf1_d207_42d4_8701_6c64ca48cbc7_jpg_45d39d4f66.jpg,,,,,,,,,,,,
45.64063,0.1934,Soyaux,16800,CA du Grand Angoulême,Charente,https://api.v2.clean2gether.com/uploads/336e13f2_2be3_434b_a323_0d9010a597de_jpg_e28a244870.jpg,,,,,,,,,,,,,
45.67585,0.13639,Saint-Yrieix-sur-Charente,16710,CA du Grand Angoulême,Charente,https://api.v2.clean2gether.com/uploads/52ee9f01_831e_4543_9f93_6b05410a5d6d_jpg_bafe05e4cb.jpg,https://api.v2.clean2gether.com/uploads/4077bd10_3ab6_447d_afce_f8aac7ecf6b7_jpg_0c093c53a5.jpg,,,,,,,,,,,,
45.69194,0.02475,Asnières-sur-Nouère,16290,CA du Grand Angoulême,Charente,https://api.v2.clean2gether.com/uploads/b2c85810_c55a_4fa5_b555_b22f1453975e_jpg_9af32593fc.jpg,,,,,,,,,,,,,
45.62375,0.1296,La Couronne,16400,CA du Grand Angoulême,Charente,https://api.v2.clean2gether.com/uploads/e380ad8d_6215_426a_abd5_6910da05b148_jpg_892222b227.jpg,,,,,,,,,,,,,
45.32927,-0.5001,Courpignac,17130,CC de la Haute Saintonge,Charente-Maritime,https://api.v2.clean2gether.com/uploads/29246b9b_e192_4d00_bb2a_55718cad1e8d_jpg_4e5f0b324c.jpg,https://api.v2.clean2gether.com/uploads/c25de881_57c2_47bc_bb22_898be47824d4_jpg_755cff25fe.jpg,,,,,,,,,,,,
45.57575,-0.31472,Cierzac,17520,CC de la Haute Saintonge,Charente-Maritime,https://api.v2.clean2gether.com/uploads/4647f423_840a_4e59_a7f0_75746e2f4f23_jpg_74c41af354.jpg,,,,,,,,,,,,,
45.5872,-0.33126,Salles-d'Angles,16130,CC de la Haute Saintonge,Charente,https://api.v2.clean2gether.com/uploads/ce222621_6b24_4016_ad89_8b91bb44fef1_jpg_ddc99f01f3.jpg,,,,,,,,,,,,,
45.64026,0.13609,Angoulême,16000,CA du Grand Angoulême,Charente,https://api.v2.clean2gether.com/uploads/571b3162_f57f_4928_97d2_7e793285a36d_jpg_3be612d17b.jpg,,,,,,,,,,,,,
45.65353,-1.1246,Saint-Palais-sur-Mer,17420,CA Royan Atlantique,,https://api.v2.clean2gether.com/uploads/2ba46485_1ea3_4cbe_a156_620c8d0a2ec5_jpg_ee1c9b1e56.jpg,https://api.v2.clean2gether.com/uploads/906d0d6d_375e_466d_9534_293ed879611b_jpg_c40493ea8e.jpg,,,,,,,,,,,,
45.64625,0.1117,Angoulême,16000,CA du Grand Angoulême,Charente,https://api.v2.clean2gether.com/uploads/FA_9_C5_FF_6_E126_44_D8_9880_015_FC_5_C20247_jpg_2d7dcef873.jpg,,,,,,,,,,,,,
45.64735,0.11632,Angoulême,16000,CA du Grand Angoulême,Charente,https://api.v2.clean2gether.com/uploads/F009_D7_A1_460_D_4767_B9_F8_F5_CFC_9_EBE_0_CC_jpg_edb01a6f97.jpg,,,,,,,,,,,,,
45.65433,0.2547,Touvre,16600,CA du Grand Angoulême,Charente,https://api.v2.clean2gether.com/uploads/75c53bb3_9118_4c2f_a74a_8b17fbc68797_jpg_a3ff806bfa.jpg,https://api.v2.clean2gether.com/uploads/9d686904_d529_417d_94db_d46925c9bee3_jpg_54763ea087.jpg,https://api.v2.clean2gether.com/uploads/c400a94f_0772_44cc_a422_efbace9a3c36_jpg_aeb7cea25a.jpg,,,,,,,,,,,
45.79641,-0.03003,Saint-Cybardeaux,16170,CC du Rouillacais,Charente,https://api.v2.clean2gether.com/uploads/076546aa_68c2_4446_95b0_cd007cc4dd36_jpg_23404d036a.jpg,,,,,,,,,,,,,
45.70727,-0.30167,Boutiers-Saint-Trojan,16100,CA du Grand Cognac,Charente,https://api.v2.clean2gether.com/uploads/7665_E07_F_3_EC_1_4_F23_B12_F_6507_F54_B577_B_jpg_a595d5164c.jpg,,,,,,,,,,,,,
45.79591,-0.03015,Saint-Cybardeaux,16170,CC du Rouillacais,Charente,https://api.v2.clean2gether.com/uploads/c00108dc_e039_46e3_8980_485cc3b3e167_jpg_dfb5260ca2.jpg,,,,,,,,,,,,,
45.53599,-0.16887,Touzac,16120,CA du Grand Cognac,Charente,https://api.v2.clean2gether.com/uploads/99a770ea_a6a7_4cf4_9fa1_380269a56f5d_jpg_6e8d704113.jpg,,,,,,,,,,,,,
45.46957,-0.20206,Montchaude,16300,CC des 4B Sud Charente,Charente,https://api.v2.clean2gether.com/uploads/adab7072_c863_4530_b29b_ae9c2da90258_jpg_43be9523ce.jpg,,,,,,,,,,,,,
45.58883,-0.34212,Saint-Martial-sur-Né,16130,CC de la Haute Saintonge,Charente-Maritime,https://api.v2.clean2gether.com/uploads/2a06dfef_64d2_4bee_a7b9_e17cf47deaec_jpg_205b21fee8.jpg,,,,,,,,,,,,,
45.62105,0.40377,Saint-Germain-de-Montbron,16380,CC La Rochefoucauld - Porte du Périgord,Charente,https://api.v2.clean2gether.com/uploads/6566471_A_7125_45_EA_A4_F7_EB_7_CB_0_EE_8_FB_9_jpg_969bd8981c.jpg,,,,,,,,,,,,,
45.65401,0.22463,Magnac-sur-Touvre,16600,CA du Grand Angoulême,Charente,https://api.v2.clean2gether.com/uploads/99890705_d747_404d_b346_cbf0452b7fed_jpg_4cb639c18d.jpg,,,,,,,,,,,,,
45.67235,0.00522,Hiersac,16290,CA du Grand Cognac,Charente,https://api.v2.clean2gether.com/uploads/1fd40ba6_55ff_4b3f_aada_14cd3d00f5ed_jpg_54fd026650.jpg,,,,,,,,,,,,,
45.6408,0.24232,Magnac-sur-Touvre,16600,CA du Grand Angoulême,Charente,https://api.v2.clean2gether.com/uploads/0_C3_C4_AD_3_376_B_4_A15_BC_59_64490_E06_A236_jpg_2ff86441d8.jpg,,,,,,,,,,,,,
45.32977,1.34855,Chabrignac,19350,CA du Bassin de Brive,Corrèze,https://api.v2.clean2gether.com/uploads/be733ba6_6a62_4973_837f_03b686b00428_jpg_178bd75a0b.jpg,,,,,,,,,,,,,
45.79051,0.30149,La Rochette,16110,CC La Rochefoucauld - Porte du Périgord,Charente,https://api.v2.clean2gether.com/uploads/f36f37b3_c23c_4af0_8805_f1881a7aa143_jpg_2f00a9941d.jpg,,,,,,,,,,,,,
45.70096,-0.30341,Cognac,16100,CA du Grand Cognac,Charente,https://api.v2.clean2gether.com/uploads/36e979ab_3317_4350_a2b6_d1506aa05f5a_jpg_3c3d17a10f.jpg,,,,,,,,,,,,,
45.68827,0.11822,Saint-Yrieix-sur-Charente,16710,CA du Grand Angoulême,Charente,https://api.v2.clean2gether.com/uploads/D64_C3_F8_F_6990_493_B_A47_A_CB_0_A7301_AC_17_jpg_5d0c85f1ee.jpg,,,,,,,,,,,,,
45.72287,-0.2841,Nercillac,16200,CA du Grand Cognac,Charente,https://api.v2.clean2gether.com/uploads/fd349ed9_75f9_4ebb_b9a6_31552f71e36a_jpg_99df8d6681.jpg,https://api.v2.clean2gether.com/uploads/fb3bfec1_9f81_474a_a353_2847252f894a_jpg_a40ffafe4f.jpg,,,,,,,,,,,,
45.68879,0.11724,Saint-Yrieix-sur-Charente,16710,CA du Grand Angoulême,Charente,https://api.v2.clean2gether.com/uploads/E1716_D75_875_A_4_A80_A05_E_3_E730_D54_B955_jpg_417354db62.jpg,,,,,,,,,,,,,
44.83232,-0.76185,Martignas-sur-Jalle,33127,Bordeaux Métropole,Gironde,https://api.v2.clean2gether.com/uploads/44d0cfbb_cd21_4a2b_b93b_f13c72453874_jpg_8e95b9b65d.jpg,,,,,,,,,,,,,
45.64963,-0.00748,Champmillon,16290,CA du Grand Cognac,Charente,https://api.v2.clean2gether.com/uploads/DF_6_D767_C_3_BE_3_4414_8_DA_1_BBB_9_DCC_24905_jpg_344527f659.jpg,,,,,,,,,,,,,
44.83352,-0.76529,Martignas-sur-Jalle,33127,Bordeaux Métropole,Gironde,https://api.v2.clean2gether.com/uploads/41b6dd06_26be_42de_a098_6ef16d75f513_jpg_55f407d098.jpg,,,,,,,,,,,,,
45.67391,0.12587,Saint-Yrieix-sur-Charente,16710,CA du Grand Angoulême,Charente,https://api.v2.clean2gether.com/uploads/eb8ea105_cdca_4a5b_8e34_9bc893ac5b5e_jpg_bfcee88ed2.jpg,https://api.v2.clean2gether.com/uploads/8020ac33_eefe_4209_9001_266e5e4826c1_jpg_2a51322873.jpg,,,,,,,,,,,,
45.65189,-0.3505,Gimeux,16130,CA du Grand Cognac,Charente,https://api.v2.clean2gether.com/uploads/0bb68d05_85b9_43b2_adf0_a75bc21a8aeb_jpg_28fa611b09.jpg,,,,,,,,,,,,,
45.53692,0.23953,Torsac,16410,CC Lavalette Tude Dronne,Charente,https://api.v2.clean2gether.com/uploads/fb7a6352_6e8a_4138_bc8f_ef887e2a466e_jpg_5e64746157.jpg,https://api.v2.clean2gether.com/uploads/c7456a17_34d0_488c_92aa_d167f53563f8_jpg_b1f0f57506.jpg,,,,,,,,,,,,
45.67285,0.17542,Gond-Pontouvre,16160,CA du Grand Angoulême,Charente,https://api.v2.clean2gether.com/uploads/ddf273eb_fac7_4562_ae31_8b35ee9fb44a_jpg_7634593efe.jpg,,,,,,,,,,,,,
44.82322,-0.57749,Bordeaux,33000,Bordeaux Métropole,Gironde,https://api.v2.clean2gether.com/uploads/fe2a59d8_80f8_4bc8_ad0a_ead4ee6a7a53_jpg_fc52e10172.jpg,,,,,,,,,,,,,
45.67657,0.24159,Ruelle-sur-Touvre,16600,CA du Grand Angoulême,Charente,https://api.v2.clean2gether.com/uploads/46195065_204f_4218_8b93_a62e3f3a026f_jpg_5bb7ce4a04.jpg,,,,,,,,,,,,,
45.45101,-0.12972,Salles-de-Barbezieux,16300,CC des 4B Sud Charente,Charente,https://api.v2.clean2gether.com/uploads/8ce0326a_fc68_4604_b022_bd057bc16df3_jpg_d837d34616.jpg,https://api.v2.clean2gether.com/uploads/61044de9_5ad1_4f57_a4c0_5fee39f0ef43_jpg_662f615b5d.jpg,,,,,,,,,,,,
45.72112,-0.34535,Cherves-Richemont,16370,CA du Grand Cognac,Charente,https://api.v2.clean2gether.com/uploads/9ccc28c0_0e1f_4741_8cef_98e6b4622026_jpg_1a27edec35.jpg,,,,,,,,,,,,,
45.66607,0.28531,Mornac,16600,CA du Grand Angoulême,Charente,https://api.v2.clean2gether.com/uploads/16_E39_D3_E_E132_4_A36_AFFA_CCF_71_CC_28_A61_jpg_3c558b607e.jpg,,,,,,,,,,,,,
45.66245,0.37757,Chazelles,16380,CC La Rochefoucauld - Porte du Périgord,Charente,https://api.v2.clean2gether.com/uploads/6_F78_C68_C_A167_4_A07_83_CB_2997_A48_CABDA_jpg_670e00d582.jpg,,,,,,,,,,,,,
45.44415,0.10105,Pérignac,16250,CC des 4B Sud Charente,Charente,https://api.v2.clean2gether.com/uploads/99_DA_3102_B868_4662_9337_C8977_BF_57083_jpg_2284161199.jpg,https://api.v2.clean2gether.com/uploads/E7_BB_8_A9_F_C013_4947_A685_A2_A18_C6_E329_F_jpg_1bc818936e.jpg,,,,,,,,,,,,
45.6897,0.25819,Ruelle-sur-Touvre,16600,CA du Grand Angoulême,Charente,https://api.v2.clean2gether.com/uploads/4357b10c_b0bd_485c_81ea_4a345063b366_jpg_02ea72a946.jpg,,,,,,,,,,,,,
45.69408,0.27606,Mornac,16600,CA du Grand Angoulême,Charente,https://api.v2.clean2gether.com/uploads/1164e795_d07e_4859_85b0_bdd44340232d_jpg_c3a5e480c6.jpg,,,,,,,,,,,,,
45.44653,0.10519,Pérignac,16250,CC des 4B Sud Charente,Charente,https://api.v2.clean2gether.com/uploads/15_D4388_F_7_A97_4_F19_8760_C4_CAB_3_FB_89_EF_jpg_2d740cc8be.jpg,https://api.v2.clean2gether.com/uploads/EFF_98_DB_0_71_D4_4117_9_C10_2168187_E2711_jpg_16bcf5db1a.jpg,https://api.v2.clean2gether.com/uploads/A68_FFEB_8_84_DC_4_EB_1_B259_0420_BC_104_E7_B_jpg_73169dbe35.jpg,,,,,,,,,,,
44.66948,-0.45719,Castres-Gironde,33640,CC de Montesquieu,Gironde,https://api.v2.clean2gether.com/uploads/6ba2fc17_e9d2_4fb5_9514_8c79c499bb0f_jpg_f18fb5dbe2.jpg,,,,,,,,,,,,,
45.7609,-0.20071,Houlette,16200,CA du Grand Cognac,Charente,https://api.v2.clean2gether.com/uploads/5435c713_3b7e_4c5e_ba68_2120457e7a7a_jpg_83738177d3.jpg,https://api.v2.clean2gether.com/uploads/31cc087c_2599_4a5e_a3e6_370660ca3a04_jpg_7a1a8ea729.jpg,,,,,,,,,,,,
45.99296,-1.37973,Saint-Georges-d'Oléron,17190,CC de l'Ile d'Oléron,Charente-Maritime,https://api.v2.clean2gether.com/uploads/0312688b_cf22_4a08_a2ef_7e390f629853_jpg_0ae19ba3f5.jpg,,,,,,,,,,,,,
45.95744,0.57539,Ambernac,16490,CC de Charente Limousine,Charente,https://api.v2.clean2gether.com/uploads/a4cd6e03_8940_4277_a8fd_b3dea72a4327_jpg_f236044d9f.jpg,,,,,,,,,,,,,
45.70541,0.30737,Mornac,16600,CA du Grand Angoulême,Charente,https://api.v2.clean2gether.com/uploads/4a55b300_9b7e_406b_a6dc_bccf54688234_jpg_e220fd960f.jpg,,,,,,,,,,,,,
45.72661,-0.38679,Louzac-Saint-André,16100,CA du Grand Cognac,Charente,https://api.v2.clean2gether.com/uploads/C3_F2177_F_A0_AD_4_E82_8_FDB_0069232195_AA_jpg_10756fe0a7.jpg,,,,,,,,,,,,,
45.71854,-0.39341,Louzac-Saint-André,16100,CA du Grand Cognac,Charente,https://api.v2.clean2gether.com/uploads/A62_C5_FB_5_8_E72_4_B17_97_EF_28_FA_7_D4950_C2_jpg_eaa36ab122.jpg,https://api.v2.clean2gether.com/uploads/4_B700527_6_B3_D_4412_BE_72_E6719_D12_FBE_1_jpg_5c3323b6ff.jpg,https://api.v2.clean2gether.com/uploads/CE_668_A46_26_B8_45_AE_B8_C5_0620_FB_7_B8010_jpg_325f0c9c4e.jpg,,,,,,,,,,,
45.68938,0.1533,Saint-Yrieix-sur-Charente,16710,CA du Grand Angoulême,Charente,https://api.v2.clean2gether.com/uploads/3dd47b5d_2dcf_467c_938b_91696889a102_jpg_a59ffb6437.jpg,,,,,,,,,,,,,
45.68947,0.15279,Saint-Yrieix-sur-Charente,16710,CA du Grand Angoulême,Charente,https://api.v2.clean2gether.com/uploads/af4d1b2a_0112_4d7f_97a9_e3a85d7d0beb_jpg_4670f4386b.jpg,,,,,,,,,,,,,
45.23529,-0.00933,Rioux-Martin,16210,CC Lavalette Tude Dronne,Charente,https://api.v2.clean2gether.com/uploads/505_A7599_8595_4558_99_A8_91_DCE_942_FA_57_jpg_d8e982d380.jpg,,,,,,,,,,,,,
45.80698,0.19586,Tourriers,16560,CC Coeur de Charente,Charente,https://api.v2.clean2gether.com/uploads/c14b56eb_2e20_402f_889d_a9a9207c95f8_jpg_58fee7f9db.jpg,,,,,,,,,,,,,
45.38915,-0.18041,Le Tâtre,16360,CC des 4B Sud Charente,Charente,https://api.v2.clean2gether.com/uploads/48515694_8e7f_4362_a9a5_c701beefa9d8_jpg_39ce1795ef.jpg,,,,,,,,,,,,,
45.68476,0.13306,Saint-Yrieix-sur-Charente,16710,CA du Grand Angoulême,Charente,https://api.v2.clean2gether.com/uploads/8_EC_5_B4_F7_01_D6_496_D_912_F_42_AE_1390_B05_D_jpg_14d808381b.jpg,,,,,,,,,,,,,
45.68387,0.10775,Saint-Yrieix-sur-Charente,16710,CA du Grand Angoulême,Charente,https://api.v2.clean2gether.com/uploads/f33a00d1_84a2_4043_ace3_d9ad74154057_jpg_1b00c6e803.jpg,,,,,,,,,,,,,
45.85214,0.29384,Saint-Amant-de-Bonnieure,16230,CC Coeur de Charente,Charente,https://api.v2.clean2gether.com/uploads/a3af271d_0f87_49f1_960f_0600d495e241_jpg_ebe786b33e.jpg,,,,,,,,,,,,,
45.64832,0.13597,Angoulême,16000,CA du Grand Angoulême,Charente,https://api.v2.clean2gether.com/uploads/8a3a6262_ee8e_4bbb_830a_fb3d37d7fa8a_jpg_87f421cb50.jpg,,,,,,,,,,,,,
45.76383,0.0288,Saint-Genis-d'Hiersac,16570,CC du Rouillacais,Charente,https://api.v2.clean2gether.com/uploads/6e112f9e_53ce_45dc_bc9f_28dc5218e498_jpg_e34db04454.jpg,,,,,,,,,,,,,
45.69571,0.08801,Fléac,16730,CA du Grand Angoulême,Charente,https://api.v2.clean2gether.com/uploads/38727_C7_F_BA_1_E_4_FC_2_A7_E9_A510_EC_5_C2822_jpg_5d9fcaccee.jpg,,,,,,,,,,,,,
45.61664,0.13379,La Couronne,16400,CA du Grand Angoulême,Charente,https://api.v2.clean2gether.com/uploads/94b28eef_f82e_4f17_8b6b_9b21a9e21064_jpg_b16905adb7.jpg,,,,,,,,,,,,,
45.67396,-0.1686,Gondeville,16200,CA du Grand Cognac,Charente,https://api.v2.clean2gether.com/uploads/d3c63024_de64_4c40_b475_feed09bf7b6b_jpg_976ee3f1ea.jpg,https://api.v2.clean2gether.com/uploads/1b9ba9dc_d932_4840_b31a_f0996e14466f_jpg_7d448bab03.jpg,https://api.v2.clean2gether.com/uploads/1c73f04e_a5ff_41d3_9165_1775495c77ec_jpg_116a14d752.jpg,,,,,,,,,,,
45.71975,-0.17291,Les Métairies,16200,CA du Grand Cognac,Charente,https://api.v2.clean2gether.com/uploads/0_D6_C09_FE_B27_B_40_E3_ADD_0_6_AEB_9_EEF_0_A16_jpg_2b64176d5e.jpg,,,,,,,,,,,,,
45.61763,0.13112,La Couronne,16400,CA du Grand Angoulême,Charente,https://api.v2.clean2gether.com/uploads/4890f60b_6908_45c6_b6e8_f4a3256f9ed1_jpg_048f9684f3.jpg,,,,,,,,,,,,,
46.05569,0.34956,Le Bouchage,16350,CC de Charente Limousine,Charente,https://api.v2.clean2gether.com/uploads/f9a490b3_a6dc_4199_9731_9ece00638cdc_jpg_7c91b2d2a9.jpg,,,,,,,,,,,,,
45.61652,0.13319,La Couronne,16400,CA du Grand Angoulême,Charente,https://api.v2.clean2gether.com/uploads/511d3a33_8b42_4140_b355_3224f2ee6ea4_jpg_8ca070224f.jpg,,,,,,,,,,,,,
46.14066,-0.91295,Saint-Christophe,17220,CA de La Rochelle,Charente-Maritime,https://api.v2.clean2gether.com/uploads/1c48760c_38ce_4404_ab3f_31d671fbf933_jpg_472410f675.jpg,,,,,,,,,,,,,
45.57506,0.22372,Torsac,16410,CA du Grand Angoulême,Charente,https://api.v2.clean2gether.com/uploads/A2_F03_F25_03_EC_49_B2_918_B_FCE_2192_DA_007_jpg_34aef76578.jpg,https://api.v2.clean2gether.com/uploads/0_F47_C5_AD_6051_49_A6_A900_546702_CE_5883_jpg_f9c00f66b6.jpg,https://api.v2.clean2gether.com/uploads/F0455463_9_B3_C_4060_8_E6_B_C1_F1_FC_817239_jpg_bf10d4baf6.jpg,https://api.v2.clean2gether.com/uploads/5_C02_C2_AA_9_DD_8_407_F_B2_E9_F30_DFCCD_78_ED_jpg_4cd747e669.jpg,,,,,,,,,,
45.92334,0.49688,Saint-Laurent-de-Céris,16450,CC de Charente Limousine,Charente,https://api.v2.clean2gether.com/uploads/D3_F10_FDD_753_B_4_E39_A4_A1_0_D5174_AD_2_AB_7_jpg_d2fb9b00f5.jpg,,,,,,,,,,,,,
45.67524,0.21965,Ruelle-sur-Touvre,16600,CA du Grand Angoulême,Charente,https://api.v2.clean2gether.com/uploads/c7376f98_42e6_40b3_9f7e_7f387ef43a12_jpg_0fed4ac8be.jpg,,,,,,,,,,,,,
45.92628,0.48196,Saint-Laurent-de-Céris,16450,CC de Charente Limousine,Charente,https://api.v2.clean2gether.com/uploads/874cee64_78b7_458d_965c_65299c853107_jpg_ab30cbc99d.jpg,,,,,,,,,,,,,
45.93202,0.4303,Parzac,16450,CC de Charente Limousine,Charente,https://api.v2.clean2gether.com/uploads/77943f04_7ef2_4688_aff9_ecf1a101be9d_jpg_4155937086.jpg,https://api.v2.clean2gether.com/uploads/33fae8a8_ea97_4442_b174_9ab2fb3d14a5_jpg_357615423c.jpg,,,,,,,,,,,,
45.66065,0.20924,L'Isle-d'Espagnac,16340,CA du Grand Angoulême,Charente,https://api.v2.clean2gether.com/uploads/3be1c9ab_6466_4337_88f9_da067bef961d_jpg_b0e18a61a3.jpg,,,,,,,,,,,,,
45.64468,0.18155,Soyaux,16800,CA du Grand Angoulême,Charente,https://api.v2.clean2gether.com/uploads/A9_BBAF_1_C_8_A10_40_A6_80_DB_59_DF_39_C06_F03_jpg_81aab63dbe.jpg,,,,,,,,,,,,,
45.75721,-0.41443,Saint-Sulpice-de-Cognac,16370,CA du Grand Cognac,Charente,https://api.v2.clean2gether.com/uploads/8965_E98_B_5_D2_B_415_A_95_B1_ACC_0_B3_A167_C7_jpg_3056a96782.jpg,,,,,,,,,,,,,
45.61719,0.07339,La Couronne,16400,CA du Grand Angoulême,Charente,https://api.v2.clean2gether.com/uploads/97634_EF_3_C2_BE_4382_A11_C_6902_A575_F906_jpg_53c6831ad7.jpg,https://api.v2.clean2gether.com/uploads/ADC_2_AC_73_B18_B_49_BC_AA_7_B_751_F393826_EE_jpg_d5dc33560e.jpg,,,,,,,,,,,,
45.61807,-0.21903,Segonzac,16130,CA du Grand Cognac,Charente,https://api.v2.clean2gether.com/uploads/2429fea7_5c8b_4ad8_863f_6b25fe1e80ea_jpg_78cf173359.jpg,https://api.v2.clean2gether.com/uploads/9eb67d4b_fb84_434e_9709_e4ea1ad2bbc3_jpg_32add370fb.jpg,https://api.v2.clean2gether.com/uploads/33e6e1d2_eb68_4d1c_b2a1_8462fcd9308f_jpg_3ede08a2b6.jpg,,,,,,,,,,,
45.2286,0.17086,Saint-Privat-des-Prés,24410,CC du Pays de Saint Aulaye,Dordogne,https://api.v2.clean2gether.com/uploads/031_AB_6_B5_98_E9_4_A88_BEA_5_85286_F9_CDA_22_jpg_93622a71bf.jpg,,,,,,,,,,,,,
45.22896,0.17152,Saint-Privat-des-Prés,24410,CC du Pays de Saint Aulaye,Dordogne,https://api.v2.clean2gether.com/uploads/3_B0_AF_96_F_8_B1_C_409_F_ABA_4_259_EAECF_64_D2_jpg_1825fbb75c.jpg,,,,,,,,,,,,,
45.6459,0.11088,Saint-Michel,16470,CA du Grand Angoulême,Charente,https://api.v2.clean2gether.com/uploads/eb54078e_2c4c_4ac4_9ee0_0022ba48b591_jpg_2078b50aa7.jpg,,,,,,,,,,,,,
45.6744,0.26245,Mornac,16600,CA du Grand Angoulême,Charente,https://api.v2.clean2gether.com/uploads/1_C6_DAEA_5_76_F2_4620_9191_D876_C2_BC_3_A96_jpg_3db0dd6148.jpg,,,,,,,,,,,,,
45.3486,-0.0391,Passirac,16480,CC des 4B Sud Charente,Charente,https://api.v2.clean2gether.com/uploads/FB_46_F23_A_4769_4470_8_F0_E_C5_B2_AE_7_B1767_jpg_33f3c40569.jpg,,,,,,,,,,,,,
45.67519,-0.27444,Gensac-la-Pallue,16130,CA du Grand Cognac,Charente,https://api.v2.clean2gether.com/uploads/5bb36e9c_c45c_4d78_beab_e46cdf1e3af5_jpg_082f6f7254.jpg,,,,,,,,,,,,,
45.6149,0.13355,La Couronne,16400,CA du Grand Angoulême,Charente,https://api.v2.clean2gether.com/uploads/40a9daad_6c7c_4039_9582_50c6d25f2a30_jpg_3022a15180.jpg,,,,,,,,,,,,,
45.61593,0.1324,La Couronne,16400,CA du Grand Angoulême,Charente,https://api.v2.clean2gether.com/uploads/6dd61fbc_87e6_484f_b0dc_310f81baba3a_jpg_dd5b0beed3.jpg,,,,,,,,,,,,,
45.64754,0.49061,Montbron,16220,CC La Rochefoucauld - Porte du Périgord,Charente,https://api.v2.clean2gether.com/uploads/1899128c_384b_4d3d_9505_45da3b36031b_jpg_4ade982ee5.jpg,https://api.v2.clean2gether.com/uploads/f4759b22_c5b9_41d4_914e_3e730a2c564e_jpg_9b7da80a70.jpg,https://api.v2.clean2gether.com/uploads/a6e5747c_9d6a_457c_8391_25df32ea51cd_jpg_48c824fc4c.jpg,,,,,,,,,,,
45.64206,0.1883,Soyaux,16800,CA du Grand Angoulême,Charente,https://api.v2.clean2gether.com/uploads/34f05542_3be1_4926_a8f8_3751877326a8_jpg_6b9eadf0eb.jpg,,,,,,,,,,,,,
45.64436,-0.20408,Mainxe,16200,CA du Grand Cognac,Charente,https://api.v2.clean2gether.com/uploads/bcf213bb_e3ec_490d_803a_ad733086ab1a_jpg_ef78f7a593.jpg,,,,,,,,,,,,,
44.82664,-0.7911,Martignas-sur-Jalle,33127,Bordeaux Métropole,Gironde,https://api.v2.clean2gether.com/uploads/06681312_57c3_40bb_be76_a7f03b549949_jpg_b195859e04.jpg,,,,,,,,,,,,,
45.63392,-0.38442,Gimeux,16130,CA du Grand Cognac,Charente,https://api.v2.clean2gether.com/uploads/61aec05a_7252_4578_b837_fe6f72867105_jpg_3be63433e6.jpg,,,,,,,,,,,,,
45.69012,-0.20786,Chassors,16200,CA du Grand Cognac,Charente,https://api.v2.clean2gether.com/uploads/ece299fb_7a69_4497_a9c4_2dd3ed9a3ab3_jpg_e4659f725c.jpg,https://api.v2.clean2gether.com/uploads/22cec36b_2cc2_4b1e_a5e2_107bea2d8649_jpg_7d44ca8881.jpg,https://api.v2.clean2gether.com/uploads/60007e43_1a70_4f2a_b3e1_73d1dc3c8307_jpg_f2cc059180.jpg,,,,,,,,,,,
44.84755,0.85446,Le Buisson-de-Cadouin,24480,CC des Bastides Dordogne-Périgord,Dordogne,https://api.v2.clean2gether.com/uploads/615ce5bb_5df9_470a_8adb_b8cc34e623a3_jpg_a3e996c1c3.jpg,https://api.v2.clean2gether.com/uploads/aba49bd9_60c9_4746_b077_c1036d8422c0_jpg_ae09e99285.jpg,,,,,,,,,,,,
45.58828,0.10774,La Couronne,16400,CA du Grand Angoulême,Charente,https://api.v2.clean2gether.com/uploads/633_BA_440_61_E5_4853_99_F0_1_E64_B1_C96304_jpg_2606bdc462.jpg,,,,,,,,,,,,,
46.02534,0.13514,La Faye,16700,CC Val de Charente,Charente,https://api.v2.clean2gether.com/uploads/20d6db01_2e59_497a_9993_07d61692e370_jpg_9e8be62295.jpg,,,,,,,,,,,,,
45.67467,0.11115,Fléac,16730,CA du Grand Angoulême,Charente,https://api.v2.clean2gether.com/uploads/98fdd3ad_4758_48d4_86dc_2093868cae94_jpg_349e5e750a.jpg,https://api.v2.clean2gether.com/uploads/7fb600e8_95ce_4dbe_9d82_4d048f08c959_jpg_2cd1fe784a.jpg,,,,,,,,,,,,
44.82174,0.80742,Molières,24480,CC des Bastides Dordogne-Périgord,Dordogne,https://api.v2.clean2gether.com/uploads/1b69021b_2bb9_4ea3_b7fb_519355f70d2b_jpg_14e0efa992.jpg,https://api.v2.clean2gether.com/uploads/3693a856_9642_407f_832d_b740b5441684_jpg_0757571086.jpg,https://api.v2.clean2gether.com/uploads/3df16d22_92cc_421f_af2c_4767f246e149_jpg_e93a59b5ef.jpg,https://api.v2.clean2gether.com/uploads/4f6e029f_0945_4484_9ecb_bcd491f070ad_jpg_9fc7cc756b.jpg,https://api.v2.clean2gether.com/uploads/201c3e6a_8eec_4a0a_a774_02ee4258c00b_jpg_2ce3f87fb2.jpg,https://api.v2.clean2gether.com/uploads/26bcf634_655f_462e_a61d_fee2f746e890_jpg_073e8f2083.jpg,https://api.v2.clean2gether.com/uploads/432b31a1_a97f_48ec_aac3_84eedc375eed_jpg_df16220250.jpg,,,,,,,
44.84824,0.85096,Le Buisson-de-Cadouin,24480,CC des Bastides Dordogne-Périgord,Dordogne,https://api.v2.clean2gether.com/uploads/3786ed94_f36e_4999_a509_c60f8a231d0b_jpg_488fdf0900.jpg,https://api.v2.clean2gether.com/uploads/bb2ed39a_26cc_4b03_80da_a0f33d19baf4_jpg_9eb23d03d3.jpg,https://api.v2.clean2gether.com/uploads/2dd1bdf4_3ef5_4959_833b_ab87ea15c293_jpg_1408537eae.jpg,https://api.v2.clean2gether.com/uploads/49cab32f_b9c4_4ff8_b2df_20b0f38a1412_jpg_0f1efe5b0c.jpg,https://api.v2.clean2gether.com/uploads/d980d757_05c2_48f1_b325_ca5d98128ab1_jpg_4b541066f4.jpg,https://api.v2.clean2gether.com/uploads/969babd2_fda5_45f4_b484_5db80e30ff63_jpg_13fee5e551.jpg,https://api.v2.clean2gether.com/uploads/004cfd6c_5e59_4166_9e85_64ff81550201_jpg_baec0893c2.jpg,https://api.v2.clean2gether.com/uploads/5a5f84ea_6184_47e8_bc43_399a2728fad3_jpg_e71e40794f.jpg,https://api.v2.clean2gether.com/uploads/1cb3d86e_4de6_4ffd_b685_c0ebf5680c3f_jpg_68f24d16eb.jpg,https://api.v2.clean2gether.com/uploads/aed5d8b2_0a4b_4730_9eec_f253a92da1d8_jpg_9425b3776d.jpg,https://api.v2.clean2gether.com/uploads/dcb349cd_e90e_4492_a2d1_968547fab1c6_jpg_9ca6fff282.jpg,https://api.v2.clean2gether.com/uploads/e5a1c68a_52ae_47ef_879f_99d136baf52e_jpg_c974e7fb9c.jpg,https://api.v2.clean2gether.com/uploads/4ee13475_e8c3_4428_be6f_58073ffbde77_jpg_9d7baffb8f.jpg,https://api.v2.clean2gether.com/uploads/3a4e7ab9_7fb3_415f_8368_ecd24451d2c8_jpg_6081323430.jpg
45.58929,-0.07304,Châteauneuf-sur-Charente,16120,CA du Grand Cognac,Charente,https://api.v2.clean2gether.com/uploads/f2a5c88c_ce72_42c3_b3ab_658c6a531ac1_jpg_bfa73fed79.jpg,,,,,,,,,,,,,
45.41643,-0.19515,Reignac,16360,CC des 4B Sud Charente,Charente,https://api.v2.clean2gether.com/uploads/AE_0_C1_E50_5_D92_4933_AA_00_10_F6_D4182_CDF_jpg_6d50a36ae9.jpg,https://api.v2.clean2gether.com/uploads/52_DB_72_F1_1356_483_A_B8_A6_B22725_C78910_jpg_09b487f2e4.jpg,,,,,,,,,,,,
45.67718,0.06177,Fléac,16730,CA du Grand Angoulême,Charente,https://api.v2.clean2gether.com/uploads/9d265fdb_ba4b_4093_b079_000bdc8a61b9_jpg_901054e7b0.jpg,,,,,,,,,,,,,
45.63908,0.234,Magnac-sur-Touvre,16600,CA du Grand Angoulême,Charente,https://api.v2.clean2gether.com/uploads/0d6644ac_3cfa_4aa7_8c5e_06980979f5fb_jpg_a6fee450b4.jpg,https://api.v2.clean2gether.com/uploads/e974b818_5d7c_4d42_8b02_db10d4572a3a_jpg_dc5b6cabe7.jpg,,,,,,,,,,,,
45.66862,0.28358,Mornac,16600,CA du Grand Angoulême,Charente,https://api.v2.clean2gether.com/uploads/FFF_37_AEA_D310_4_F88_964_D_7_F2_DCA_9927_AC_jpg_79a87765cd.jpg,,,,,,,,,,,,,
45.58382,0.35821,Vouzan,16410,CA du Grand Angoulême,Charente,https://api.v2.clean2gether.com/uploads/FA_16_F2_D0_3_CE_6_49_D1_B5_CA_4_A8_F0504_BD_5_F_jpg_6b48bc35e3.jpg,https://api.v2.clean2gether.com/uploads/8_F009733_38_C8_4920_AF_89_5_DA_30_A369_E89_jpg_fef9f085a4.jpg,https://api.v2.clean2gether.com/uploads/9_C1_A6_FA_3_7_AD_9_4_E2_A_B73_A_46127_EC_5_E43_D_jpg_d621cedcb0.jpg,,,,,,,,,,,
45.67447,0.31069,Mornac,16110,CA du Grand Angoulême,Charente,https://api.v2.clean2gether.com/uploads/7113_B7_AE_BC_99_4_CEC_AC_23_2338_AF_544757_jpg_382c6890d4.jpg,,,,,,,,,,,,,
45.692,0.02412,Douzat,16290,CC du Rouillacais,Charente,https://api.v2.clean2gether.com/uploads/5_D9_C0923_33_E1_438_F_8327_F824_CEE_7971_E_jpg_6564b58d87.jpg,,,,,,,,,,,,,
45.63698,0.22454,Soyaux,16800,CA du Grand Angoulême,Charente,https://api.v2.clean2gether.com/uploads/b0c33c59_5179_47fc_adbf_cff2a4a9f8b9_jpg_d8796c2e31.jpg,,,,,,,,,,,,,
45.7099,0.15854,Champniers,16430,CA du Grand Angoulême,Charente,https://api.v2.clean2gether.com/uploads/5948e262_a108_4b0b_b4f4_cdb763fc9557_jpg_87f6288ab2.jpg,,,,,,,,,,,,,
45.7919,-0.13814,Sonneville,16170,CC du Rouillacais,Charente,https://api.v2.clean2gether.com/uploads/1a3460e6_a032_4453_8c3f_0aa123d7f5ff_jpg_612d1e2736.jpg,,,,,,,,,,,,,
45.93499,0.46498,Saint-Laurent-de-Céris,16450,CC de Charente Limousine,Charente,https://api.v2.clean2gether.com/uploads/D6573378_156_E_47_CE_B9_EF_7_FBD_2_E0_D374_B_jpg_3a98543d1e.jpg,,,,,,,,,,,,,
45.64783,0.1904,Soyaux,16800,CA du Grand Angoulême,Charente,https://api.v2.clean2gether.com/uploads/90a51d4a_07fa_4aed_b76e_b22711065059_jpg_299eb5034e.jpg,,,,,,,,,,,,,
45.7893,-0.13601,Sonneville,16170,CC du Rouillacais,Charente,https://api.v2.clean2gether.com/uploads/738ef923_5a24_4c06_aecb_60d701ebfcc9_jpg_427adeecfa.jpg,,,,,,,,,,,,,
45.64761,0.18938,Soyaux,16800,CA du Grand Angoulême,Charente,https://api.v2.clean2gether.com/uploads/3dfdf4a4_5fa7_4f17_8a99_53905f05f910_jpg_c2acfad31e.jpg,,,,,,,,,,,,,
45.85536,0.38301,La Tâche,16260,CC Coeur de Charente,Charente,https://api.v2.clean2gether.com/uploads/63c52b4b_4273_4dae_a146_04aa93f003f3_jpg_feb5a06b73.jpg,,,,,,,,,,,,,
45.67444,-0.2966,Châteaubernard,16100,CA du Grand Cognac,Charente,https://api.v2.clean2gether.com/uploads/8_FC_20837_45_D9_4750_8576_23_FD_5_A3_E45_B9_jpg_9ceee6552c.jpg,,,,,,,,,,,,,
44.84776,-0.7604,Martignas-sur-Jalle,33127,Bordeaux Métropole,Gironde,https://api.v2.clean2gether.com/uploads/1d1addea_d4d9_4fea_ba0c_ba07b4681f05_jpg_12e14e05db.jpg,https://api.v2.clean2gether.com/uploads/cd2b5035_e146_4287_9851_bbad5955883e_jpg_6d8ea5abc7.jpg,https://api.v2.clean2gether.com/uploads/5a84b7b0_60be_4ef2_8b2a_5568b3d119d2_jpg_6c0eab8563.jpg,,,,,,,,,,,
45.70554,-0.34756,Cognac,16100,CA du Grand Cognac,Charente,https://api.v2.clean2gether.com/uploads/0f1bb684_28a0_4b1c_95f7_897b8f7094d5_jpg_0cea8e6e0c.jpg,https://api.v2.clean2gether.com/uploads/5d88df93_2c68_4b75_b310_0073a76cf07c_jpg_7815d3ccbb.jpg,https://api.v2.clean2gether.com/uploads/ad8a235e_d2d1_4f3a_b972_6ca7db2e085a_jpg_62040f726f.jpg,,,,,,,,,,,
45.47079,0.24147,Ronsenac,16320,CC Lavalette Tude Dronne,Charente,https://api.v2.clean2gether.com/uploads/1eec9db3_c292_464a_88b5_0e1d1caef933_jpg_9f4d146a19.jpg,,,,,,,,,,,,,
44.82932,-0.777,Martignas-sur-Jalle,33127,Bordeaux Métropole,Gironde,https://api.v2.clean2gether.com/uploads/a5071201_8fe2_40d5_b32d_8916a1011e5f_jpg_79b932e6ef.jpg,,,,,,,,,,,,,
45.55569,-0.00415,Roullet-Saint-Estèphe,16440,CA du Grand Angoulême,Charente,https://api.v2.clean2gether.com/uploads/E05_FAC_8_F_5_F8_D_4784_B0_E9_6_B36_A9_FBBF_52_jpg_c36817aeda.jpg,,,,,,,,,,,,,
45.94924,0.85945,Brigueuil,16420,CC de Charente Limousine,Charente,https://api.v2.clean2gether.com/uploads/f62054f9_b8c7_4d21_9401_ca10b9c005dd_jpg_9eeb88bd14.jpg,,,,,,,,,,,,,
45.94492,0.85851,Brigueuil,16420,CC de Charente Limousine,Charente,https://api.v2.clean2gether.com/uploads/d64fbcfe_a005_4e28_832e_f506849b45f9_jpg_986b723ed5.jpg,https://api.v2.clean2gether.com/uploads/6bf58a06_46c7_4fe9_9eb2_6dea01d61258_jpg_fd62c5d21c.jpg,,,,,,,,,,,,
45.56214,0.01937,Roullet-Saint-Estèphe,16440,CA du Grand Angoulême,Charente,https://api.v2.clean2gether.com/uploads/4801_D8_E3_F955_42_E0_96_BB_2_E8_E3745_B4_D3_jpg_15c4bb46b4.jpg,,,,,,,,,,,,,
45.66409,0.17092,Gond-Pontouvre,16160,CA du Grand Angoulême,Charente,https://api.v2.clean2gether.com/uploads/5a23cc06_329c_4671_967d_cecb82851572_jpg_71e5f3503d.jpg,,,,,,,,,,,,,
45.64493,0.11378,Angoulême,16000,CA du Grand Angoulême,Charente,https://api.v2.clean2gether.com/uploads/dd59e539_eac2_40ec_9343_8a4a1edbe547_jpg_42d5175374.jpg,,,,,,,,,,,,,
45.64507,0.1133,Angoulême,16000,CA du Grand Angoulême,Charente,https://api.v2.clean2gether.com/uploads/0ec5d0b6_6b85_4af1_bed4_cbc60b5f3339_jpg_3182c49a47.jpg,https://api.v2.clean2gether.com/uploads/dea84d20_338e_43ca_aa78_23faffa83a34_jpg_779d441103.jpg,,,,,,,,,,,,
45.6456,0.11534,Angoulême,16000,CA du Grand Angoulême,Charente,https://api.v2.clean2gether.com/uploads/c4adae2d_b582_4bd8_a024_b4f514d13392_jpg_6e7e90acef.jpg,,,,,,,,,,,,,
45.8433,0.15021,Cellettes,16230,CC Coeur de Charente,Charente,https://api.v2.clean2gether.com/uploads/8_E8_EE_0_F5_8377_4818_B1_BA_CC_61052_EC_381_jpg_2267229d37.jpg,https://api.v2.clean2gether.com/uploads/168_F96_D5_050_C_472_F_8_E81_98512_D89_D822_jpg_52eacec8c7.jpg,,,,,,,,,,,,
45.68799,-0.07466,Mérignac,16200,CA du Grand Cognac,Charente,https://api.v2.clean2gether.com/uploads/8_A087_C1_A_39_F4_4_CCC_86_A2_4_E29_DC_90956_B_jpg_7db78909cd.jpg,,,,,,,,,,,,,
45.68868,-0.07495,Mérignac,16200,CA du Grand Cognac,Charente,https://api.v2.clean2gether.com/uploads/8_A087_C1_A_39_F4_4_CCC_86_A2_4_E29_DC_90956_B_jpg_7ca0f5d044.jpg,,,,,,,,,,,,,
45.06443,-0.53972,Lansac,33710,CC du Grand Cubzaguais,Gironde,https://api.v2.clean2gether.com/uploads/7fa8d01f_0890_488e_89ee_fbc8b62ec68e_jpg_e14b7fab2f.jpg,,,,,,,,,,,,,
45.73648,-0.25355,Réparsac,16200,CA du Grand Cognac,Charente,https://api.v2.clean2gether.com/uploads/7b472f3e_1091_4fb0_b059_5dd855e4450b_jpg_712665b236.jpg,https://api.v2.clean2gether.com/uploads/dd681d02_eaca_40f6_97ff_9700329bb718_jpg_229d551a62.jpg,https://api.v2.clean2gether.com/uploads/55dec792_d06e_4889_8006_f422e521b47a_jpg_fff9198fb0.jpg,https://api.v2.clean2gether.com/uploads/8db56d52_1693_4172_963d_0ae9a4630220_jpg_daffe499bd.jpg,https://api.v2.clean2gether.com/uploads/eb337ca3_90bc_4915_8abe_78f449c19b3f_jpg_cfe6b5bd45.jpg,,,,,,,,,
45.68845,-0.07612,Mérignac,16200,CA du Grand Cognac,Charente,https://api.v2.clean2gether.com/uploads/4_B89_E638_1_AE_0_4711_A344_8_E1041_C701_A0_jpg_7b05f2d1e2.jpg,,,,,,,,,,,,,
45.71537,0.26397,Brie,16590,CA du Grand Angoulême,Charente,https://api.v2.clean2gether.com/uploads/6_D437_DBE_C306_4334_A8_A8_F4_FD_9_B48_CF_71_jpg_78323bde54.jpg,https://api.v2.clean2gether.com/uploads/2_AC_8_B3_F2_EA_7_C_4080_AD_2_F_07_AC_9505_FC_27_jpg_c43bda3a80.jpg,https://api.v2.clean2gether.com/uploads/0646_E307_77_D4_4_DD_9_9_D05_B8_A47052972_E_jpg_e7b2cbdc9e.jpg,https://api.v2.clean2gether.com/uploads/EAA_8769_A_35_B4_47_D3_886_F_675_E6_D9447_A4_jpg_ba2c2362b3.jpg,https://api.v2.clean2gether.com/uploads/788_C7023_3_ED_9_49_DB_9_DD_0_4_C9_BDEEC_30_D6_jpg_7738ad5bed.jpg,,,,,,,,,
45.6204,-0.11128,Graves-Saint-Amant,16120,CA du Grand Cognac,Charente,https://api.v2.clean2gether.com/uploads/b6b34f2d_8493_4836_9d47_3f5eadabd391_jpg_2cef53677d.jpg,,,,,,,,,,,,,
45.71409,0.26496,Brie,16590,CA du Grand Angoulême,Charente,https://api.v2.clean2gether.com/uploads/509_E492_F_4908_4_C6_D_8_C4_C_787_E522_AF_5_C7_jpg_ae607a9451.jpg,https://api.v2.clean2gether.com/uploads/4_C7544_AF_1_FF_3_459_E_98_B9_966_C9_CD_15_B50_jpg_23b4e51ad2.jpg,https://api.v2.clean2gether.com/uploads/B1_CA_0_CA_3_65_FA_49_FB_A819_1_C1_A147_A6_C89_jpg_56f3fff77f.jpg,https://api.v2.clean2gether.com/uploads/E64_B530_C_038_D_47_A5_A288_CE_5_C6_BF_306_C3_jpg_47d2c6b61c.jpg,https://api.v2.clean2gether.com/uploads/863718_DC_0_AFD_4_C8_B_9_EF_1_FCEFB_9870599_jpg_33966c298b.jpg,,,,,,,,,
45.79037,0.19132,Tourriers,16560,CC Coeur de Charente,Charente,https://api.v2.clean2gether.com/uploads/f229229d_b15c_45d5_90eb_a7fabeead27d_jpg_647ef9ee96.jpg,,,,,,,,,,,,,
45.73788,0.38999,La Rochefoucauld-en-Angoumois,16110,CC La Rochefoucauld - Porte du Périgord,Charente,https://api.v2.clean2gether.com/uploads/8c33df43_d23e_44a1_b958_5b9e63bfd7ee_jpg_d4cd1a29d1.jpg,,,,,,,,,,,,,
45.71514,0.35782,Saint-Projet-Saint-Constant,16110,CC La Rochefoucauld - Porte du Périgord,Charente,https://api.v2.clean2gether.com/uploads/abde6539_7c5e_41eb_b20a_4699207bd165_jpg_0b14615f2c.jpg,,,,,,,,,,,,,
45.62557,0.35608,Chazelles,16380,CC La Rochefoucauld - Porte du Périgord,Charente,https://api.v2.clean2gether.com/uploads/C1_A7_CB_45_D650_4699_88_D1_5_C69602_FF_541_jpg_27db28066f.jpg,,,,,,,,,,,,,
45.56921,0.22071,Torsac,16410,CA du Grand Angoulême,Charente,https://api.v2.clean2gether.com/uploads/EC_943811_41_C0_4_D5_D_9_BEF_737_FEE_601_F7_A_jpg_adbbc08e60.jpg,,,,,,,,,,,,,
45.9631,0.2026,Verteuil-sur-Charente,16510,CC Val de Charente,Charente,https://api.v2.clean2gether.com/uploads/ff2c7d48_42b6_49a4_bc8d_a352bdcd038b_jpg_e0203a6b67.jpg,,,,,,,,,,,,,
45.71635,-0.395,Louzac-Saint-André,16100,CA du Grand Cognac,Charente,https://api.v2.clean2gether.com/uploads/9_B9_A233_C_D07_C_4_E9_B_8_F78_3_EF_8424_E9_F09_jpg_8f1963db22.jpg,,,,,,,,,,,,,
45.48058,-0.1625,Barbezieux-Saint-Hilaire,16300,CC des 4B Sud Charente,Charente,https://api.v2.clean2gether.com/uploads/29fcb623_0903_4c3c_b80e_423e29e5e97c_jpg_d4168e489c.jpg,,,,,,,,,,,,,
45.63943,-0.37054,Gimeux,16130,CA du Grand Cognac,Charente,https://api.v2.clean2gether.com/uploads/3cb5316c_efbd_4e16_96c1_6250fb994916_jpg_0e838bed34.jpg,,,,,,,,,,,,,
45.67239,-0.25608,Bourg-Charente,16200,CA du Grand Cognac,Charente,https://api.v2.clean2gether.com/uploads/d250bc59_a721_4f48_ba7f_4e77743a7e1e_jpg_34d2fea9ca.jpg,,,,,,,,,,,,,
45.68359,-0.30311,Châteaubernard,16100,CA du Grand Cognac,Charente,https://api.v2.clean2gether.com/uploads/ab9e8891_6692_4d88_8f3a_a60b87cef19e_jpg_378adf1d81.jpg,https://api.v2.clean2gether.com/uploads/37a8c179_8665_4141_be72_612e2f757cf9_jpg_0d99680b55.jpg,,,,,,,,,,,,
45.43542,0.20763,Ronsenac,16320,CC Lavalette Tude Dronne,Charente,https://api.v2.clean2gether.com/uploads/cd88b899_126a_44b0_8fa9_81ca9669d14e_jpg_3859f3259d.jpg,,,,,,,,,,,,,
45.93766,0.87673,Brigueuil,16420,CC de Charente Limousine,Charente,https://api.v2.clean2gether.com/uploads/22a32eb1_9b03_4e81_9dc3_2334423159c2_jpg_812e65cdce.jpg,https://api.v2.clean2gether.com/uploads/53cf30a5_64a1_4201_b315_c4c670f37486_jpg_188413ca28.jpg,https://api.v2.clean2gether.com/uploads/046de213_5a3c_431c_b6b8_4b0d930e98cb_jpg_427ea7998f.jpg,,,,,,,,,,,
45.72502,0.2724,Brie,16590,CA du Grand Angoulême,Charente,https://api.v2.clean2gether.com/uploads/8649_CAFC_E9_B8_4_C6_F_A541_C2892_DD_6_F7_C0_jpg_57817788ad.jpg,,,,,,,,,,,,,
45.71756,0.2742,Brie,16590,CA du Grand Angoulême,Charente,https://api.v2.clean2gether.com/uploads/6_D01_DECA_AAE_5_4379_8_EB_6_E8_E2_B1_EAEBCC_jpg_96412fbb8e.jpg,,,,,,,,,,,,,
45.72494,0.27178,Brie,16590,CA du Grand Angoulême,Charente,https://api.v2.clean2gether.com/uploads/CEE_39_E3_B_B36_B_451_B_BA_51_603_C6_E733_D20_jpg_19ae8707f2.jpg,,,,,,,,,,,,,
45.69021,0.0236,Douzat,16290,CC du Rouillacais,Charente,https://api.v2.clean2gether.com/uploads/143b629d_85b8_44ab_810b_049a36248012_jpg_be9dd0b18f.jpg,,,,,,,,,,,,,
45.9133,0.20378,Lichères,16460,CC Coeur de Charente,Charente,https://api.v2.clean2gether.com/uploads/7a25f561_ac46_47b3_885e_779df23ee76a_jpg_6acff02c67.jpg,https://api.v2.clean2gether.com/uploads/f9c2f3e2_1938_4db4_a57a_e944c07972bd_jpg_983874c148.jpg,https://api.v2.clean2gether.com/uploads/1367b8a8_cde6_4dc0_aef7_e14f9e9e29ff_jpg_f12f6fb5c1.jpg,,,,,,,,,,,
45.89185,-0.0095,Aigre,16140,CC Coeur de Charente,Charente,https://api.v2.clean2gether.com/uploads/64b2af24_879b_4bdc_91e2_e07f6a3534a1_jpg_a1da949955.jpg,,,,,,,,,,,,,
45.61188,0.24922,Dirac,16410,CA du Grand Angoulême,Charente,https://api.v2.clean2gether.com/uploads/c56ef252_31cc_43e2_a3ee_380eff65a385_jpg_ae5b31e6a1.jpg,https://api.v2.clean2gether.com/uploads/d0c8ef42_2ad2_40da_b6c2_067f2eafeb40_jpg_240fd478f0.jpg,,,,,,,,,,,,
45.89474,-0.00688,Aigre,16140,CC Coeur de Charente,Charente,https://api.v2.clean2gether.com/uploads/e70db01f_dc17_4299_8667_0e9f9261a78e_jpg_52a5be73d1.jpg,,,,,,,,,,,,,
45.89508,-0.0065,Aigre,16140,CC Coeur de Charente,Charente,https://api.v2.clean2gether.com/uploads/ce15eaab_917a_412e_85b3_7cf7d7c5b1d0_jpg_f3ef4734f3.jpg,,,,,,,,,,,,,
45.52155,0.09316,Plassac-Rouffiac,16250,CA du Grand Angoulême,Charente,https://api.v2.clean2gether.com/uploads/c3936373_43ea_4607_a459_723e08903181_jpg_8f11a60518.jpg,https://api.v2.clean2gether.com/uploads/8869e52f_6a5d_4d62_8779_be5b823874a9_jpg_829e7da4a3.jpg,https://api.v2.clean2gether.com/uploads/ccd44068_4e33_46df_a2bd_2d9332a43e74_jpg_20fe398ccf.jpg,https://api.v2.clean2gether.com/uploads/44ec4e0b_f099_4e13_b549_c28bd641aace_jpg_a2459f3b0b.jpg,,,,,,,,,,
45.67426,0.19585,L'Isle-d'Espagnac,16600,CA du Grand Angoulême,Charente,https://api.v2.clean2gether.com/uploads/B14513_A3_031_F_4226_8556_3_E65_E05792_B1_jpg_f57919f820.jpg,https://api.v2.clean2gether.com/uploads/9255_C9_ED_B3_D7_4_DDF_B21_A_6_D1650_DE_9_E39_jpg_58240ccfbf.jpg,,,,,,,,,,,,
45.67634,0.22198,Ruelle-sur-Touvre,16600,CA du Grand Angoulême,Charente,https://api.v2.clean2gether.com/uploads/D2577363_9737_496_F_942_A_AAF_2139_A1517_jpg_d406740b8c.jpg,,,,,,,,,,,,,
45.03305,-0.41325,Aubie-et-Espessas,33240,CC du Grand Cubzaguais,Gironde,https://api.v2.clean2gether.com/uploads/5_D0813_E8_8_AD_8_4_F03_81_C9_C7_D13_C8_FE_76_F_jpg_66fe317aaf.jpg,https://api.v2.clean2gether.com/uploads/FE_1_BBDE_0_FACE_4_A3_B_AB_11_DA_8_C7_E6_B8_B9_E_jpg_5bbfe31819.jpg,https://api.v2.clean2gether.com/uploads/1_BF_3_B70_B_B205_41_B9_803_E_6_D78_C14_A60_AD_jpg_29c244c52a.jpg,https://api.v2.clean2gether.com/uploads/37539_BED_5_E26_4_D70_87_D5_F1_BB_6_A0_BD_51_F_jpg_8742a46282.jpg,https://api.v2.clean2gether.com/uploads/1_C762_B71_8572_4_D4_A_B71_C_96_F52_C8_ED_505_jpg_ab6093c675.jpg,,,,,,,,,
46.13126,-1.12977,Aytré,17440,CA de La Rochelle,Charente-Maritime,https://api.v2.clean2gether.com/uploads/ACDB_9023_FDB_5_4_E33_A826_62_F90_F632_F36_jpg_e20658061e.jpg,,,,,,,,,,,,,
45.5371,0.23867,Fouquebrune,16410,CC Lavalette Tude Dronne,Charente,https://api.v2.clean2gether.com/uploads/0409_E5_D0_272_C_470_C_A34_B_50534_A4_E8986_jpg_f106e62d46.jpg,,,,,,,,,,,,,
45.65533,0.18829,Angoulême,16340,CA du Grand Angoulême,Charente,https://api.v2.clean2gether.com/uploads/f88ca665_660d_4063_b588_fb356897a423_jpg_96ad3ad6c9.jpg,,,,,,,,,,,,,
45.6449,0.1057,Saint-Michel,16470,CA du Grand Angoulême,Charente,https://api.v2.clean2gether.com/uploads/a9e8fa4a_47ac_472a_b09e_03003d6cdd52_jpg_83ff6b16c7.jpg,,,,,,,,,,,,,
45.77733,0.29354,Agris,16110,CC La Rochefoucauld - Porte du Périgord,Charente,https://api.v2.clean2gether.com/uploads/AB_860_FBA_FE_27_49_C9_9143_F8_D058_A32_B48_jpg_998bdea39f.jpg,https://api.v2.clean2gether.com/uploads/E7_F1_E2_C0_F9_DD_428_C_86_B0_A1_A7123_AA_6_D2_jpg_24b9880e3c.jpg,https://api.v2.clean2gether.com/uploads/27451_A34_23_B4_4456_8_A77_BF_60_E720_DF_67_jpg_f6a1d3acaf.jpg,,,,,,,,,,,
45.79574,0.21373,Tourriers,16560,CC Coeur de Charente,Charente,https://api.v2.clean2gether.com/uploads/0eeb59e6_19e2_4cf5_aa84_b63771f95970_jpg_4c61b2caeb.jpg,,,,,,,,,,,,,
45.65562,-0.2605,Gensac-la-Pallue,16130,CA du Grand Cognac,Charente,https://api.v2.clean2gether.com/uploads/07f244a8_ddaa_4298_a28c_ba2ff82a659e_jpg_230f1bc767.jpg,,,,,,,,,,,,,
45.67682,0.24096,Ruelle-sur-Touvre,16600,CA du Grand Angoulême,Charente,https://api.v2.clean2gether.com/uploads/dcf8706d_983d_4106_aa63_b1009ae25c61_jpg_427da76b53.jpg,,,,,,,,,,,,,
44.52704,-0.31454,Fargues,33210,CC du Sud Gironde,Gironde,https://api.v2.clean2gether.com/uploads/4c091d47_e7b8_494b_9641_241de9a4f867_jpg_ff08449fcd.jpg,,,,,,,,,,,,,
44.52677,-0.3148,Fargues,33210,CC du Sud Gironde,Gironde,https://api.v2.clean2gether.com/uploads/e940e10a_f5b3_41d7_9ffa_38fbec1dcc7c_jpg_eadf5b821e.jpg,,,,,,,,,,,,,
44.52459,-0.31594,Fargues,33210,CC du Sud Gironde,Gironde,https://api.v2.clean2gether.com/uploads/a2359fd9_4783_4fd3_89d9_476b1bdae35e_jpg_1372f0c948.jpg,,,,,,,,,,,,,
44.52568,-0.3158,Fargues,33210,CC du Sud Gironde,Gironde,https://api.v2.clean2gether.com/uploads/068a0bd0_4fa3_420a_b23c_f1a3c3392bb7_jpg_32f11ddf27.jpg,,,,,,,,,,,,,
45.56202,0.10123,Mouthiers-sur-Boëme,16440,CA du Grand Angoulême,Charente,https://api.v2.clean2gether.com/uploads/43_B94810_AAAE_4_CF_2_B526_F6_AE_795_E0_F39_jpg_cade4a6705.jpg,,,,,,,,,,,,,
45.66265,0.16428,Gond-Pontouvre,16160,CA du Grand Angoulême,Charente,https://api.v2.clean2gether.com/uploads/bd7db261_914d_4999_ad5d_188c032a0d26_jpg_b9df6513d6.jpg,,,,,,,,,,,,,
45.92316,0.20339,Moutonneau,16460,CC Coeur de Charente,Charente,https://api.v2.clean2gether.com/uploads/efcd105c_979f_41cb_9d58_83e9e899afe4_jpg_fa2dfcc60a.jpg,,,,,,,,,,,,,
45.65087,0.15694,Angoulême,16000,CA du Grand Angoulême,Charente,https://api.v2.clean2gether.com/uploads/9de01960_0e3d_45fa_a159_6be2db15656f_jpg_6c1269e645.jpg,,,,,,,,,,,,,
45.68669,0.16888,Gond-Pontouvre,16160,CA du Grand Angoulême,Charente,https://api.v2.clean2gether.com/uploads/1cc949ca_862c_4c5f_ac19_3274a8fc72bd_jpg_83a4d40721.jpg,,,,,,,,,,,,,
45.68791,0.17024,Gond-Pontouvre,16160,CA du Grand Angoulême,Charente,https://api.v2.clean2gether.com/uploads/0e47ab5c_b4c3_45ec_9d76_7b4c4e374bfb_jpg_c9dffffe94.jpg,,,,,,,,,,,,,
45.64274,-0.20398,Segonzac,16130,CA du Grand Cognac,Charente,https://api.v2.clean2gether.com/uploads/0b72079b_370a_4328_bf0c_be6d59941cca_jpg_c7ba5feb85.jpg,,,,,,,,,,,,,
45.45095,-0.12194,Salles-de-Barbezieux,16300,CC des 4B Sud Charente,Charente,https://api.v2.clean2gether.com/uploads/c058c162_a4a1_4a6d_bd24_48aa55edcec5_jpg_34a42b55fb.jpg,,,,,,,,,,,,,
46.017,0.21595,Condac,16700,CC Val de Charente,Charente,https://api.v2.clean2gether.com/uploads/1b0eb370_e3e6_4040_bbde_091d83573a09_jpg_c3636fc760.jpg,https://api.v2.clean2gether.com/uploads/d1534483_1221_40e1_a605_c05eed0b6098_jpg_651bf27637.jpg,,,,,,,,,,,,
45.62719,0.14253,Angoulême,16000,CA du Grand Angoulême,Charente,https://api.v2.clean2gether.com/uploads/5_BBDCA_33_97_A9_437_B_9526_4_FD_1423865_BE_jpg_f3c02f8755.jpg,,,,,,,,,,,,,
45.68816,-0.07316,Mérignac,16200,CA du Grand Cognac,Charente,https://api.v2.clean2gether.com/uploads/D558_C285_AAA_8_47_F5_9580_029_A5_BF_493_C1_jpg_d50c5a4afc.jpg,,,,,,,,,,,,,
45.68765,-0.07351,Mérignac,16200,CA du Grand Cognac,Charente,https://api.v2.clean2gether.com/uploads/2_BEEDBC_8_FC_58_4_EB_3_BA_08_E3_C42_EF_6_DD_59_jpg_9e942c659a.jpg,,,,,,,,,,,,,
45.72539,0.27211,Brie,16590,CA du Grand Angoulême,Charente,https://api.v2.clean2gether.com/uploads/95ebd82b_4c4d_40cf_aa37_b4d6882462ae_jpg_c185c6b5eb.jpg,https://api.v2.clean2gether.com/uploads/da65f966_d1e4_47c7_9a44_03494a5119e1_jpg_5efa5e4f9b.jpg,,,,,,,,,,,,
45.62163,-0.01449,Mosnac,16120,CA du Grand Cognac,Charente,https://api.v2.clean2gether.com/uploads/6344_A1_A2_DAD_1_47_FC_AEF_8_ECA_0_AA_19170_A_jpg_4c79378bbf.jpg,https://api.v2.clean2gether.com/uploads/6533_A1_EF_B25_C_4043_9_BEF_6_E6609163304_jpg_b2bb0e7716.jpg,https://api.v2.clean2gether.com/uploads/66724_F7_C_2307_47_DF_BD_8_A_17_D6_B1_CE_85_A4_jpg_bec4906d69.jpg,https://api.v2.clean2gether.com/uploads/67_AFBCBD_EA_47_42_FC_AADA_8_A635_FF_33_AA_1_jpg_95371a9155.jpg,https://api.v2.clean2gether.com/uploads/B226_B67_D_27_CA_4386_9_CB_5_EE_9_B8_DE_76_CEE_jpg_664dee908d.jpg,,,,,,,,,
45.6648,0.33492,Pranzac,16110,CC La Rochefoucauld - Porte du Périgord,Charente,https://api.v2.clean2gether.com/uploads/7_EAE_3409_D273_4_E0_F_A94_D_C48388_D7_D939_jpg_da3e224939.jpg,,,,,,,,,,,,,
45.63945,0.23435,Magnac-sur-Touvre,16600,CA du Grand Angoulême,Charente,https://api.v2.clean2gether.com/uploads/e1ab6bc5_3ee3_45ce_beff_4ab24a58bfd4_jpg_d164711f62.jpg,https://api.v2.clean2gether.com/uploads/859a8b18_c787_4e6b_b172_05deaf725654_jpg_8b87ffdc0d.jpg,https://api.v2.clean2gether.com/uploads/7bf5f855_1d31_445a_bc24_cf514a6a7492_jpg_6a34367dae.jpg,https://api.v2.clean2gether.com/uploads/6affabce_1ca1_48b6_9435_f23f95872af3_jpg_1da67f26a3.jpg,,,,,,,,,,
45.67634,0.17471,Gond-Pontouvre,16160,CA du Grand Angoulême,Charente,https://api.v2.clean2gether.com/uploads/a61e9fc7_a14c_4e67_8e5e_c6a8d9bffe4e_jpg_1a0212e3be.jpg,,,,,,,,,,,,,
45.69982,0.28855,Mornac,16600,CA du Grand Angoulême,Charente,https://api.v2.clean2gether.com/uploads/85fdbc14_8788_4192_954a_5800022230d0_jpg_a9fce70883.jpg,,,,,,,,,,,,,
45.91618,0.08701,Ligné,16140,CC Coeur de Charente,Charente,https://api.v2.clean2gether.com/uploads/3dd88eba_5074_46f1_9ffa_56f13eb72f4d_jpg_3a9a71a979.jpg,,,,,,,,,,,,,
45.70796,0.25411,Brie,16430,CA du Grand Angoulême,Charente,https://api.v2.clean2gether.com/uploads/8f09c04c_5267_4c6a_99e8_fa7f8f1fd292_jpg_2aa9ced725.jpg,,,,,,,,,,,,,
45.71157,0.23389,Champniers,16430,CA du Grand Angoulême,Charente,https://api.v2.clean2gether.com/uploads/dd28f4b7_693c_4d90_b79c_ba6e2de5811d_jpg_e4f831a738.jpg,,,,,,,,,,,,,
45.71091,0.23122,Champniers,16430,CA du Grand Angoulême,Charente,https://api.v2.clean2gether.com/uploads/fe095147_ee8a_4041_ba86_58f73a98ccfe_jpg_e52d502c77.jpg,,,,,,,,,,,,,
45.68737,0.2115,Champniers,16600,CA du Grand Angoulême,Charente,https://api.v2.clean2gether.com/uploads/72182677_010f_4a8e_8a95_f3de385186c0_jpg_f4ad7851e2.jpg,,,,,,,,,,,,,
45.70087,0.163,Champniers,16430,CA du Grand Angoulême,Charente,https://api.v2.clean2gether.com/uploads/e7b5b859_72ec_424d_8a18_de8907651f8c_jpg_eff1d48f30.jpg,,,,,,,,,,,,,
45.87501,0.58589,Roumazières-Loubert,16270,CC de Charente Limousine,Charente,https://api.v2.clean2gether.com/uploads/CF_9_B6480_A4_F4_423_E_AD_40_CA_058171_D099_jpg_ad3e0f3317.jpg,,,,,,,,,,,,,
46.01579,0.21065,Ruffec,16700,CC Val de Charente,Charente,https://api.v2.clean2gether.com/uploads/49_F97460_61_AE_46_DD_AC_2_A_26_FC_998_E8_A21_jpg_ba110b757b.jpg,,,,,,,,,,,,,
45.63536,0.1065,Saint-Michel,16400,CA du Grand Angoulême,Charente,https://api.v2.clean2gether.com/uploads/932f9409_d234_4542_9a43_a09ee4d369f0_jpg_97b353c2c2.jpg,,,,,,,,,,,,,
45.8743,0.0212,Marcillac-Lanville,16140,CC du Rouillacais,Charente,https://api.v2.clean2gether.com/uploads/013_A1729_CAB_6_40_AC_90_FA_E8_F0_BC_668_E6_E_jpg_a61b83f3b5.jpg,,,,,,,,,,,,,
45.87503,0.021,Marcillac-Lanville,16140,CC du Rouillacais,Charente,https://api.v2.clean2gether.com/uploads/459439_D9_5_F3_A_45_AD_8054_DDFDB_093_AC_38_jpg_4296710e4e.jpg,,,,,,,,,,,,,
45.9229,0.48179,Saint-Laurent-de-Céris,16450,CC de Charente Limousine,Charente,https://api.v2.clean2gether.com/uploads/E1_E77_E32_A15_A_4964_A18_D_51_D6_D518644_F_jpg_be5e085cb9.jpg,,,,,,,,,,,,,
44.68281,-0.56827,La Brède,33650,CC de Montesquieu,Gironde,https://api.v2.clean2gether.com/uploads/50_CBBEA_5_FC_3_C_4_B3_C_911_B_CEB_23_AAF_8_D6_F_jpg_22ca3d6672.jpg,,,,,,,,,,,,,
46.07947,-1.00171,Thairé,17290,CA de La Rochelle,Charente-Maritime,https://api.v2.clean2gether.com/uploads/bb68561b_0f97_4b07_bf31_6189e25d57b1_jpg_66c845ed0d.jpg,,,,,,,,,,,,,
43.15802,-1.27775,Lasse,64220,CA du Pays Basque,Pyrénées-Atlantiques,https://api.v2.clean2gether.com/uploads/f05e9854_75db_4e49_ad64_9feba9cdeb46_jpg_73739c43bf.jpg,,,,,,,,,,,,,
46.1996,0.11847,Chaunay,86510,CC du Civraisien en Poitou,Vienne,https://api.v2.clean2gether.com/uploads/50d18350_46ef_4f8a_b411_27d228029ae9_jpg_5c495570d3.jpg,,,,,,,,,,,,,
44.86783,-0.31701,Saint-Germain-du-Puch,33870,CA du Libournais,Gironde,https://api.v2.clean2gether.com/uploads/85ebe4e2_8b28_44db_85e3_089995e62441_jpg_aa5af1b9b6.jpg,,,,,,,,,,,,,
44.86802,-0.31741,Saint-Germain-du-Puch,33870,CA du Libournais,Gironde,https://api.v2.clean2gether.com/uploads/32801d6c_5957_4731_92f9_48bce55e9be0_jpg_ebd2d98214.jpg,,,,,,,,,,,,,
44.87211,-0.32169,Vayres,33870,CA du Libournais,Gironde,https://api.v2.clean2gether.com/uploads/f21175eb_1cff_4083_bb4d_db400c2637f1_jpg_47040938bf.jpg,,,,,,,,,,,,,
43.09853,-1.44146,Aldudes,64430,CA du Pays Basque,Pyrénées-Atlantiques,https://api.v2.clean2gether.com/uploads/f73015e5_a3cc_4866_9cbc_9f49f6ba95de_jpg_ef41ab88b6.jpg,https://api.v2.clean2gether.com/uploads/c79e81d7_6fc3_475f_9365_ae49b0f0761f_jpg_6e96dfb604.jpg,https://api.v2.clean2gether.com/uploads/08470641_a568_410b_93df_6939a33c2064_jpg_aa29178567.jpg,,,,,,,,,,,
44.80198,-0.63089,Pessac,33600,Bordeaux Métropole,Gironde,https://api.v2.clean2gether.com/uploads/7_DE_43035_3_E05_4_E9_C_B14_D_DC_906_F227_B7_B_jpg_a991ff531c.jpg,,,,,,,,,,,,,
45.71934,0.27611,Brie,16590,CA du Grand Angoulême,Charente,https://api.v2.clean2gether.com/uploads/8268_5d85973ead.png,,,,,,,,,,,,,
45.39785,0.07692,Courgeac,16190,CC Lavalette Tude Dronne,Charente,https://api.v2.clean2gether.com/uploads/43_E602_FF_BC_38_4138_A553_AE_3_C1_AB_4_F771_jpg_a628130cf1.jpg,https://api.v2.clean2gether.com/uploads/3_B0252_AD_2262_4_F51_930_C_E76_E585_C7_D2_E_jpg_244c448222.jpg,https://api.v2.clean2gether.com/uploads/39385745_3728_47_BF_A8_F2_C96_FD_90_BEEED_jpg_27ac1ef0bd.jpg,,,,,,,,,,,
45.39693,0.0784,Courgeac,16190,CC Lavalette Tude Dronne,Charente,https://api.v2.clean2gether.com/uploads/D27_FC_432_143_C_40_DB_A58_E_DEA_54_CA_2_EBEB_jpg_d231d4a72f.jpg,https://api.v2.clean2gether.com/uploads/33_B8_FF_72_718_E_417_D_AE_13_185958_FE_6_E13_jpg_514dab4d6c.jpg,https://api.v2.clean2gether.com/uploads/B9_A44212_A46_B_4_CDC_A79_A_A3_DA_4_FF_3_DBDD_jpg_b251618b9e.jpg,,,,,,,,,,,
44.68437,-0.55957,La Brède,33650,CC de Montesquieu,Gironde,https://api.v2.clean2gether.com/uploads/46_B3_A772_E4_E0_4_F6_D_A386_430_E07_E1544_B_jpg_f92a20a33c.jpg,https://api.v2.clean2gether.com/uploads/10_A01470_00_AE_4_BB_2_ACC_8_C4_E5_C3741127_jpg_1c28431066.jpg,,,,,,,,,,,,
44.95708,-0.62129,Parempuyre,33290,Bordeaux Métropole,Gironde,https://api.v2.clean2gether.com/uploads/136f229e_c16e_49dc_8f3b_538a8dbe9538_jpg_c0457c664d.jpg,,,,,,,,,,,,,
44.95414,-0.62139,Parempuyre,33290,Bordeaux Métropole,Gironde,https://api.v2.clean2gether.com/uploads/9d210f81_84ca_496e_827f_045f6347640e_jpg_049ff0e332.jpg,,,,,,,,,,,,,
44.95468,-0.62067,Parempuyre,33290,Bordeaux Métropole,Gironde,https://api.v2.clean2gether.com/uploads/094c11e1_fea3_40e7_8d08_bf80ad716510_jpg_64264b7ce6.jpg,,,,,,,,,,,,,
44.9572,-0.62172,Parempuyre,33290,Bordeaux Métropole,Gironde,https://api.v2.clean2gether.com/uploads/d7dcb122_6168_4cb7_bd01_c0efa2c41d42_jpg_f6037d7b20.jpg,,,,,,,,,,,,,
44.95673,-0.61804,Parempuyre,33290,Bordeaux Métropole,Gironde,https://api.v2.clean2gether.com/uploads/14007ab2_d510_4249_a080_d0d07de84d07_jpg_e4aac2b66f.jpg,,,,,,,,,,,,,
46.08011,-1.02539,Thairé,17290,CA de La Rochelle,Charente-Maritime,https://api.v2.clean2gether.com/uploads/3728c791_3a14_44bd_ac72_3ba9e91986e2_jpg_cfb194e1c8.jpg,,,,,,,,,,,,,
46.08089,-1.03345,Saint-Vivien,17220,CA de La Rochelle,Charente-Maritime,https://api.v2.clean2gether.com/uploads/32b1bca3_ab9d_4fea_bc5c_fe529c8071da_jpg_038fea172d.jpg,,,,,,,,,,,,,
44.96163,-0.6613,Le Pian-Médoc,33290,CC Médoc Estuaire,Gironde,https://api.v2.clean2gether.com/uploads/A6_F55_FDC_54_E8_4_D1_D_A39_A_DF_258_D9_D54_CC_jpg_6d0572c261.jpg,,,,,,,,,,,,,
45.82563,0.46498,Chasseneuil-sur-Bonnieure,16260,CC de Charente Limousine,Charente,https://api.v2.clean2gether.com/uploads/9f0c127f_03b2_4934_8946_157965887f5f_jpg_bf8424a909.jpg,,,,,,,,,,,,,
44.68723,-0.55677,La Brède,33650,CC de Montesquieu,Gironde,https://api.v2.clean2gether.com/uploads/EA_6_E06_E0_C7_EB_40_D1_9_CCB_0_D5_D6_EC_9_A9_A5_jpg_d8f84cfa18.jpg,,,,,,,,,,,,,
44.68692,-0.5708,La Brède,33650,CC de Montesquieu,Gironde,https://api.v2.clean2gether.com/uploads/24054655_6_AC_3_4_C27_8_F00_8_ED_9711_AA_19_F_jpg_ed8b221026.jpg,,,,,,,,,,,,,
44.69527,-0.57568,La Brède,33650,CC de Montesquieu,Gironde,https://api.v2.clean2gether.com/uploads/BB_785518_2570_4_FED_934_B_B349512_F3058_jpg_5da827fb6b.jpg,https://api.v2.clean2gether.com/uploads/9_E53_B22_E_D8_CB_4_F45_8_DB_3_D1_B3229_F0068_jpg_5c4da7531f.jpg,,,,,,,,,,,,
44.69534,-0.57415,La Brède,33650,CC de Montesquieu,Gironde,https://api.v2.clean2gether.com/uploads/B599_E261_7_CA_7_474_D_A7_C6_AAC_166_D19_D89_jpg_9bce52dfb5.jpg,https://api.v2.clean2gether.com/uploads/F7_F69_EF_1_615_B_441_E_A6_B6_7_A6_AFBFD_0382_jpg_b3bd63cbfa.jpg,https://api.v2.clean2gether.com/uploads/13_D9_DCB_5_E14_B_47_CC_AC_37_BD_5_CA_6_F12_C5_D_jpg_e2d70749b2.jpg,,,,,,,,,,,
44.69504,-0.57161,La Brède,33650,CC de Montesquieu,Gironde,https://api.v2.clean2gether.com/uploads/5729719_D_D82_D_4632_9575_A9_A504658_EA_5_jpg_38fb48b9dc.jpg,https://api.v2.clean2gether.com/uploads/A1_DE_6_C8_A_F870_4397_87_CB_FC_3_FA_6_B9_C56_D_jpg_a82aeb7363.jpg,,,,,,,,,,,,
44.69544,-0.56944,La Brède,33650,CC de Montesquieu,Gironde,https://api.v2.clean2gether.com/uploads/38_F5_A3_DF_D1_CC_4_FFE_AF_59_BA_12_BAEC_32_EF_jpg_b9812d16e6.jpg,https://api.v2.clean2gether.com/uploads/0_AEEF_127_A092_413_C_9_C83_C690885_DF_0_F8_jpg_05e67e7457.jpg,,,,,,,,,,,,
44.69503,-0.57266,La Brède,33650,CC de Montesquieu,Gironde,https://api.v2.clean2gether.com/uploads/FBFFF_254_827_F_4119_8818_5_C7_C9_D5_E173_D_jpg_f4cca3bc27.jpg,https://api.v2.clean2gether.com/uploads/E5_AB_3_E93_E1_E2_4165_B9_FB_84_A62116_FF_96_jpg_35bd5bfa0f.jpg,https://api.v2.clean2gether.com/uploads/DE_90_F49_C_C655_4_CEB_98_C4_411_B7_E38_C5_CA_jpg_6387ff96dc.jpg,,,,,,,,,,,
44.69468,-0.5706,La Brède,33650,CC de Montesquieu,Gironde,https://api.v2.clean2gether.com/uploads/CC_3_E0529_C5_B3_4_A41_8964_0_AE_9405_F7_F3_E_jpg_21ec40c8e0.jpg,https://api.v2.clean2gether.com/uploads/F1_B27584_92_DE_472_D_A2_EE_2039_EC_8_E8_E30_jpg_a2c8ae379b.jpg,,,,,,,,,,,,
44.6936,-0.54454,La Brède,33650,CC de Montesquieu,Gironde,https://api.v2.clean2gether.com/uploads/15_F99_A17_6_E18_4908_8426_297662211021_jpg_7c447ba8f2.jpg,https://api.v2.clean2gether.com/uploads/9_E799524_1905_4_B0_A_947_C_3_C488_D5_A4407_jpg_89206bce3c.jpg,,,,,,,,,,,,
44.69668,-0.5426,La Brède,33650,CC de Montesquieu,Gironde,https://api.v2.clean2gether.com/uploads/BC_248697_4_C83_4986_8_A7_D_8_E4_E24_F8_F771_jpg_dc8456a70a.jpg,https://api.v2.clean2gether.com/uploads/E9_D3_F710_7_BEF_48_E4_A176_B78_E916610_BD_jpg_918f839863.jpg,,,,,,,,,,,,
44.74775,-0.65784,Canéjan,33610,CC Jalle-Eau-Bourde,Gironde,https://api.v2.clean2gether.com/uploads/013f5b60_7b06_4228_b6fb_b0b1051c8ad7_jpg_41edf4350f.jpg,,,,,,,,,,,,,
46.61413,0.33036,Poitiers,86000,CU du Grand Poitiers,Vienne,https://api.v2.clean2gether.com/uploads/cbe4a0ab_3f3b_45d6_bf98_474bde3c5824_jpg_b406aec837.jpg,,,,,,,,,,,,,
46.61816,0.32992,Poitiers,86000,CU du Grand Poitiers,Vienne,https://api.v2.clean2gether.com/uploads/b20fa2da_bb94_4bb5_b700_57f443e1992b_jpg_997b270472.jpg,https://api.v2.clean2gether.com/uploads/65420c49_530f_4087_8375_8224e37f78bd_jpg_0ba47fe17d.jpg,,,,,,,,,,,,
46.63141,0.32232,Migné-Auxances,86440,CU du Grand Poitiers,Vienne,https://api.v2.clean2gether.com/uploads/474bc66a_f8c7_4545_bede_e9e8b0551da6_jpg_7dc9f629bd.jpg,,,,,,,,,,,,,
45.74501,-0.37341,Cherves-Richemont,16370,CA du Grand Cognac,Charente,https://api.v2.clean2gether.com/uploads/d2be969e_2317_4b9f_9b7a_01576423728f_jpg_01b1f0f30b.jpg,,,,,,,,,,,,,
45.74642,-0.37343,Cherves-Richemont,16370,CA du Grand Cognac,Charente,https://api.v2.clean2gether.com/uploads/cc94e3f3_2bd5_4ce7_b6ad_3f7d42abb4be_jpg_87e8fa6ef6.jpg,,,,,,,,,,,,,
45.74709,-0.37256,Cherves-Richemont,16370,CA du Grand Cognac,Charente,https://api.v2.clean2gether.com/uploads/7e67c95e_d285_4cdd_95bc_6976fba65cf3_jpg_718f8a61e9.jpg,,,,,,,,,,,,,
44.2823,0.75768,Laroque-Timbaut,47340,CA du Grand Villeneuvois,Lot-et-Garonne,https://api.v2.clean2gether.com/uploads/BE_091_B6_C_235_C_4_D2_A_8158_632_A934_EE_81_B_jpg_dc33abf39e.jpg,,,,,,,,,,,,,
45.67193,0.28799,Mornac,16600,CA du Grand Angoulême,Charente,https://api.v2.clean2gether.com/uploads/01043ea9_b68e_406f_a84c_c37f5d9b7a4f_jpg_4238ccdd0f.jpg,,,,,,,,,,,,,
45.29743,-0.48455,Chamouillac,17130,CC de la Haute Saintonge,Charente-Maritime,https://api.v2.clean2gether.com/uploads/7_DEF_3_E56_09_EB_43_B1_8_A47_9655_D7_D2_E997_jpg_b878c63c4c.jpg,,,,,,,,,,,,,
45.24724,0.00953,Rioux-Martin,16210,CC Lavalette Tude Dronne,Charente,https://api.v2.clean2gether.com/uploads/e6fa39b5_71eb_4f9a_8844_406cc162eb7a_jpg_ab39928442.jpg,,,,,,,,,,,,,
45.76658,-0.54623,La Chapelle-des-Pots,17100,CA de Saintes,Charente-Maritime,https://api.v2.clean2gether.com/uploads/781_BF_50_C_242_A_47_C2_895_B_F43_C2_F43_EAA_5_jpg_e4e51c1473.jpg,,,,,,,,,,,,,
45.68232,-0.09659,Triac-Lautrait,16200,CA du Grand Cognac,Charente,https://api.v2.clean2gether.com/uploads/DC_9_B75_EE_8_AEC_4_BB_7_92_F7_0_DB_64_BB_5_A771_jpg_7d3b206760.jpg,,,,,,,,,,,,,
46.29163,1.85265,Le Bourg-d'Hem,23220,CC Monts et Vallées Ouest Creuse,Creuse,https://api.v2.clean2gether.com/uploads/6ec0e0b3_d248_4b2b_bdda_1b395f21ece9_jpg_34f26eb442.jpg,,,,,,,,,,,,,
46.28255,1.86374,Anzême,23000,CA du Grand Guéret,Creuse,https://api.v2.clean2gether.com/uploads/64451c81_256d_438e_bc09_8df0b858af9b_jpg_6d08525bbf.jpg,,,,,,,,,,,,,
46.29735,1.92869,Jouillat,23220,CA du Grand Guéret,Creuse,https://api.v2.clean2gether.com/uploads/1f3fc5c2_26cb_478e_83a3_e04d56af3f0f_jpg_348ce0cde9.jpg,,,,,,,,,,,,,
46.37589,1.79248,Lourdoueix-Saint-Pierre,23360,CC Portes de la Creuse en Marche,Creuse,https://api.v2.clean2gether.com/uploads/9bdaee68_776d_4a8b_b4ec_b34afabb7f50_jpg_bdf362161a.jpg,,,,,,,,,,,,,
46.14305,-1.05229,Clavette,17220,CA de La Rochelle,Charente-Maritime,https://api.v2.clean2gether.com/uploads/60b05049_f4b0_4548_be6e_ce79dfaa4fe7_jpg_0a0908cd39.jpg,,,,,,,,,,,,,
45.94266,-1.30721,Saint-Pierre-d'Oléron,17310,CC de l'Ile d'Oléron,Charente-Maritime,https://api.v2.clean2gether.com/uploads/9_EF_588_F8_EDCB_4_B4_D_AED_3_5_BC_56_C2_BEF_4_C_jpg_ac2c798245.jpg,,,,,,,,,,,,,
46.34073,1.91082,Bonnat,23220,CC Portes de la Creuse en Marche,Creuse,https://api.v2.clean2gether.com/uploads/6a81f433_b31b_445f_ac0e_f4c5cfcceeb6_jpg_fb6d4614a6.jpg,,,,,,,,,,,,,
46.38081,1.78938,Lourdoueix-Saint-Pierre,23360,CC Portes de la Creuse en Marche,Creuse,https://api.v2.clean2gether.com/uploads/9dbb7f72_b5d9_44ae_8264_91c5be2dff76_jpg_102cb81a60.jpg,,,,,,,,,,,,,
46.36322,1.89187,Linard,23220,CC Portes de la Creuse en Marche,Creuse,https://api.v2.clean2gether.com/uploads/7f3b565b_bb2e_4986_9f9e_358dd281d5c0_jpg_a4d7fee22f.jpg,,,,,,,,,,,,,
45.01273,-0.14305,Abzac,33230,CA du Libournais,Gironde,https://api.v2.clean2gether.com/uploads/afc28014_edda_4f60_9334_0bf0f36fd271_jpg_40d55b6331.jpg,,,,,,,,,,,,,
46.09894,-0.83566,Péré,17700,CC Aunis Sud,Charente-Maritime,https://api.v2.clean2gether.com/uploads/99757c37_9819_4a0d_8900_6b0762fbd0cd_jpg_eb091d04bc.jpg,,,,,,,,,,,,,
44.69554,-0.23844,Cantois,33760,CC rurales de l'Entre-Deux-Mers,Gironde,https://api.v2.clean2gether.com/uploads/df5341d7_91a3_4684_a971_cf208888f2be_jpg_5a74c499a4.jpg,,,,,,,,,,,,,
44.9375,-0.55727,Blanquefort,33290,Bordeaux Métropole,Gironde,https://api.v2.clean2gether.com/uploads/4da425e9_cb4e_4c43_9bda_890f6a55d103_jpg_74b434ed29.jpg,,,,,,,,,,,,,
44.82799,-0.28332,Saint-Quentin-de-Baron,33750,CA du Libournais,Gironde,https://api.v2.clean2gether.com/uploads/66f5db29_96a8_4a0a_bc50_e71e75ca3dd5_jpg_234454e74c.jpg,,,,,,,,,,,,,
44.9639,-0.6638,Le Pian-Médoc,33290,CC Médoc Estuaire,Gironde,https://api.v2.clean2gether.com/uploads/EA_795763_2_EE_8_42_FD_B517_2_E6_C2_C1_B6_DE_6_jpg_4cc830500e.jpg,,,,,,,,,,,,,
45.89816,-1.23566,Dolus-d'Oléron,17550,CC de l'Ile d'Oléron,Charente-Maritime,https://api.v2.clean2gether.com/uploads/d59a6b99_4a4b_46a4_899f_bccac4c02dfb_jpg_d491ebf1a2.jpg,,,,,,,,,,,,,
45.92685,-1.34633,Saint-Pierre-d'Oléron,17310,CC de l'Ile d'Oléron,Charente-Maritime,https://api.v2.clean2gether.com/uploads/17939aff_6dba_4bb3_9057_aca34f0601d3_jpg_b0563f8b48.jpg,,,,,,,,,,,,,
46.07359,-0.8325,Landrais,17290,CC Aunis Sud,Charente-Maritime,https://api.v2.clean2gether.com/uploads/4a302313_5257_4317_ab24_7a14e0c60dfb_jpg_5474f98955.jpg,https://api.v2.clean2gether.com/uploads/a5c6cb4c_92ac_43a8_a5b9_7055bbd40bd3_jpg_e83ecd8c29.jpg,https://api.v2.clean2gether.com/uploads/3e5e5c63_ffb7_48d0_9bf7_a7b4fb9f480d_jpg_5e7d28741f.jpg,https://api.v2.clean2gether.com/uploads/1c8bf533_7c72_40bf_a56b_fa4159f1a1fc_jpg_a4085edc52.jpg,https://api.v2.clean2gether.com/uploads/cc693e3e_0ebf_4c35_bbb1_17eb2841fcc5_jpg_03eedba296.jpg,https://api.v2.clean2gether.com/uploads/d63ea4d6_d986_4c95_bc1b_64a14b519e65_jpg_c35521c1d0.jpg,https://api.v2.clean2gether.com/uploads/5f49c03d_3f03_473d_ae70_db97abc8d644_jpg_053ad458a1.jpg,,,,,,,
44.88378,-0.36998,Beychac-et-Caillau,33750,CC du Secteur de Saint-Loubès,Gironde,https://api.v2.clean2gether.com/uploads/e458ef1c_0f7b_4e4f_91a5_bfae2d0ff512_jpg_738e15789d.jpg,,,,,,,,,,,,,
43.34975,-0.34133,Buros,64000,CA Pau Béarn Pyrénées,Pyrénées-Atlantiques,https://api.v2.clean2gether.com/uploads/1_FFC_0_B84_446_E_44_BB_978_A_9_E2_FA_51205_B7_jpg_81a4ff6e17.jpg,https://api.v2.clean2gether.com/uploads/9967_DE_6_B_02_BA_457_C_964_F_89_AB_64453_C1_D_jpg_e95e93db3d.jpg,,,,,,,,,,,,
44.93503,-0.65058,Blanquefort,33290,Bordeaux Métropole,Gironde,https://api.v2.clean2gether.com/uploads/ed32638f_d746_4d5a_9e09_54645cb1a804_jpg_8890216055.jpg,,,,,,,,,,,,,
44.98869,-0.27555,Galgon,33133,CC du Fronsadais,Gironde,https://api.v2.clean2gether.com/uploads/0182_CE_93_A046_43_E1_ABE_1_A556_B45_B378_B_jpg_ea6eec014e.jpg,https://api.v2.clean2gether.com/uploads/0462_A42_D_C273_4837_BF_79_7_DAB_2865_DCB_6_jpg_554d0b4297.jpg,https://api.v2.clean2gether.com/uploads/F319490_B_A63_D_4731_8_C86_FCDCC_4_B364_F8_jpg_0868b701b8.jpg,,,,,,,,,,,
44.77402,-0.15931,Jugazan,33420,CC Castillon/Pujols,Gironde,https://api.v2.clean2gether.com/uploads/31cdbddd_2728_418a_a5ad_3f7040b7dd49_jpg_f11e40df62.jpg,,,,,,,,,,,,,
44.93473,-0.65088,Blanquefort,33290,Bordeaux Métropole,Gironde,https://api.v2.clean2gether.com/uploads/61d15552_ad84_45fb_b263_be8f001eeb7e_jpg_700ba6796c.jpg,,,,,,,,,,,,,
46.45891,0.28191,Vivonne,86370,CC des Vallées du Clain,Vienne,https://api.v2.clean2gether.com/uploads/CBE_31_A13_6_C2_B_4_D8_C_8_BC_3_63_BF_5_AC_66841_jpg_852588433a.jpg,https://api.v2.clean2gether.com/uploads/EDC_48085_6_F86_44_EF_84_B3_8_B1_D9_DA_94036_jpg_0c5e9ab583.jpg,https://api.v2.clean2gether.com/uploads/FFDB_0489_DC_65_43_E5_9035_843631364_B8_A_jpg_5b12061433.jpg,https://api.v2.clean2gether.com/uploads/348336_D6_8636_4007_96_D6_8_EFEF_74_DD_3_A5_jpg_a38e0dcc4c.jpg,,,,,,,,,,
43.17967,-1.23218,Ispoure,64220,CA du Pays Basque,Pyrénées-Atlantiques,https://api.v2.clean2gether.com/uploads/BC_19245_E_8608_4_BA_8_B87_B_E9415_A274_BEC_jpg_0d3387e974.jpg,,,,,,,,,,,,,
44.9213,-0.65402,Blanquefort,33290,Bordeaux Métropole,Gironde,https://api.v2.clean2gether.com/uploads/0b6f1447_daed_49cb_bc2a_1dc7044a6622_jpg_6c564f60b1.jpg,,,,,,,,,,,,,
46.07335,-0.89273,Landrais,17290,CC Aunis Sud,Charente-Maritime,https://api.v2.clean2gether.com/uploads/01488bbc_0170_4cc0_87f7_bbe7b618e1a5_jpg_0c7ecc555d.jpg,,,,,,,,,,,,,
44.9088,-0.65499,Blanquefort,33320,Bordeaux Métropole,Gironde,https://api.v2.clean2gether.com/uploads/a1c7c6ca_1131_407c_88da_6712e96a271b_jpg_b242bd1b68.jpg,https://api.v2.clean2gether.com/uploads/774d4de5_e833_444e_b811_e61b8de0de66_jpg_e6a23db0ce.jpg,,,,,,,,,,,,
44.74822,-0.08855,Blasimon,33540,CC rurales de l'Entre-Deux-Mers,Gironde,https://api.v2.clean2gether.com/uploads/531a0749_0063_4e5a_97db_765f8c9a9ac2_jpg_4392b32b04.jpg,https://api.v2.clean2gether.com/uploads/cc87e91b_c3eb_47cd_bfc6_1a54f8229f46_jpg_3e7888d991.jpg,https://api.v2.clean2gether.com/uploads/2071f065_5b83_4f18_9c06_751a11c6c15c_jpg_56bd4b22fd.jpg,,,,,,,,,,,
46.68205,0.37284,Jaunay-Clan,86130,CU du Grand Poitiers,Vienne,https://api.v2.clean2gether.com/uploads/d182862d_8a8d_4fc7_b13b_288e319285e4_jpg_3cd101fa96.jpg,,,,,,,,,,,,,
44.74901,-0.65234,Canéjan,33610,CC Jalle-Eau-Bourde,Gironde,https://api.v2.clean2gether.com/uploads/111bdb4f_b0b6_4441_9c53_9a66566bdfac_jpg_f63704c9b9.jpg,https://api.v2.clean2gether.com/uploads/15da7606_9121_4857_bc36_1bb562a5d6db_jpg_bc5e9aaa3c.jpg,https://api.v2.clean2gether.com/uploads/479a09e4_8a73_44e9_bb44_56f037e41155_jpg_4406211083.jpg,https://api.v2.clean2gether.com/uploads/cf6ccd26_de69_463a_a04d_0600fd416e6c_jpg_522b80ebe9.jpg,,,,,,,,,,
46.06953,-0.88321,Landrais,17290,CC Aunis Sud,Charente-Maritime,https://api.v2.clean2gether.com/uploads/17782cd0_be1c_4163_a1a6_5e93b7d1ff00_jpg_339c64958a.jpg,,,,,,,,,,,,,
44.74298,-0.61075,Léognan,33850,CC de Montesquieu,Gironde,https://api.v2.clean2gether.com/uploads/09a9d99a_8232_4a96_9a79_4b6b5062d8fb_jpg_dce2bd9268.jpg,,,,,,,,,,,,,
44.93776,-0.65834,Blanquefort,33290,Bordeaux Métropole,Gironde,https://api.v2.clean2gether.com/uploads/792f89f9_de52_48df_b578_7feb9935cd49_jpg_7b7b1b8b38.jpg,,,,,,,,,,,,,
44.68512,-0.99137,Audenge,33980,CA du Bassin d'Arcachon Nord,Gironde,https://api.v2.clean2gether.com/uploads/ff45a52b_7a07_4083_ac55_63d240ef2be4_jpg_8d47ab58ac.jpg,,,,,,,,,,,,,
44.82882,-0.53973,Bordeaux,33100,Bordeaux Métropole,Gironde,https://api.v2.clean2gether.com/uploads/4558fccf_56b7_4c33_b49a_31f561902359_jpg_f8a72a1eaf.jpg,,,,,,,,,,,,,
44.93832,-0.66625,Le Pian-Médoc,33290,CC Médoc Estuaire,Gironde,https://api.v2.clean2gether.com/uploads/fa4769aa_bb44_4729_8b7c_b211e0bb36d0_jpg_f2e0bb214b.jpg,,,,,,,,,,,,,
44.99616,-0.82368,Castelnau-de-Médoc,33480,CC Médullienne,Gironde,https://api.v2.clean2gether.com/uploads/a52162a2_7638_49d1_9066_8ed96a98821e_jpg_24207ee5e7.jpg,,,,,,,,,,,,,
44.74887,-0.1084,Blasimon,33540,CC rurales de l'Entre-Deux-Mers,Gironde,https://api.v2.clean2gether.com/uploads/7884c9d7_0aa3_4140_9733_3cd7cb8fbece_jpg_a8c09a8a53.jpg,https://api.v2.clean2gether.com/uploads/3ed47b18_fb17_4b3c_a599_e915727445d9_jpg_cbf5bf6118.jpg,,,,,,,,,,,,
45.41669,-1.07145,Grayan-et-l'Hôpital,33590,CC Médoc Atlantique,Gironde,https://api.v2.clean2gether.com/uploads/66cee205_8713_4c6f_bbcc_3f41ca888c50_jpg_3912bda684.jpg,,,,,,,,,,,,,
44.73314,-0.21382,Bellebat,33760,CC rurales de l'Entre-Deux-Mers,Gironde,https://api.v2.clean2gether.com/uploads/8_BD_89837_D86_C_4864_A8_C7_5974_E8925731_jpg_b0e298a49a.jpg,https://api.v2.clean2gether.com/uploads/DAF_5_C0_D5_549_E_4670_BBA_2_D536202_E730_D_jpg_9d9cefeed6.jpg,,,,,,,,,,,,
46.61674,0.2724,Migné-Auxances,86580,CU du Grand Poitiers,Vienne,https://api.v2.clean2gether.com/uploads/31a12f5e_2c61_4cba_a8a1_c139767d1e76_jpg_a9083950d8.jpg,,,,,,,,,,,,,
46.18231,-1.17653,L'Houmeau,17137,CA de La Rochelle,Charente-Maritime,https://api.v2.clean2gether.com/uploads/857bf82a_d627_464b_92fb_5c6e8c015037_jpg_b65f3553d6.jpg,,,,,,,,,,,,,
46.0879,-1.01868,Thairé,17290,CA de La Rochelle,Charente-Maritime,https://api.v2.clean2gether.com/uploads/f2a3abc0_e29d_4069_b7f1_8115617d7051_jpg_71ef96119e.jpg,,,,,,,,,,,,,
46.10062,-1.02067,Salles-sur-Mer,17290,CA de La Rochelle,Charente-Maritime,https://api.v2.clean2gether.com/uploads/9998ef81_8dc9_4c73_a48b_12431e6768b4_jpg_78d88110a7.jpg,,,,,,,,,,,,,
46.10288,-0.99136,Croix-Chapeau,17220,CA de La Rochelle,Charente-Maritime,https://api.v2.clean2gether.com/uploads/69205dbd_d3b3_4502_addb_6d77c7795683_jpg_db55788908.jpg,,,,,,,,,,,,,
46.10022,-1.04607,Salles-sur-Mer,17220,CA de La Rochelle,Charente-Maritime,https://api.v2.clean2gether.com/uploads/43ff9125_4c1e_4496_83e7_89bf4e9c38ab_jpg_fff161174b.jpg,,,,,,,,,,,,,
44.89407,-0.26352,Arveyres,33500,CA du Libournais,Gironde,https://api.v2.clean2gether.com/uploads/15ebc718_d5ef_4259_ac1a_078014208e63_jpg_07d954c433.jpg,,,,,,,,,,,,,
44.91446,-0.34292,Izon,33450,CA du Libournais,Gironde,https://api.v2.clean2gether.com/uploads/b4e6bb6e_e888_4014_a89e_0bd83970ca6e_jpg_c4596da65c.jpg,,,,,,,,,,,,,
43.30271,-1.43225,Itxassou,64250,CA du Pays Basque,Pyrénées-Atlantiques,https://api.v2.clean2gether.com/uploads/1_E470_AF_3_EC_80_4_FEC_BD_22_FB_32032_E8092_jpg_9f752481bd.jpg,https://api.v2.clean2gether.com/uploads/CD_1_E143_B_1212_4784_8_DE_2_95_A827_C37734_jpg_e9379e59c7.jpg,https://api.v2.clean2gether.com/uploads/9_EB_5_F4_F2_9_EE_8_4_FFF_8205_991_DD_8978_A66_jpg_b2115a2532.jpg,,,,,,,,,,,
44.71528,-0.64159,Léognan,33850,CC de Montesquieu,Gironde,https://api.v2.clean2gether.com/uploads/c62089b2_66c9_46d6_a58e_7ad2dffdb15e_jpg_ce34235dba.jpg,,,,,,,,,,,,,
44.83552,-0.56287,Bordeaux,33800,Bordeaux Métropole,Gironde,https://api.v2.clean2gether.com/uploads/36754726_80_C2_4206_863_A_010_A5_FDB_0273_jpg_f766e27666.jpg,,,,,,,,,,,,,
44.74695,-0.11243,Blasimon,33540,CC rurales de l'Entre-Deux-Mers,Gironde,https://api.v2.clean2gether.com/uploads/ae2d7426_3662_40c1_a382_63b6e920c59e_jpg_243d02b289.jpg,,,,,,,,,,,,,
44.80704,0.06747,Gensac,33890,CC Castillon/Pujols,Gironde,https://api.v2.clean2gether.com/uploads/437c2486_e170_4503_ad56_e8b4dc37f014_jpg_3d18995f40.jpg,https://api.v2.clean2gether.com/uploads/8e4604cb_eb80_42a8_a9ed_d3f274ec1c26_jpg_f9ba18bde6.jpg,https://api.v2.clean2gether.com/uploads/1f0c1b26_b409_4523_bc85_401e61f41ff6_jpg_30b96070bd.jpg,,,,,,,,,,,
44.93019,-0.66317,Blanquefort,33290,Bordeaux Métropole,Gironde,https://api.v2.clean2gether.com/uploads/4e838d84_7377_4b9f_977c_e0b465506f26_jpg_324d2af8be.jpg,,,,,,,,,,,,,
44.93078,-0.66625,Blanquefort,33290,Bordeaux Métropole,Gironde,https://api.v2.clean2gether.com/uploads/a8b2fce4_505e_40de_bfdb_7ff889f67665_jpg_7fa70ea665.jpg,,,,,,,,,,,,,
44.92436,-0.67656,Le Taillan-Médoc,33320,Bordeaux Métropole,Gironde,https://api.v2.clean2gether.com/uploads/026b4ee4_8d61_4f5c_a05a_d0126540f580_jpg_ff1db92462.jpg,,,,,,,,,,,,,
44.96261,-0.25487,Les Billaux,33500,CA du Libournais,Gironde,https://api.v2.clean2gether.com/uploads/975_A2_FF_7_6985_482_B_B9_DA_54424_D2_EEAAF_jpg_f7f3cfa9bd.jpg,,,,,,,,,,,,,
44.96177,-0.25723,Les Billaux,33500,CA du Libournais,Gironde,https://api.v2.clean2gether.com/uploads/A7_D01_E0_C_45_B3_4846_8554_E674_F4_DE_354_D_jpg_d91b031b57.jpg,,,,,,,,,,,,,
45.74817,-1.09383,Arvert,17530,CA Royan Atlantique,Charente-Maritime,https://api.v2.clean2gether.com/uploads/cf289694_acd8_47a0_813f_3ab9fc3df2e2_jpg_37e4b2eef2.jpg,,,,,,,,,,,,,
44.89535,-0.38352,Saint-Sulpice-et-Cameyrac,33450,CC du Secteur de Saint-Loubès,Gironde,https://api.v2.clean2gether.com/uploads/c596cae0_20cd_4734_bc31_5a2768c62435_jpg_2658590538.jpg,https://api.v2.clean2gether.com/uploads/7df9c2d4_0317_45cf_9eb8_1b68b959e87d_jpg_692d0e685f.jpg,,,,,,,,,,,,
44.95105,-0.52025,Ambarès-et-Lagrave,33440,Bordeaux Métropole,Gironde,https://api.v2.clean2gether.com/uploads/a2f26533_4a27_442f_a0d7_607a7207baf8_jpg_6636057d3a.jpg,https://api.v2.clean2gether.com/uploads/c70222b8_5d89_41b1_9d48_d9e5cad14504_jpg_4c23ad6c7f.jpg,https://api.v2.clean2gether.com/uploads/185eb088_b0d5_4e3f_8c39_7a2a0a03f5d4_jpg_cea9a0cd2a.jpg,https://api.v2.clean2gether.com/uploads/c27de08a_d396_4974_9778_d41c29fee9f7_jpg_d0603246f6.jpg,,,,,,,,,,
44.79777,-1.23065,Lège-Cap-Ferret,33950,CA du Bassin d'Arcachon Nord,Gironde,https://api.v2.clean2gether.com/uploads/BCA_6_F7_F4_27_F4_46_CD_89_BA_CB_0_BD_3_ACE_8_C2_jpg_4a7747ef22.jpg,,,,,,,,,,,,,
43.69858,-1.33201,Tosse,40230,CC Maremne Adour Côte Sud,Landes,https://api.v2.clean2gether.com/uploads/8555a109_c36d_4a67_bae2_e5be9dc1ad36_jpg_706d524832.jpg,,,,,,,,,,,,,
44.7434,-0.61079,Léognan,33850,CC de Montesquieu,Gironde,https://api.v2.clean2gether.com/uploads/d50704dc_420a_4e1a_8eda_9b63ec7d5ca8_jpg_5771c46e50.jpg,https://api.v2.clean2gether.com/uploads/249b9a6b_ed26_4083_a2b3_269e12b254ea_jpg_a7523f90a8.jpg,,,,,,,,,,,,
43.68468,-1.04946,Dax,40100,CA du Grand Dax,Landes,https://api.v2.clean2gether.com/uploads/E83_B42_DD_D818_4_A3_D_9_EB_0_D5_FE_9_FA_3_ABC_4_jpg_8177da4a19.jpg,https://api.v2.clean2gether.com/uploads/18080_B5_C_06_B9_4_B66_886_D_1_D600_F68_B482_jpg_b3bea40213.jpg,,,,,,,,,,,,
45.87979,1.16514,Limoges,87100,CU Limoges Métropole,Haute-Vienne,https://api.v2.clean2gether.com/uploads/b948f237_ffcd_4574_80d3_027ebdb647b7_jpg_12f07a78bd.jpg,,,,,,,,,,,,,
45.48266,-1.08691,Talais,33590,CC Médoc Atlantique,Gironde,https://api.v2.clean2gether.com/uploads/459dbf87_97b1_4f81_9b6e_a9b567b96d53_jpg_d955bbb30c.jpg,https://api.v2.clean2gether.com/uploads/7fe3f0b5_ff24_4cca_b94f_67685c780fb5_jpg_78c8f450be.jpg,,,,,,,,,,,,
44.17119,0.62229,Boé,47550,CA d'Agen,Lot-et-Garonne,https://api.v2.clean2gether.com/uploads/8127_C930_50_C5_4_EEF_9355_9_E5_C0620_E0_C4_jpg_a5ad596450.jpg,,,,,,,,,,,,,
44.17784,0.61208,Le Passage,47520,CA d'Agen,Lot-et-Garonne,https://api.v2.clean2gether.com/uploads/A519_FC_65_407_C_4876_A159_082613_C22190_jpg_dbb9e33e3d.jpg,,,,,,,,,,,,,
44.98018,-0.64049,Le Pian-Médoc,33290,CC Médoc Estuaire,Gironde,https://api.v2.clean2gether.com/uploads/8a621c32_ea7f_465c_96ea_dbc8e18efd22_jpg_cfdb03cbb0.jpg,,,,,,,,,,,,,
45.95728,0.20417,Verteuil-sur-Charente,16510,CC Val de Charente,Charente,https://api.v2.clean2gether.com/uploads/855_F4_A3_F_2_EE_7_40_E1_96_E2_C9_ED_536566_C6_jpg_57dba69683.jpg,https://api.v2.clean2gether.com/uploads/7_FD_26053_3_BC_2_4121_853_B_CAA_997428_D4_D_jpg_d48806b438.jpg,,,,,,,,,,,,
45.65334,-1.0312,Royan,17200,CA Royan Atlantique,Charente-Maritime,https://api.v2.clean2gether.com/uploads/6_CB_76_A9_D_62_BE_41_F0_A0_C8_1_FE_9647_F2_B43_jpg_73591d5b5f.jpg,https://api.v2.clean2gether.com/uploads/F0_EE_0555_57_C8_49_C2_8532_A964_D279_B0_E4_jpg_cf8519df76.jpg,,,,,,,,,,,,
45.24061,-0.30568,Montlieu-la-Garde,17210,CC de la Haute Saintonge,Charente-Maritime,https://api.v2.clean2gether.com/uploads/2b1f82fb_1212_479f_9201_5e045bcf9d27_jpg_4428ac615a.jpg,,,,,,,,,,,,,
44.97098,-0.64829,Le Pian-Médoc,33290,CC Médoc Estuaire,Gironde,https://api.v2.clean2gether.com/uploads/4827c6ee_ca72_4a10_9bcb_73fe477db794_jpg_2ba3a7605c.jpg,,,,,,,,,,,,,
46.06647,-0.99925,Thairé,17290,CA de La Rochelle,Charente-Maritime,https://api.v2.clean2gether.com/uploads/3a8c8370_36f1_4975_839e_27acb7119bbd_jpg_70151e0105.jpg,,,,,,,,,,,,,
45.2002,0.66733,Chancelade,24650,CA Le Grand Périgueux,Dordogne,https://api.v2.clean2gether.com/uploads/79_EE_0_D40_50_F9_4961_8_F43_406_DF_77_D4431_jpg_30d5b2d81f.jpg,,,,,,,,,,,,,
45.2002,0.66733,Chancelade,24650,CA Le Grand Périgueux,Dordogne,https://api.v2.clean2gether.com/uploads/79_EE_0_D40_50_F9_4961_8_F43_406_DF_77_D4431_jpg_088c0d4c5b.jpg,,,,,,,,,,,,,
43.31856,-0.45428,Artiguelouve,64230,CA Pau Béarn Pyrénées,Pyrénées-Atlantiques,https://api.v2.clean2gether.com/uploads/bdac60b2_b9a4_4efa_97e2_f6c703e5d32d_jpg_0adec031de.jpg,,,,,,,,,,,,,
44.78807,-0.5282,Villenave-d'Ornon,33140,Bordeaux Métropole,Gironde,https://api.v2.clean2gether.com/uploads/6c970ad6_9f86_4615_8e40_daa622e7fc94_jpg_177e7fd8cf.jpg,,,,,,,,,,,,,
45.90189,1.27409,Chaptelat,87280,CU Limoges Métropole,Haute-Vienne,https://api.v2.clean2gether.com/uploads/dbbc766f_eac6_4b8c_a3f0_bb6c37aa7566_jpg_0a67a97c3b.jpg,,,,,,,,,,,,,
45.56051,0.91817,Mialet,24450,CC Périgord-Limousin,Dordogne,https://api.v2.clean2gether.com/uploads/8df25cc2_bfe4_40fa_a67a_f6a6882ff1fd_jpg_8315ab8a5c.jpg,,,,,,,,,,,,,
44.70271,-0.60711,Léognan,33850,CC de Montesquieu,Gironde,https://api.v2.clean2gether.com/uploads/9a275fc3_9f82_4660_8ecb_f5b0edab3dbf_jpg_123cda7348.jpg,,,,,,,,,,,,,
44.70249,-0.60752,Léognan,33850,CC de Montesquieu,Gironde,https://api.v2.clean2gether.com/uploads/84ee3945_d736_4eff_8870_6e3fa4de8386_jpg_9fa0dd4587.jpg,,,,,,,,,,,,,
45.92726,-1.33389,Saint-Pierre-d'Oléron,17310,CC de l'Ile d'Oléron,Charente-Maritime,https://api.v2.clean2gether.com/uploads/37a71481_c1f2_410e_81f7_38412633f075_jpg_302d4abf21.jpg,,,,,,,,,,,,,
46.07222,-1.00491,Thairé,17290,CA de La Rochelle,Charente-Maritime,https://api.v2.clean2gether.com/uploads/dcd7a931_bc8e_4361_9f70_d0d6421fe0fe_jpg_955a32961c.jpg,,,,,,,,,,,,,
44.92169,-0.37135,Izon,33450,CA du Libournais,Gironde,https://api.v2.clean2gether.com/uploads/0c1b431f_552a_4108_b3c2_e6cbf754dea9_jpg_cee32a85ed.jpg,,,,,,,,,,,,,
44.78308,-0.09306,Mérignas,33350,CC Castillon/Pujols,Gironde,https://api.v2.clean2gether.com/uploads/1_DC_19707_8650_459_F_90_AF_E13_F22_CD_039_F_jpg_c04f6bb16b.jpg,,,,,,,,,,,,,
44.91537,-0.75898,Saint-Aubin-de-Médoc,33160,Bordeaux Métropole,Gironde,https://api.v2.clean2gether.com/uploads/02eaec7a_8c63_4fc6_b1c2_474394998ce6_jpg_df7b0cd76b.jpg,,,,,,,,,,,,,
46.88979,0.53417,Antran,86100,CA Grand Châtellerault,Vienne,https://api.v2.clean2gether.com/uploads/351233af_f624_4bac_aa1a_dbb1d857559b_jpg_2df3d1affb.jpg,,,,,,,,,,,,,
44.74312,-0.5213,Cadaujac,33140,CC de Montesquieu,Gironde,https://api.v2.clean2gether.com/uploads/75367_DBD_8_D16_4_B22_8329_BCCC_1_CD_41418_jpg_7326fce940.jpg,,,,,,,,,,,,,
45.22223,0.60587,La Chapelle-Gonaguet,24350,CA Le Grand Périgueux,Dordogne,https://api.v2.clean2gether.com/uploads/382_AF_9_C0_87_DC_46_A7_8007_30_B6693_AA_1_DE_jpg_3ea6e4618b.jpg,,,,,,,,,,,,,
44.46964,-0.80979,Belin-Béliet,33830,CC du Val de l'Eyre,Gironde,https://api.v2.clean2gether.com/uploads/539e7fd4_48ca_4486_8720_b4c78ee0553f_jpg_ba4acdfb03.jpg,,,,,,,,,,,,,
45.58225,0.24843,Dirac,16410,CA du Grand Angoulême,Charente,https://api.v2.clean2gether.com/uploads/f1baa928_93b1_4376_843e_d31efd447586_jpg_05a5f1dade.jpg,,,,,,,,,,,,,
45.58727,0.26348,Dirac,16410,CA du Grand Angoulême,Charente,https://api.v2.clean2gether.com/uploads/9b43faa2_5786_41e4_a9f3_bf953d460ad1_jpg_0ab03f5d4b.jpg,,,,,,,,,,,,,
45.25731,2.08214,Saint-Merd-de-Lapleau,19320,CC de Ventadour - Egletons - Monédières,Corrèze,https://api.v2.clean2gether.com/uploads/39_D1668_D_52_CB_4385_9_C51_40_EAB_58_B75_CE_jpg_b761514f4f.jpg,https://api.v2.clean2gether.com/uploads/7_B6_EC_4_BA_B117_4565_AC_32_03_B97_B9_D2_F27_jpg_cd04b14c4f.jpg,https://api.v2.clean2gether.com/uploads/62974_ACC_072_E_42_EF_8371_BC_08_E2_FB_725_E_jpg_98ade6f194.jpg,https://api.v2.clean2gether.com/uploads/27_D26317_921_D_4_FF_3_9_B13_F7_D4_F554710_C_jpg_c5b8b598f9.jpg,,,,,,,,,,
44.20465,-1.22828,Mimizan,40200,CC de Mimizan,Landes,https://api.v2.clean2gether.com/uploads/612ed822_7512_4462_a833_6b7d391e804f_jpg_152b70ae62.jpg,,,,,,,,,,,,,
44.77626,-0.66063,Canéjan,33610,CC Jalle-Eau-Bourde,Gironde,https://api.v2.clean2gether.com/uploads/BC_96_A467_4_F28_41_DA_B2_DF_1_AA_127_F9324_D_jpg_e01ba9cb33.jpg,,,,,,,,,,,,,
44.77492,-0.66104,Canéjan,33610,CC Jalle-Eau-Bourde,Gironde,https://api.v2.clean2gether.com/uploads/BEE_395_C6_0901_412_F_A497_52589370_BA_05_jpg_4d5b0c63af.jpg,,,,,,,,,,,,,
46.63172,0.28467,Migné-Auxances,86440,CU du Grand Poitiers,Vienne,https://api.v2.clean2gether.com/uploads/f40324a2_9f06_42f5_a8ae_0b9814f44494_jpg_fbf26414dd.jpg,,,,,,,,,,,,,
44.83998,-0.33263,Baron,33750,CC du Créonnais,Gironde,https://api.v2.clean2gether.com/uploads/b49281ba_2ef7_4867_bec6_99827f2ace4d_jpg_71b184fb73.jpg,,,,,,,,,,,,,
44.15389,-1.21416,Mimizan,40200,CC de Mimizan,Landes,https://api.v2.clean2gether.com/uploads/244aad2e_9b4e_45f5_b0a2_31ca3cfe46fc_jpg_cf7cf9c1a4.jpg,,,,,,,,,,,,,
44.1997,-1.24128,Mimizan,40200,CC de Mimizan,Landes,https://api.v2.clean2gether.com/uploads/713e1a86_7e49_4a4f_bc3e_2632ff3f9df4_jpg_440fbbc64c.jpg,,,,,,,,,,,,,
46.14639,1.84648,La Chapelle-Taillefert,23000,CA du Grand Guéret,Creuse,https://api.v2.clean2gether.com/uploads/E3_B17835_9_C5_A_4704_9_F69_5724_A45_E2627_jpg_f3696e2b31.jpg,,,,,,,,,,,,,
46.12352,1.86073,Guéret,23000,CA du Grand Guéret,Creuse,https://api.v2.clean2gether.com/uploads/C167_AA_26_7_EC_8_4_D5_E_8276_E592746207_A8_jpg_05a72c5934.jpg,,,,,,,,,,,,,
46.14441,1.86264,Guéret,23000,CA du Grand Guéret,Creuse,https://api.v2.clean2gether.com/uploads/4_E9_C63_B7_2174_475_F_821_A_3_F13_F71_D01_DD_jpg_10a8395a8d.jpg,,,,,,,,,,,,,
46.63162,0.28699,Migné-Auxances,86440,CU du Grand Poitiers,Vienne,https://api.v2.clean2gether.com/uploads/81ec91f2_166d_4628_a5ed_e12bf8418180_jpg_913c778e0d.jpg,,,,,,,,,,,,,
46.62496,0.28819,Migné-Auxances,86440,CU du Grand Poitiers,Vienne,https://api.v2.clean2gether.com/uploads/b2e432fb_fb75_4402_b969_cca1015dc5b5_jpg_be521dfdf3.jpg,,,,,,,,,,,,,
46.62443,0.28873,Migné-Auxances,86440,CU du Grand Poitiers,Vienne,https://api.v2.clean2gether.com/uploads/c0434692_606b_45e2_9018_2fab9698cdb4_jpg_709dc1cde7.jpg,https://api.v2.clean2gether.com/uploads/7819b3e9_a356_41f6_b9cc_0a89d34b90fb_jpg_59f4dbca25.jpg,,,,,,,,,,,,
45.00954,1.08799,Saint-Léon-sur-Vézère,24290,CC de la Vallée de l'Homme,Dordogne,https://api.v2.clean2gether.com/uploads/8ab45393_fe54_4d28_9727_1e94370f4bba_jpg_93354ed35e.jpg,,,,,,,,,,,,,
45.25883,-0.40951,Corignac,17130,CC de la Haute Saintonge,Charente-Maritime,https://api.v2.clean2gether.com/uploads/35d612f3_7949_4aa0_a3f5_dd0b22cb3b3c_jpg_7daf68e126.jpg,,,,,,,,,,,,,
44.73376,-0.21647,Bellebat,33760,CC rurales de l'Entre-Deux-Mers,Gironde,https://api.v2.clean2gether.com/uploads/F15216_AD_38_B1_4625_B764_4032_FE_1_DE_4_F5_jpg_f01d8fbaf5.jpg,,,,,,,,,,,,,
45.29926,-0.11232,Guizengeard,16480,CC des 4B Sud Charente,Charente,https://api.v2.clean2gether.com/uploads/5ff5c648_1fdc_4462_889c_ce3cf9b7258f_jpg_3cf4a64259.jpg,,,,,,,,,,,,,
44.97393,-0.42614,Cubzac-les-Ponts,33240,CC du Grand Cubzaguais,Gironde,https://api.v2.clean2gether.com/uploads/48613_EF_8_4_D33_4_AE_5_85_B5_399_AC_443_C467_jpg_ab3221156b.jpg,,,,,,,,,,,,,
44.67833,-0.57535,Saucats,33650,CC de Montesquieu,Gironde,https://api.v2.clean2gether.com/uploads/d4ea9a4d_45e8_49e3_bf02_fe6bb2421789_jpg_c4c67d5ca1.jpg,,,,,,,,,,,,,
45.24531,-0.46274,Donnezac,33860,CC Latitude Nord Gironde,Gironde,https://api.v2.clean2gether.com/uploads/80683_ABA_F7_F0_4560_BC_24_99_A5_FEF_388_B1_jpg_16129a0dc2.jpg,,,,,,,,,,,,,
44.67814,-0.57498,Saucats,33650,CC de Montesquieu,Gironde,https://api.v2.clean2gether.com/uploads/bd62f733_a1bf_481a_ad8c_a5cc1392ffaa_jpg_014f908388.jpg,https://api.v2.clean2gether.com/uploads/7cbd36e5_06c8_48e3_95a7_0df1553b6329_jpg_e498f41879.jpg,,,,,,,,,,,,
44.89122,-0.71297,Saint-Médard-en-Jalles,33160,Bordeaux Métropole,Gironde,https://api.v2.clean2gether.com/uploads/06_E3_B1_F6_DFD_1_4610_AAB_3_EF_9886_D3_DAF_8_jpg_5847027aae.jpg,,,,,,,,,,,,,
46.15729,-1.08173,Périgny,17180,CA de La Rochelle,Charente-Maritime,https://api.v2.clean2gether.com/uploads/18d03a82_80c5_434a_ad71_a67d700f6511_jpg_0648c6e23d.jpg,,,,,,,,,,,,,
46.17821,-1.01552,Sainte-Soulle,17220,CA de La Rochelle,Charente-Maritime,https://api.v2.clean2gether.com/uploads/05269ed9_d8c8_41d3_9a55_249168b6a961_jpg_0869133090.jpg,,,,,,,,,,,,,
44.94116,-0.47375,Ambarès-et-Lagrave,33440,Bordeaux Métropole,Gironde,https://api.v2.clean2gether.com/uploads/64dedc68_4b21_4f21_ac3c_971f44256087_jpg_224a86fc8c.jpg,,,,,,,,,,,,,
45.01224,-0.39406,Aubie-et-Espessas,33240,CC du Grand Cubzaguais,Gironde,https://api.v2.clean2gether.com/uploads/db519f71_15e1_45ca_adec_cefd2f9e0cca_jpg_a74150986a.jpg,,,,,,,,,,,,,
45.17422,1.58717,Malemort-sur-Corrèze,19360,CA du Bassin de Brive,Corrèze,https://api.v2.clean2gether.com/uploads/58483fc5_b7a7_4378_bbe1_0cbecf885fa1_jpg_ebc77e816c.jpg,,,,,,,,,,,,,
44.84994,-0.74274,Mérignac,33160,Bordeaux Métropole,Gironde,https://api.v2.clean2gether.com/uploads/7aeda4d3_e7d5_417c_880d_74627939ebbc_jpg_b65b9593a8.jpg,,,,,,,,,,,,,
45.24419,-0.47367,Donnezac,33860,CC Latitude Nord Gironde,Gironde,https://api.v2.clean2gether.com/uploads/1_E651_C45_F3_CB_4774_B327_0869_BF_2_C77_C5_jpg_bbc44f2ae7.jpg,,,,,,,,,,,,,
45.24596,-0.46846,Donnezac,33860,CC Latitude Nord Gironde,Gironde,https://api.v2.clean2gether.com/uploads/570_CC_4_BF_7_D9_B_417_E_BDB_4_F4465_A7_E7306_jpg_4d2313a630.jpg,,,,,,,,,,,,,
45.24624,-0.46747,Donnezac,33860,CC Latitude Nord Gironde,Gironde,https://api.v2.clean2gether.com/uploads/0613_D344_5404_4_A5_B_9_EB_6_5773_F569_B632_jpg_f9b596117a.jpg,,,,,,,,,,,,,
44.99032,-0.12119,Les Artigues-de-Lussac,33570,CC du Grand Saint Emilionnais,Gironde,https://api.v2.clean2gether.com/uploads/EC_40657_E_B691_46_CE_8_C52_840_BB_3755029_jpg_957ec2e673.jpg,,,,,,,,,,,,,
44.9577,-0.59694,Parempuyre,33290,Bordeaux Métropole,Gironde,https://api.v2.clean2gether.com/uploads/F4_B89_B82_E98_B_48_BA_9729_00_B20_E42_F521_jpg_852a55010c.jpg,,,,,,,,,,,,,
45.05538,-0.1479,Coutras,33230,CA du Libournais,Gironde,https://api.v2.clean2gether.com/uploads/7fd2883b_3611_4713_b8f8_8f5b4a14dad0_jpg_7306f62937.jpg,,,,,,,,,,,,,
45.62805,0.52583,Varaignes,24360,CC du Périgord Nontronnais,Dordogne,https://api.v2.clean2gether.com/uploads/18f81d84_cadd_4fb2_810a_746d15705146_jpg_22e015c4a8.jpg,https://api.v2.clean2gether.com/uploads/6ecf1c2e_c5a4_481e_b232_5caebeeec4f9_jpg_8ee9dc76d7.jpg,https://api.v2.clean2gether.com/uploads/50764e37_34cd_4663_b162_1c93409cdc07_jpg_788fcc5af9.jpg,https://api.v2.clean2gether.com/uploads/1868aef6_765f_4806_9c83_944025a58e6a_jpg_38860975b7.jpg,https://api.v2.clean2gether.com/uploads/3c3c2c64_0302_428d_88b3_b0f08f456822_jpg_3257a57324.jpg,https://api.v2.clean2gether.com/uploads/beac5fc6_33d4_4209_9fa7_7f99954a22e7_jpg_fd28f72286.jpg,https://api.v2.clean2gether.com/uploads/44b92c3f_b598_4579_827e_de5cdeca090c_jpg_a3115f7b7f.jpg,https://api.v2.clean2gether.com/uploads/d125bdab_2236_48f2_8d8d_80d40b61ee38_jpg_b89522b6b7.jpg,https://api.v2.clean2gether.com/uploads/68ec8080_9c10_4031_8ea7_e5ddd7966459_jpg_c59566527a.jpg,,,,,
44.92795,-0.7472,Saint-Aubin-de-Médoc,33160,Bordeaux Métropole,Gironde,https://api.v2.clean2gether.com/uploads/b80e7faa_96d5_49d8_9fc2_f43cf48cff86_jpg_9672a7e56c.jpg,,,,,,,,,,,,,
45.59652,-0.79106,Thaims,17260,CC de Gémozac et de la Saintonge Viticole,Charente-Maritime,https://api.v2.clean2gether.com/uploads/D1_EEBCC_4_A541_4_F8_D_9391_BE_8_FA_9163_A85_jpg_a30b5e9607.jpg,https://api.v2.clean2gether.com/uploads/A8_F13_FD_4_AE_7_B_4_A1_C_B787_20_A3_F946_CD_73_jpg_fb71fb8c0d.jpg,https://api.v2.clean2gether.com/uploads/A55658_B2_4_A84_4788_95_D2_6631_B89_F6446_jpg_01836ffd8d.jpg,https://api.v2.clean2gether.com/uploads/EE_79_AF_37_AACC_4_A56_A10_D_61153_C9_B6_D48_jpg_badd28adf4.jpg,https://api.v2.clean2gether.com/uploads/F4_E2_E08_A_E65_F_4_C94_BD_20_72897_B9_DA_870_jpg_cba768cb44.jpg,,,,,,,,,
44.85824,-0.33917,Saint-Germain-du-Puch,33750,CA du Libournais,Gironde,https://api.v2.clean2gether.com/uploads/C25_C85_AD_0133_444_C_9_D96_04_C6_AE_9_E3815_jpg_3ebeeb0ca8.jpg,https://api.v2.clean2gether.com/uploads/661_FD_4_BA_96_B2_4_A1_B_AE_78_F0_FFB_3_C00_C21_jpg_6e9777d15a.jpg,,,,,,,,,,,,
45.25598,-0.49795,Marcillac,33860,CC de l'Estuaire,Gironde,https://api.v2.clean2gether.com/uploads/5770_F626_83_F3_4_D19_B61_F_9_E0_CE_881_F739_jpg_81b91949dc.jpg,,,,,,,,,,,,,
44.86222,-0.29873,Nérigean,33750,CA du Libournais,Gironde,https://api.v2.clean2gether.com/uploads/20bdd69e_97ff_49b4_a949_12ab1b2d869c_jpg_9051c1e69a.jpg,,,,,,,,,,,,,
44.86212,-0.2982,Nérigean,33750,CA du Libournais,Gironde,https://api.v2.clean2gether.com/uploads/b4a20d88_1ba5_4562_9495_8dcd7f304553_jpg_3081eefc7b.jpg,,,,,,,,,,,,,
44.96272,-0.62515,Parempuyre,33290,Bordeaux Métropole,Gironde,https://api.v2.clean2gether.com/uploads/38b667ff_bf14_448b_8110_b7a93b451945_jpg_0046a2744f.jpg,,,,,,,,,,,,,
44.9627,-0.62452,Parempuyre,33290,Bordeaux Métropole,Gironde,https://api.v2.clean2gether.com/uploads/dfc33146_7d35_4eb9_b70d_e44317bb02ae_jpg_83e809e9d1.jpg,,,,,,,,,,,,,
45.253,-0.42634,Donnezac,33860,CC Latitude Nord Gironde,Gironde,https://api.v2.clean2gether.com/uploads/4_B69_E07_D_8_FF_6_491_F_8_D01_ABA_9_AE_03_F4_F7_jpg_4fc087d47f.jpg,,,,,,,,,,,,,
45.25801,-0.42979,Donnezac,33860,CC Latitude Nord Gironde,Gironde,https://api.v2.clean2gether.com/uploads/5_CDFF_4_A6_1963_49_A7_B30_E_4_CD_63_B4_B6063_jpg_fd3589dec5.jpg,,,,,,,,,,,,,
44.94252,-0.46279,Saint-Loubès,33450,CC du Secteur de Saint-Loubès,Gironde,https://api.v2.clean2gether.com/uploads/3907_B06_A_0_C28_465_E_9258_03352910_D5_CB_jpg_363bec8043.jpg,,,,,,,,,,,,,
44.88215,-0.31037,Vayres,33870,CA du Libournais,Gironde,https://api.v2.clean2gether.com/uploads/adce83b1_419b_49c3_a9f9_5b25811e1665_jpg_db28e6fe4a.jpg,,,,,,,,,,,,,
45.21716,0.63124,La Chapelle-Gonaguet,24350,CA Le Grand Périgueux,Dordogne,https://api.v2.clean2gether.com/uploads/8_E74045_F_D3_F7_481_A_94_A8_18756896798_F_jpg_a0ce6c418a.jpg,https://api.v2.clean2gether.com/uploads/E39_BF_9_B3_52_B3_4_BDF_87_C4_67_DBD_56_BE_138_jpg_021d94f744.jpg,,,,,,,,,,,,
45.83189,-0.5897,Juicq,17770,CC Vals de Saintonge,Charente-Maritime,https://api.v2.clean2gether.com/uploads/5b6e95de_79df_4fd1_9c61_e7bace29e593_jpg_e37cd91859.jpg,https://api.v2.clean2gether.com/uploads/9ead328f_8414_4ea4_a073_be1e9d5c6bfe_jpg_928fa094e5.jpg,https://api.v2.clean2gether.com/uploads/4ecb6186_7369_45e7_8dd1_139dab9807ba_jpg_38d1e4bfcb.jpg,https://api.v2.clean2gether.com/uploads/b374e275_960d_4f6f_9ab2_ceea9d6205e1_jpg_d695f47b81.jpg,https://api.v2.clean2gether.com/uploads/f54f0911_69c2_46d3_988d_75a16697cd82_jpg_495a61e4e4.jpg,https://api.v2.clean2gether.com/uploads/acd86b1f_831a_4984_837b_43994b0bff39_jpg_da28f66e35.jpg,,,,,,,,
44.95364,-0.24441,Les Billaux,33500,CA du Libournais,Gironde,https://api.v2.clean2gether.com/uploads/9c6d517b_685b_4665_959b_6067c4f1ab8c_jpg_e91ab0d3a1.jpg,,,,,,,,,,,,,
44.33426,0.33469,Nicole,47190,CC du Confluent et des Coteaux de Prayssas,Lot-et-Garonne,https://api.v2.clean2gether.com/uploads/EEF_73231_0_AE_8_4_C34_B557_C4_B34_E153_D20_jpg_6f1f4238a3.jpg,,,,,,,,,,,,,
44.92754,-0.96457,Sainte-Hélène,33680,CC Médullienne,Gironde,https://api.v2.clean2gether.com/uploads/f04ad885_4c31_4ff7_bec7_ffb49a78bf7f_jpg_b065b13121.jpg,,,,,,,,,,,,,
44.74631,-0.65863,Cestas,33610,CC Jalle-Eau-Bourde,Gironde,https://api.v2.clean2gether.com/uploads/d7c096d4_ef34_4493_b7af_0a5dda8ea76b_jpg_0f09bbadd7.jpg,https://api.v2.clean2gether.com/uploads/5da6ca26_87fa_47f5_9706_5917e9f0f166_jpg_37239e1fc4.jpg,,,,,,,,,,,,
44.98046,-0.42089,Saint-André-de-Cubzac,33240,CC du Grand Cubzaguais,Gironde,https://api.v2.clean2gether.com/uploads/AFCD_46_B4_7209_4_B09_9722_4761_C3_F019_E8_jpg_eac202c07f.jpg,https://api.v2.clean2gether.com/uploads/3810_F2_BB_E69_B_4_C5_F_944_F_739_F480_EA_9_FC_jpg_c295bd1122.jpg,,,,,,,,,,,,
45.74717,0.6048,Le Lindois,16310,CC de Charente Limousine,Charente,https://api.v2.clean2gether.com/uploads/c4171a0d_1da4_4c4a_9dc9_41a58a554787_jpg_f84aae985f.jpg,,,,,,,,,,,,,
45.71484,0.18134,Champniers,16430,CA du Grand Angoulême,Charente,https://api.v2.clean2gether.com/uploads/040_CE_001_B830_4_C3_E_A945_4_EBB_8292_E04_C_jpg_12d7b21290.jpg,,,,,,,,,,,,,
45.07678,-0.35165,Marcenais,33620,CC Latitude Nord Gironde,Gironde,https://api.v2.clean2gether.com/uploads/96_E7_C477_CDFE_4775_9422_A7_AAAA_9_BE_949_jpg_30ff9c9d6f.jpg,https://api.v2.clean2gether.com/uploads/C39_DA_6_C3_FC_99_4_F1_F_8397_5672874946_F3_jpg_133294af03.jpg,,,,,,,,,,,,
45.21204,-0.80994,Saint-Sauveur,33250,CC Médoc Coeur de Presqu'île,Gironde,https://api.v2.clean2gether.com/uploads/be3bbcbd_6241_42c9_902c_92774898cd6c_jpg_833875cdb0.jpg,,,,,,,,,,,,,
45.09202,-0.3654,Laruscade,33620,CC Latitude Nord Gironde,Gironde,https://api.v2.clean2gether.com/uploads/172_E73_FF_B81_A_46_F9_BAAB_FD_40357554_AB_jpg_4691c62049.jpg,https://api.v2.clean2gether.com/uploads/ACC_310_FF_D1_A6_4579_B409_55_AEA_0_EDADDD_jpg_d78aca9258.jpg,https://api.v2.clean2gether.com/uploads/C82_F2_A7_E_BED_2_49_D6_9_B2_A_50_F175_E38436_jpg_452dd1f6a0.jpg,https://api.v2.clean2gether.com/uploads/C76840_F0_650_C_457_D_8786_9_DF_3_D8_DF_788_E_jpg_e8883d26d8.jpg,https://api.v2.clean2gether.com/uploads/8_F05_EDCD_77_DA_44_AD_ACD_1_6_B78_C20_C7_F26_jpg_907783340a.jpg,https://api.v2.clean2gether.com/uploads/8599_E531_3_D5_A_48_B6_A0_B8_5056510_F8_D90_jpg_5f7deeab53.jpg,,,,,,,,
45.58939,-0.96388,Meschers-sur-Gironde,17132,CA Royan Atlantique,Charente-Maritime,https://api.v2.clean2gether.com/uploads/64ba5113_06ee_44a5_9bc0_350cf9f7a56d_jpg_dbc0c03499.jpg,,,,,,,,,,,,,
44.90572,-0.5221,Bassens,33530,Bordeaux Métropole,Gironde,https://api.v2.clean2gether.com/uploads/969a079e_1d81_4db0_a8bd_d985febac84e_jpg_721631981e.jpg,,,,,,,,,,,,,
44.90445,-0.52221,Bassens,33530,Bordeaux Métropole,Gironde,https://api.v2.clean2gether.com/uploads/3febc6e2_8ec7_4c39_9350_5030feb423ea_jpg_c0ec79a0df.jpg,,,,,,,,,,,,,
45.64715,-1.11063,Saint-Palais-sur-Mer,17420,CA Royan Atlantique,Charente-Maritime,https://api.v2.clean2gether.com/uploads/310d1316_bc66_485a_b275_38b797814fea_jpg_fce7339332.jpg,,,,,,,,,,,,,
44.79429,-0.5536,Bègles,33130,Bordeaux Métropole,Gironde,https://api.v2.clean2gether.com/uploads/946fa780_a0b4_478d_bcd7_fd0cb754a5d5_jpg_56705f3e59.jpg,https://api.v2.clean2gether.com/uploads/6e2cff44_29bb_4e63_a503_091ab09e94aa_jpg_20bcc19cd3.jpg,,,,,,,,,,,,
45.09925,-0.09565,Chamadelle,33230,CA du Libournais,Gironde,https://api.v2.clean2gether.com/uploads/1837_BC_8_E_7_CDC_43_A3_8695_D5211_A4_B8_F86_jpg_a0c0fd9a96.jpg,,,,,,,,,,,,,
44.77277,-0.58261,Villenave-d'Ornon,33140,Bordeaux Métropole,Gironde,https://api.v2.clean2gether.com/uploads/6d56e282_d787_411a_93ab_54af556e5ccc_jpg_728f78d3da.jpg,,,,,,,,,,,,,
44.94157,-0.40561,Saint-Loubès,33450,CC du Secteur de Saint-Loubès,Gironde,https://api.v2.clean2gether.com/uploads/E154_B5_BA_8550_42_EA_976_F_65322_F935_C84_jpg_b2e8cf9690.jpg,,,,,,,,,,,,,
44.75985,-0.60072,Gradignan,33170,Bordeaux Métropole,Gironde,https://api.v2.clean2gether.com/uploads/4441008_F_C1_C9_4678_B2_B6_449_B3_DE_95_F4_D_jpg_bca9423659.jpg,,,,,,,,,,,,,
45.1892,0.72757,Trélissac,24000,CA Le Grand Périgueux,Dordogne,https://api.v2.clean2gether.com/uploads/050_DB_465_B5_CA_4_C24_B9_AD_F74_DD_4_FB_0_A10_jpg_6edf3acf5c.jpg,,,,,,,,,,,,,
45.10662,-0.07163,Chamadelle,17360,CA du Libournais,Gironde,https://api.v2.clean2gether.com/uploads/6_A8_FD_8_DC_3002_4_B32_A76_E_FC_519234913_E_jpg_ffd4c8493b.jpg,https://api.v2.clean2gether.com/uploads/47_D052_DE_800_D_4306_91_F6_EFF_80_E0_D17_AA_jpg_b813db57d9.jpg,,,,,,,,,,,,
45.1795,1.11266,Saint-Rabier,24210,CC du Terrassonnais en Périgord Noir Thenon Hautefort,Dordogne,https://api.v2.clean2gether.com/uploads/5c444f9c_3408_4147_97b2_aad3e38e33c2_jpg_475b9c3262.jpg,,,,,,,,,,,,,
45.03722,-0.72295,Soussans,33460,CC Médoc Estuaire,Gironde,https://api.v2.clean2gether.com/uploads/9d2323b5_fc40_46d9_9253_9569938684a7_jpg_7db5638451.jpg,,,,,,,,,,,,,
46.16012,1.79273,La Brionne,23000,CA du Grand Guéret,Creuse,https://api.v2.clean2gether.com/uploads/38a10e71_17ac_4b70_a9ad_e9d730607965_jpg_bea1b04218.jpg,https://api.v2.clean2gether.com/uploads/dc71e51c_ab24_4ccf_9070_4795266ad33b_jpg_bea8c58ea5.jpg,https://api.v2.clean2gether.com/uploads/e341fcd2_14a4_45e7_a7a3_196686301723_jpg_43c97ae91b.jpg,,,,,,,,,,,
44.85235,-0.72984,Saint-Médard-en-Jalles,33160,Bordeaux Métropole,Gironde,https://api.v2.clean2gether.com/uploads/a8881ea5_c3ea_4087_976b_9bba241e65a0_jpg_7b53b50b16.jpg,,,,,,,,,,,,,
44.67973,-0.57127,La Brède,33650,CC de Montesquieu,Gironde,https://api.v2.clean2gether.com/uploads/46_DFAEEC_3_C18_42_A3_B5_BA_778138_BFBB_43_jpg_f0e711ae11.jpg,,,,,,,,,,,,,
44.68395,-0.55936,La Brède,33650,CC de Montesquieu,Gironde,https://api.v2.clean2gether.com/uploads/37052722_8_B01_4537_AF_6_D_8_C41_C913870_B_jpg_30c365124e.jpg,,,,,,,,,,,,,
44.77116,-0.15358,Jugazan,33420,CC Castillon/Pujols,Gironde,https://api.v2.clean2gether.com/uploads/69_D3218_A_1_C65_45_F6_A48_A_EA_621099_AD_7_C_jpg_3d7db3b026.jpg,,,,,,,,,,,,,
44.76209,-0.60199,Gradignan,33170,Bordeaux Métropole,Gironde,https://api.v2.clean2gether.com/uploads/d7f7b7ce_6011_40dc_b9a5_fccb18ff6774_jpg_1401e1741c.jpg,https://api.v2.clean2gether.com/uploads/6419036e_8c75_4a9c_9b99_198d465298aa_jpg_124112a112.jpg,https://api.v2.clean2gether.com/uploads/06ade3ff_2b19_4fbc_85a3_595e6ed2664d_jpg_c58e259986.jpg,,,,,,,,,,,
46.19086,1.95094,Ajain,23380,CA du Grand Guéret,Creuse,https://api.v2.clean2gether.com/uploads/29d70dd1_a672_4c6d_a3c2_e03174d9c482_jpg_fdc3382064.jpg,,,,,,,,,,,,,
44.89216,-0.71373,Saint-Médard-en-Jalles,33160,Bordeaux Métropole,Gironde,https://api.v2.clean2gether.com/uploads/large_3470_0c788bc48f_png_1973341_a1eef79e40.5,,,,,,,,,,,,,
44.68007,-0.57225,La Brède,33650,CC de Montesquieu,Gironde,https://api.v2.clean2gether.com/uploads/F3_AF_8539_9_EAB_4361_90_D8_A57_D4_E2_A6081_jpg_da9b9c7e31.jpg,https://api.v2.clean2gether.com/uploads/33_C648_EA_5097_46_F0_9718_8745_FA_57_BAC_4_jpg_a4dfd923f3.jpg,https://api.v2.clean2gether.com/uploads/8_B4_E1780_847_F_4_AAB_B93_E_4_F771_A339_C8_F_jpg_1fc0a9a487.jpg,,,,,,,,,,,
44.68083,-0.88682,Biganos,33380,CA du Bassin d'Arcachon Nord,Gironde,https://api.v2.clean2gether.com/uploads/fc957170_0a09_4586_a532_e52fc09e0c91_jpg_9cf6e3a75d.jpg,,,,,,,,,,,,,
44.91177,-0.34987,Izon,33450,CA du Libournais,Gironde,https://api.v2.clean2gether.com/uploads/2b947457_3508_4a70_af5a_f769f580e9b4_jpg_f536c020aa.jpg,,,,,,,,,,,,,
44.8501,-0.72876,Saint-Médard-en-Jalles,33160,Bordeaux Métropole,Gironde,https://api.v2.clean2gether.com/uploads/8b53f079_64ae_4cff_bb95_0a440e87de02_jpg_f4f396f12f.jpg,,,,,,,,,,,,,
44.90706,-0.68878,Le Taillan-Médoc,33320,Bordeaux Métropole,Gironde,https://api.v2.clean2gether.com/uploads/754de5ee_9f1e_4c96_8768_e7b34af92ae9_jpg_4bf5c4e25f.jpg,,,,,,,,,,,,,
45.14089,-0.00139,La Roche-Chalais,24490,CC du Pays de Saint Aulaye,Dordogne,https://api.v2.clean2gether.com/uploads/8b846d75_35d6_4a36_bf4c_7c80dcd35b3f_jpg_24c920211a.jpg,,,,,,,,,,,,,
45.40647,0.09852,Courgeac,16190,CC Lavalette Tude Dronne,Charente,https://api.v2.clean2gether.com/uploads/b29488c7_2867_44c1_9725_26953e18d001_jpg_bc31ca19e8.jpg,,,,,,,,,,,,,
44.70137,-1.04962,Lanton,,CA du Bassin d'Arcachon Nord,Gironde,https://api.v2.clean2gether.com/uploads/51269967_FE_62_4_DC_4_9_C7_B_A7792_C65_F37_C_jpg_08468d50ae.jpg,,,,,,,,,,,,,
43.11675,-0.34638,Lys,64260,CC de la Vallée d'Ossau,Pyrénées-Atlantiques,https://api.v2.clean2gether.com/uploads/7b388765_66c2_46ea_8d07_decb6b347259_jpg_b820cdb87c.jpg,,,,,,,,,,,,,
44.90347,-0.69123,Le Taillan-Médoc,33320,Bordeaux Métropole,Gironde,https://api.v2.clean2gether.com/uploads/e2cfea58_d099_49c8_9db6_795969e14842_jpg_aaff7ef0ae.jpg,,,,,,,,,,,,,
44.7614,-0.6358,Gradignan,33170,Bordeaux Métropole,Gironde,https://api.v2.clean2gether.com/uploads/783329ee_3198_4b24_a3e6_d1fe7d602d19_jpg_90b03d2243.jpg,https://api.v2.clean2gether.com/uploads/c5ee621f_2322_4a59_affc_afca5758ce63_jpg_27fa7842d6.jpg,,,,,,,,,,,,
44.88108,-0.37288,Beychac-et-Caillau,33750,CC du Secteur de Saint-Loubès,Gironde,https://api.v2.clean2gether.com/uploads/20374ff1_65ff_4d80_bd85_84187f527161_jpg_099135d0b1.jpg,,,,,,,,,,,,,
44.94208,-0.60793,Parempuyre,33290,Bordeaux Métropole,Gironde,https://api.v2.clean2gether.com/uploads/1b8048bd_2ff7_4c67_8907_2b7de3073a99_jpg_856ccca359.jpg,,,,,,,,,,,,,
44.90044,-0.69583,Le Taillan-Médoc,33320,Bordeaux Métropole,Gironde,https://api.v2.clean2gether.com/uploads/225417a3_ac72_44e5_8808_7a9ca49a1576_jpg_69c6ee307b.jpg,,,,,,,,,,,,,
44.77353,-0.54653,Villenave-d'Ornon,33140,Bordeaux Métropole,Gironde,https://api.v2.clean2gether.com/uploads/dde16696_0074_4a22_ad0e_70098d4c6f3d_jpg_b4b647330a.jpg,,,,,,,,,,,,,
44.14083,0.76042,Saint-Romain-le-Noble,47270,CC Porte d'Aquitaine en Pays de Serres,Lot-et-Garonne,https://api.v2.clean2gether.com/uploads/0550_D000_9334_4283_9148_C014615_D27_D7_jpg_2550f13b8d.jpg,,,,,,,,,,,,,
45.70803,0.25302,Champniers,16430,CA du Grand Angoulême,Charente,https://api.v2.clean2gether.com/uploads/86442_BD_5_BA_38_40_AF_B90_A_FA_3_B19_B9458_D_jpg_0003c48b8b.jpg,,,,,,,,,,,,,
46.57784,0.35019,Poitiers,86000,CU du Grand Poitiers,Vienne,https://api.v2.clean2gether.com/uploads/828992_C8_5_A2_A_4_B7_D_BDE_8_A7_B988_EAA_8_DF_jpg_747a1f41ed.jpg,,,,,,,,,,,,,
45.16489,-0.50606,Saint-Christoly-de-Blaye,33920,CC de Blaye,Gironde,https://api.v2.clean2gether.com/uploads/4c952595_25e8_4ae6_8a16_35d357b8de3f_jpg_1fa1490272.jpg,https://api.v2.clean2gether.com/uploads/4d0b93a8_68c4_4db4_bcb3_6f8b655c1d9c_jpg_88cf2592a7.jpg,,,,,,,,,,,,
44.68954,-0.5752,La Brède,33650,CC de Montesquieu,Gironde,https://api.v2.clean2gether.com/uploads/0157f374_3b10_40c4_9a17_1928b7dc94de_jpg_2da0d7249f.jpg,,,,,,,,,,,,,
43.67206,-1.42638,Soorts-Hossegor,40150,CC Maremne Adour Côte Sud,Landes,https://api.v2.clean2gether.com/uploads/8_E949549_2_E35_460_E_A412_53_EE_46_A793_D0_jpg_d129455d7c.jpg,https://api.v2.clean2gether.com/uploads/92_B85520_A95_D_405_E_894_F_07_D819569_D61_jpg_1fa1f1c557.jpg,https://api.v2.clean2gether.com/uploads/3_C9_B96_DA_2994_4_C59_A0_FB_DB_9_F80_FF_8554_jpg_3b3822a56c.jpg,,,,,,,,,,,
44.77944,-0.63993,Gradignan,33170,Bordeaux Métropole,Gironde,https://api.v2.clean2gether.com/uploads/66645026_923b_46ab_87a7_f70b7a670e42_jpg_0b81d33e2f.jpg,https://api.v2.clean2gether.com/uploads/7136005b_5e18_43c2_be67_45c02221f92b_jpg_131833d4c0.jpg,https://api.v2.clean2gether.com/uploads/37304aa5_d115_41fd_adb6_909596493543_jpg_334da61b9d.jpg,https://api.v2.clean2gether.com/uploads/75d71587_fa8e_4b64_8d06_ee9d850a3e4f_jpg_8948354810.jpg,,,,,,,,,,
45.64492,0.12267,Angoulême,16000,CA du Grand Angoulême,Charente,https://api.v2.clean2gether.com/uploads/217201ce_aec2_4e3b_af91_7de6f07f25f1_jpg_f450823add.jpg,,,,,,,,,,,,,
44.93418,-0.71345,Saint-Aubin-de-Médoc,33160,Bordeaux Métropole,Gironde,https://api.v2.clean2gether.com/uploads/8809_DDB_8_648_D_4793_885_C_F8_C73_C3_C5942_jpg_3675865971.jpg,,,,,,,,,,,,,
44.86423,0.50881,Bergerac,24100,CA Bergeracoise,Dordogne,https://api.v2.clean2gether.com/uploads/1d84d314_b780_4064_8edc_d99fc7138cb5_jpg_60f8d84d85.jpg,,,,,,,,,,,,,
44.78051,-0.4991,Latresne,33360,CC des Portes de l'Entre-Deux-Mers,Gironde,https://api.v2.clean2gether.com/uploads/1_CAF_2_A53_F190_4751_BD_2_C_EDF_2_A73_B27_C4_jpg_912b9db1e6.jpg,,,,,,,,,,,,,
44.8007,-0.77631,Saint-Jean-d'Illac,33127,CC Jalle-Eau-Bourde,Gironde,https://api.v2.clean2gether.com/uploads/B840_DB_72_988_C_468_F_85_E4_4_DCCAD_8_CA_146_jpg_b1209adb41.jpg,https://api.v2.clean2gether.com/uploads/F0_CACDE_6_C3_A5_4722_8911_4_AB_9_D76_A96_BD_jpg_010138dc77.jpg,https://api.v2.clean2gether.com/uploads/0_A5_C5_C28_AB_42_4_E1_A_AE_0_E_3_C6_C6_E2968_C7_jpg_0eaf0b7673.jpg,https://api.v2.clean2gether.com/uploads/836_E843_D_C184_42_DA_A9_D4_EA_9895_EBE_7_D0_jpg_00ec876da1.jpg,https://api.v2.clean2gether.com/uploads/779447_B5_F349_4_D29_992_F_2_E24063_A410_D_jpg_3e613ee9cf.jpg,,,,,,,,,
44.28209,0.76038,Laroque-Timbaut,47340,CA du Grand Villeneuvois,Lot-et-Garonne,https://api.v2.clean2gether.com/uploads/BB_7102_D6_CEB_7_4_C4_E_9781_CFA_7_C894_D0_F9_jpg_74e27a6526.jpg,,,,,,,,,,,,,
46.55746,-0.59736,Le Busseau,79240,CC Val de Gâtine,Deux-Sèvres,https://api.v2.clean2gether.com/uploads/4f6ea7e0_4cbf_4ab0_9dc8_317a221eb1cd_jpg_20f035e79c.jpg,,,,,,,,,,,,,
46.87146,0.33496,Orches,86230,CA Grand Châtellerault,Vienne,https://api.v2.clean2gether.com/uploads/236ee40a_e209_44dd_a0d3_eafd13f24525_jpg_1ca632b1b7.jpg,,,,,,,,,,,,,
44.77921,-0.47162,Cénac,33360,CC des Portes de l'Entre-Deux-Mers,Gironde,https://api.v2.clean2gether.com/uploads/509f08b3_19cb_45fa_bcaa_53462bb2ee44_jpg_8ce0c31dfb.jpg,,,,,,,,,,,,,
44.28241,0.75926,Laroque-Timbaut,47340,CA du Grand Villeneuvois,Lot-et-Garonne,https://api.v2.clean2gether.com/uploads/02771134_54_F1_4503_A2_AC_BEACCB_2_B2332_jpg_c9c996afd0.jpg,,,,,,,,,,,,,
46.87491,0.33844,Orches,86230,CA Grand Châtellerault,Vienne,https://api.v2.clean2gether.com/uploads/e8eef9bd_8bd0_446f_8124_791b5e29fbea_jpg_cf266b5d90.jpg,,,,,,,,,,,,,
45.10424,-0.36373,Laruscade,33620,CC Latitude Nord Gironde,Gironde,https://api.v2.clean2gether.com/uploads/b482385c_2faa_4267_af6f_3f0c590b4a86_jpg_776d55fbb4.jpg,,,,,,,,,,,,,
44.61353,-0.52635,Cabanac-et-Villagrains,33650,CC de Montesquieu,Gironde,https://api.v2.clean2gether.com/uploads/e89362d9_03f1_41b8_8a82_146de3773c6f_jpg_ce174a6251.jpg,https://api.v2.clean2gether.com/uploads/07d82de6_548c_42a5_a392_fef504d02779_jpg_83c1af124b.jpg,https://api.v2.clean2gether.com/uploads/09d52626_9163_4f21_953a_2988227f1092_jpg_71da1cda3a.jpg,https://api.v2.clean2gether.com/uploads/ae9b8155_b710_42eb_821f_cf4e2f65f619_jpg_822e0d11b0.jpg,,,,,,,,,,
44.17625,0.62323,Boé,47550,CA d'Agen,Lot-et-Garonne,https://api.v2.clean2gether.com/uploads/453d0771_a983_43aa_98f0_34097e671ab0_jpg_cb8f3d1f8b.jpg,,,,,,,,,,,,,
44.88571,-0.66715,Eysines,33320,Bordeaux Métropole,Gironde,https://api.v2.clean2gether.com/uploads/b9a1788a_9605_4e1b_9909_62790577b3c2_jpg_bb1de09cea.jpg,,,,,,,,,,,,,
44.79494,-0.61072,Pessac,33600,Bordeaux Métropole,Gironde,https://api.v2.clean2gether.com/uploads/cf1df898_0d37_4ae4_bbec_9eacf736b1e6_jpg_cde3fe4597.jpg,https://api.v2.clean2gether.com/uploads/88ce8875_7e69_4df4_9695_fa0090625d5b_jpg_b7827e7d79.jpg,https://api.v2.clean2gether.com/uploads/c54b071b_f898_4311_a491_72e8c0601a92_jpg_0307de7e79.jpg,https://api.v2.clean2gether.com/uploads/ee0f7bc3_2c2b_42ca_88ae_7f6618fd11c1_jpg_d4044d14d5.jpg,,,,,,,,,,
44.92948,-0.45543,Saint-Loubès,33450,CC du Secteur de Saint-Loubès,Gironde,https://api.v2.clean2gether.com/uploads/450a84fb_6c01_426e_8ed8_f2292e36b6db_jpg_1408f2fe43.jpg,,,,,,,,,,,,,
44.9284,-0.45336,Saint-Loubès,33450,CC du Secteur de Saint-Loubès,Gironde,https://api.v2.clean2gether.com/uploads/3b2a1642_df4c_4c50_8fa0_be1049578184_jpg_ff37b9e3ea.jpg,,,,,,,,,,,,,
44.73393,-0.5138,Cadaujac,33140,CC de Montesquieu,Gironde,https://api.v2.clean2gether.com/uploads/E7688_EAE_094_E_42_E8_85_D8_0_EC_52_A216_DB_2_jpg_f31ba35f4e.jpg,,,,,,,,,,,,,
44.94731,-0.23973,Libourne,33500,CA du Libournais,Gironde,https://api.v2.clean2gether.com/uploads/65dca55f_ff98_4b27_8ef9_8dd6cca92fac_jpg_b7e384a1b7.jpg,,,,,,,,,,,,,
44.94914,-0.24105,Libourne,33500,CA du Libournais,Gironde,https://api.v2.clean2gether.com/uploads/794f5c91_6a67_4a26_9e5b_bd9e10ca871a_jpg_1e2cb65196.jpg,https://api.v2.clean2gether.com/uploads/7ffcf46c_4892_4043_ba5a_cddd5af3e517_jpg_2f6f54bdf9.jpg,,,,,,,,,,,,
44.79476,-0.68317,Pessac,33600,Bordeaux Métropole,Gironde,https://api.v2.clean2gether.com/uploads/ebacc8da_4e13_47fe_b0a1_56a7e1258631_jpg_2e6b4b77f5.jpg,,,,,,,,,,,,,
44.88636,-0.50831,Lormont,33310,Bordeaux Métropole,Gironde,https://api.v2.clean2gether.com/uploads/8708_AD_30_E47_E_4_C82_AC_12_CEF_6830410_D5_jpg_b27df27e1c.jpg,,,,,,,,,,,,,
44.88172,-0.48927,Yvrac,33370,CC du Secteur de Saint-Loubès,Gironde,https://api.v2.clean2gether.com/uploads/5d55a637_359d_4cb7_a6c1_d3442454f818_jpg_6e89a4ab36.jpg,,,,,,,,,,,,,
44.77882,-0.49622,Latresne,33360,CC des Portes de l'Entre-Deux-Mers,Gironde,https://api.v2.clean2gether.com/uploads/47_EEE_217_C383_49_AE_B176_951_ABC_09_C304_jpg_d27a053bd1.jpg,,,,,,,,,,,,,
44.89263,-0.45743,Yvrac,33370,CC du Secteur de Saint-Loubès,Gironde,https://api.v2.clean2gether.com/uploads/38e70c9a_bf86_44cd_8146_e641378a8d23_jpg_0d9f088a0c.jpg,,,,,,,,,,,,,
44.89256,-0.47538,Sainte-Eulalie,33560,CC du Secteur de Saint-Loubès,Gironde,https://api.v2.clean2gether.com/uploads/74dca8b8_9d54_4901_9097_d70627c0bbe9_jpg_89f9269f1e.jpg,,,,,,,,,,,,,
44.88739,-0.45968,Yvrac,33370,CC du Secteur de Saint-Loubès,Gironde,https://api.v2.clean2gether.com/uploads/bff997a2_6770_430b_993c_5f89556da34b_jpg_57a9c8327c.jpg,,,,,,,,,,,,,
46.93893,0.63167,Les Ormes,86220,CA Grand Châtellerault,Vienne,https://api.v2.clean2gether.com/uploads/25a008e5_7373_4fd0_ad31_565a1c1cbecd_jpg_577397cf7a.jpg,,,,,,,,,,,,,
44.78356,-0.5403,Villenave-d'Ornon,33140,Bordeaux Métropole,Gironde,https://api.v2.clean2gether.com/uploads/d9e81b33_39b0_4585_9ac0_648fce5dd04d_jpg_e0d29b105b.jpg,https://api.v2.clean2gether.com/uploads/01227880_dfd3_413d_aadb_1e52850e4f1d_jpg_9274e17927.jpg,https://api.v2.clean2gether.com/uploads/bbc458ae_636e_46af_85cc_0961a674ee5e_jpg_8710e11c36.jpg,https://api.v2.clean2gether.com/uploads/68591673_5b5d_4d81_8141_2fbf2405a0be_jpg_b547c785b7.jpg,,,,,,,,,,
44.82229,-0.24181,Tizac-de-Curton,33420,CA du Libournais,Gironde,https://api.v2.clean2gether.com/uploads/12fe8a56_7f06_4643_a058_0077e1cc52d4_jpg_ded920b1d3.jpg,,,,,,,,,,,,,
44.8151,-0.32971,Baron,33750,CC du Créonnais,Gironde,https://api.v2.clean2gether.com/uploads/03_B4244_D_A2_BB_4236_9_C5_B_74_F09154372_A_jpg_6f8fce6ac4.jpg,https://api.v2.clean2gether.com/uploads/E3506_C85_D7_EC_49_C1_BDCA_098_BEB_8_FC_50_D_jpg_7204dc43ff.jpg,https://api.v2.clean2gether.com/uploads/43443_A5_D_AE_17_49_A6_90_BE_9_C8879_E2_A877_jpg_52a186e27c.jpg,https://api.v2.clean2gether.com/uploads/CD_75_ECC_1_1072_43_D0_9_EDF_FADF_5259_E82_B_jpg_4e1d27496c.jpg,,,,,,,,,,
42.92691,-0.65175,Lescun,64490,CC du Haut Béarn,Pyrénées-Atlantiques,https://api.v2.clean2gether.com/uploads/f2313815_9b3f_41ab_bc8c_8d88adf7b813_jpg_8dc0582a1e.jpg,https://api.v2.clean2gether.com/uploads/082f96c7_b2c8_4d57_bf05_daee0eb38f0a_jpg_25aeef720e.jpg,,,,,,,,,,,,
44.78609,-0.55999,Bègles,33130,Bordeaux Métropole,Gironde,https://api.v2.clean2gether.com/uploads/1be9f7a6_3e6d_4e33_b12d_1741c6a33789_jpg_923a550582.jpg,,,,,,,,,,,,,
44.88838,-0.58376,Bruges,33520,Bordeaux Métropole,Gironde,https://api.v2.clean2gether.com/uploads/101_EACC_2_9320_49_C4_A4_DB_660768_B562_CC_jpg_3b6e998f25.jpg,https://api.v2.clean2gether.com/uploads/E4895501_714_B_44_AB_88_E7_F13_E7_D837_AE_3_jpg_2c9db28e0a.jpg,https://api.v2.clean2gether.com/uploads/5_EE_4227_B_96_D5_49_F4_B421_016_F1733_E401_jpg_69ed6e6204.jpg,https://api.v2.clean2gether.com/uploads/5_E229_DAF_DDA_2_4890_AEB_1_EE_91278_CD_160_jpg_990b8b69bd.jpg,https://api.v2.clean2gether.com/uploads/2_CFCD_1_FE_A9_F3_4_B59_828_F_5_DB_21_D3_EA_608_jpg_04827cf529.jpg,,,,,,,,,
44.86841,-0.50266,Artigues-près-Bordeaux,33370,Bordeaux Métropole,Gironde,https://api.v2.clean2gether.com/uploads/edcbf161_334a_407f_90b3_3b240a690fa1_jpg_9238754133.jpg,https://api.v2.clean2gether.com/uploads/4c30175b_c210_470f_96e6_b09c043b5874_jpg_ed3bd7b1cb.jpg,,,,,,,,,,,,
44.79524,-0.5958,Talence,33400,Bordeaux Métropole,Gironde,https://api.v2.clean2gether.com/uploads/2277_AA_07_3_E6_B_43_FC_A21_E_23_D31_CE_89_A43_jpg_8b1de4c3ae.jpg,https://api.v2.clean2gether.com/uploads/6_F74_ACBA_53_F4_47_C2_B77_D_41_D196_C1_D453_jpg_1312df8a66.jpg,https://api.v2.clean2gether.com/uploads/D6_A02_A66_381_C_4005_83_BB_E22647_F6_CDF_0_jpg_1b05f33a25.jpg,,,,,,,,,,,
44.18947,0.47801,Montagnac-sur-Auvignon,47600,CC Albret Communauté,Lot-et-Garonne,https://api.v2.clean2gether.com/uploads/589_C74_DE_CB_81_4_C69_BAE_3_387_AA_99111_CB_jpg_27d3caac58.jpg,https://api.v2.clean2gether.com/uploads/3_AC_28509_BAE_3_44_DB_B637_B14746538_E49_jpg_ea323cc309.jpg,,,,,,,,,,,,
44.76013,-0.16772,Lugasson,33760,CC rurales de l'Entre-Deux-Mers,Gironde,https://api.v2.clean2gether.com/uploads/52_B95_FB_6_E639_4_FAE_8_FFF_EA_93_BDFBF_366_jpg_93d20b6ce2.jpg,,,,,,,,,,,,,
44.7616,-0.36188,Saint-Genès-de-Lombaud,33670,CC du Créonnais,Gironde,https://api.v2.clean2gether.com/uploads/D0960_E7_B_8_A06_4_C75_AF_61_62_B2_A7_B3_E348_jpg_bdf91ed538.jpg,,,,,,,,,,,,,
44.75894,-0.35164,Créon,33670,CC du Créonnais,Gironde,https://api.v2.clean2gether.com/uploads/8_DD_29_A9_A_347_D_4237_8_F0_B_CB_06_DD_2_D6_B9_C_jpg_4cc05acec5.jpg,,,,,,,,,,,,,
44.76284,-0.35908,Saint-Genès-de-Lombaud,33670,CC du Créonnais,Gironde,https://api.v2.clean2gether.com/uploads/0638_E809_B1_F5_4312_8_EA_2_9_CB_0_CD_38_BBCB_jpg_7c033c2f04.jpg,,,,,,,,,,,,,
44.76305,-0.36001,Saint-Genès-de-Lombaud,33670,CC du Créonnais,Gironde,https://api.v2.clean2gether.com/uploads/C8_EFEF_8_E_0080_4047_94_BC_D17_ABFA_0_ED_85_jpg_530321f843.jpg,,,,,,,,,,,,,
44.79832,-0.51404,Latresne,33360,CC des Portes de l'Entre-Deux-Mers,Gironde,https://api.v2.clean2gether.com/uploads/143_E383_E_F811_4_B59_B092_049_FD_86_F8298_jpg_6df4c9c2fa.jpg,,,,,,,,,,,,,
43.65611,-1.43629,Soorts-Hossegor,40150,CC Maremne Adour Côte Sud,Landes,https://api.v2.clean2gether.com/uploads/26_D2_A423_C887_462_C_A43_B_4253_EE_3295_E5_jpg_b646d136df.jpg,,,,,,,,,,,,,
44.1679,0.65451,Boé,47550,CA d'Agen,Lot-et-Garonne,https://api.v2.clean2gether.com/uploads/d0000bcb_e114_449b_a803_165e45fb15fb_jpg_18c57dfd46.jpg,,,,,,,,,,,,,
44.89197,-0.54146,Bordeaux,33300,Bordeaux Métropole,Gironde,https://api.v2.clean2gether.com/uploads/0a879edc_11b5_440f_bd0e_391ad981ca9d_jpg_0a4ebd588c.jpg,,,,,,,,,,,,,
44.51281,-0.75045,Belin-Béliet,33830,CC du Val de l'Eyre,Gironde,https://api.v2.clean2gether.com/uploads/A656_F3_F1_FFEC_4_B3_F_9_AD_4_520018_B806_A0_jpg_c6715404cf.jpg,,,,,,,,,,,,,
44.70295,0.35952,Sainte-Eulalie-d'Eymet,24500,CC de Portes Sud Périgord,Dordogne,https://api.v2.clean2gether.com/uploads/61884515_A132_4874_84_F6_E1_B05_B66_F5_B4_jpg_7df934d086.jpg,,,,,,,,,,,,,
44.90397,-0.3178,Vayres,33870,CA du Libournais,Gironde,https://api.v2.clean2gether.com/uploads/1_A413628_B318_4098_B74_F_97_B9_FA_941_EB_7_jpg_0f37e0c64d.jpg,,,,,,,,,,,,,
44.77812,-0.5595,Villenave-d'Ornon,33140,Bordeaux Métropole,Gironde,https://api.v2.clean2gether.com/uploads/d9cf759f_68bf_4b29_9e22_a87bddbcee05_jpg_485a5e75d2.jpg,https://api.v2.clean2gether.com/uploads/a25b70b9_78b9_4165_b46c_cf95d3d1531d_jpg_f4b1f4e7b6.jpg,https://api.v2.clean2gether.com/uploads/d37867ef_9bb9_4449_8c8c_02fd64f5faef_jpg_80fe2447b3.jpg,,,,,,,,,,,
44.77895,-0.55893,Villenave-d'Ornon,33140,Bordeaux Métropole,Gironde,https://api.v2.clean2gether.com/uploads/08dd4171_8b48_4bc9_a7fe_85f85d17d138_jpg_6af47ff6e6.jpg,https://api.v2.clean2gether.com/uploads/55d54b1b_72eb_4164_869e_bcaf32f14696_jpg_79cba87ffe.jpg,https://api.v2.clean2gether.com/uploads/9c2c40f9_9991_4f1c_8b94_443f0c645877_jpg_aba9d4756b.jpg,https://api.v2.clean2gether.com/uploads/4857f0aa_55e8_4e30_b8d6_4304d01d3a30_jpg_398b236a61.jpg,https://api.v2.clean2gether.com/uploads/6cb5b0f1_a58d_41f8_9d84_cbba849a6827_jpg_239c0dafe6.jpg,https://api.v2.clean2gether.com/uploads/ea20de3c_0c3f_4ec6_bcd9_483bcd6c6ce3_jpg_fc7757b0f3.jpg,https://api.v2.clean2gether.com/uploads/b72b84c4_61c9_40df_8710_d8be8b43cc40_jpg_104e42a5d6.jpg,https://api.v2.clean2gether.com/uploads/1d2e06bd_d0db_4a30_b88e_e705c570dc56_jpg_3b1fe2ac5a.jpg,,,,,,
44.88134,-0.01783,Belvès-de-Castillon,33350,CC du Grand Saint Emilionnais,Gironde,https://api.v2.clean2gether.com/uploads/8_FEE_6785_41_DA_4_BEC_AB_73_91_F06_B086_EB_8_jpg_59e2a8ca77.jpg,,,,,,,,,,,,,
46.29932,-1.10785,Charron,17230,CC Aunis Atlantique,Charente-Maritime,https://api.v2.clean2gether.com/uploads/C99_C14_EA_9_C5_A_40_C9_8035_177_E46_DFBA_1_B_jpg_b700c890d7.jpg,,,,,,,,,,,,,
44.91108,-0.35137,Izon,33450,CA du Libournais,Gironde,https://api.v2.clean2gether.com/uploads/99aa0325_79ac_4fdb_9220_5c2c29b26c0c_jpg_606bf4a51a.jpg,https://api.v2.clean2gether.com/uploads/2d5e633f_0f35_4d4a_b95a_2fd4359049f8_jpg_3d8afeb3db.jpg,,,,,,,,,,,,
44.32624,-1.14376,Gastes,40160,CC des Grands Lacs,Landes,https://api.v2.clean2gether.com/uploads/94cc5425_b3dd_4f74_8714_7f0bb1b35a32_jpg_f30b9bc5f7.jpg,,,,,,,,,,,,,
44.95581,-0.25147,Les Billaux,33500,CA du Libournais,Gironde,https://api.v2.clean2gether.com/uploads/72833693_1d30_4e94_aec5_01ec913ce8c9_jpg_d77a33bbc4.jpg,,,,,,,,,,,,,
45.21327,-0.33575,Bussac-Forêt,17210,CC de la Haute Saintonge,Charente-Maritime,https://api.v2.clean2gether.com/uploads/C4_D5_EEAA_407_C_4511_851_D_D67_A102_CD_6_F8_jpg_4e0471e383.jpg,,,,,,,,,,,,,
45.0076,-0.14523,Abzac,33230,CA du Libournais,Gironde,https://api.v2.clean2gether.com/uploads/3d258e33_5a66_4215_8c11_3e803e94c960_jpg_5c35b4ae00.jpg,,,,,,,,,,,,,
44.78032,-0.65165,Pessac,33600,Bordeaux Métropole,Gironde,https://api.v2.clean2gether.com/uploads/a2746096_08a2_46e5_897c_3e21255e4093_jpg_232721f57b.jpg,,,,,,,,,,,,,
45.02495,-0.1294,Coutras,33230,CA du Libournais,Gironde,https://api.v2.clean2gether.com/uploads/bee3ef32_1416_4117_9014_c6e73480d9b4_jpg_91244f575c.jpg,,,,,,,,,,,,,
45.84199,-0.70593,Crazannes,17350,CC Charente-Arnoult-Coeur de Saintonge,Charente-Maritime,https://api.v2.clean2gether.com/uploads/A2_A22_A27_32_E7_476_F_A4_BC_B8_CD_1899629_B_jpg_5464c302b3.jpg,https://api.v2.clean2gether.com/uploads/654_D92_B5_69_E4_44_A1_A63_F_04_C35_E43_D4_D5_jpg_5fd2e642fc.jpg,https://api.v2.clean2gether.com/uploads/0_AD_5_A7_E0_4_E70_4_F86_995_C_EE_2086_FEFF_45_jpg_2616979196.jpg,https://api.v2.clean2gether.com/uploads/5_B88304_C_8257_4189_8148_28_F668_A74_AD_8_jpg_c34eca6030.jpg,https://api.v2.clean2gether.com/uploads/7_C989323_9_F87_4_C34_BF_0_F_B4_A1475_E2_E91_jpg_03b0d196c8.jpg,,,,,,,,,
44.89777,-0.24141,Libourne,33500,CA du Libournais,Gironde,https://api.v2.clean2gether.com/uploads/f70657e6_c685_4ba9_ba8f_aaf98fdbe407_jpg_95e53b5d3f.jpg,,,,,,,,,,,,,
44.48821,0.29244,Birac-sur-Trec,47200,CA Val de Garonne Agglomération,Lot-et-Garonne,https://api.v2.clean2gether.com/uploads/5f20aec8_7ea1_4e12_9f36_f81e725ea432_jpg_55989a6567.jpg,https://api.v2.clean2gether.com/uploads/cc0a03d3_6319_4665_a322_ec1889b08fc7_jpg_c96144a501.jpg,,,,,,,,,,,,
44.77679,-0.79543,Saint-Jean-d'Illac,33127,CC Jalle-Eau-Bourde,Gironde,https://api.v2.clean2gether.com/uploads/4804e48f_c476_4e3b_b832_ec87a5049343_jpg_15172c40de.jpg,https://api.v2.clean2gether.com/uploads/ca48fe38_d80e_44d5_8976_82cc3eb1bb50_jpg_2a8ba764ce.jpg,,,,,,,,,,,,
44.43573,0.7089,Villeneuve-sur-Lot,47300,CA du Grand Villeneuvois,Lot-et-Garonne,https://api.v2.clean2gether.com/uploads/d826369f_6910_4f09_b8e7_2beed2a4d07c_jpg_e78ca5f78e.jpg,,,,,,,,,,,,,
44.80064,-0.70858,Pessac,33600,Bordeaux Métropole,Gironde,https://api.v2.clean2gether.com/uploads/D2328_B54_941_E_45_AA_A94_E_AAA_97937_D369_jpg_edaab65324.jpg,,,,,,,,,,,,,
44.80064,-0.70858,Pessac,33600,Bordeaux Métropole,Gironde,https://api.v2.clean2gether.com/uploads/921_CBF_52_E071_4_C90_9_DF_5_5_D18_C0_C019_C0_jpg_e7911ea6ad.jpg,https://api.v2.clean2gether.com/uploads/B09_B5325_B828_49_E5_9_C62_05_A4_ABB_1_EC_95_jpg_9e8936eb26.jpg,https://api.v2.clean2gether.com/uploads/F57_B4547_6080_40_F3_8_F07_EA_54_B72_D847_D_jpg_0fb63cbbf7.jpg,,,,,,,,,,,
44.92778,-0.52851,Ambarès-et-Lagrave,33440,Bordeaux Métropole,Gironde,https://api.v2.clean2gether.com/uploads/ffc79a24_9ae9_4f00_b9c3_ab2ac1d4f901_jpg_9a05aa9b0c.jpg,,,,,,,,,,,,,
44.79474,-0.55504,Bègles,33130,Bordeaux Métropole,Gironde,https://api.v2.clean2gether.com/uploads/AAFD_8_E5_F_4_DEC_46_B2_8772_694866_BA_39_A0_jpg_e0594de22d.jpg,https://api.v2.clean2gether.com/uploads/3_F16_D90_E_6_E2_F_414_E_A7_FD_99226_A258_F82_jpg_bd56bf7e15.jpg,,,,,,,,,,,,
44.84675,-0.59448,Bordeaux,33000,Bordeaux Métropole,Gironde,https://api.v2.clean2gether.com/uploads/118_E45_AA_EE_15_44_F3_AE_73_0_CA_93_BDBA_2_DE_jpg_57ec67e9b8.jpg,,,,,,,,,,,,,
44.86073,-0.50232,Artigues-près-Bordeaux,33370,Bordeaux Métropole,Gironde,https://api.v2.clean2gether.com/uploads/403de656_90fd_4cc5_bee1_daed98918983_jpg_a13ec2f79d.jpg,,,,,,,,,,,,,
44.86074,-0.50227,Artigues-près-Bordeaux,33370,Bordeaux Métropole,Gironde,https://api.v2.clean2gether.com/uploads/ce4e11a6_b212_4250_b2f4_df26e7d5d7e8_jpg_e28c7bc8a1.jpg,,,,,,,,,,,,,
44.79125,-0.53198,Bègles,33130,Bordeaux Métropole,Gironde,https://api.v2.clean2gether.com/uploads/5c9fdb8d_e4a3_4183_8faf_1ff31807988d_jpg_9bcc20064a.jpg,,,,,,,,,,,,,
44.9351,-0.62051,Blanquefort,33290,Bordeaux Métropole,Gironde,https://api.v2.clean2gether.com/uploads/7fca333f_0888_4f2a_b5ec_7ce48a9aef14_jpg_fffae4ec5a.jpg,,,,,,,,,,,,,
44.19492,0.54431,Sainte-Colombe-en-Bruilhois,47310,CA d'Agen,Lot-et-Garonne,https://api.v2.clean2gether.com/uploads/4f8740dd_fb7d_40bb_8753_7a4de73001c9_jpg_6ed448443f.jpg,,,,,,,,,,,,,
44.3111,0.71918,Monbalen,47340,CA du Grand Villeneuvois,Lot-et-Garonne,https://api.v2.clean2gether.com/uploads/3baa36a8_f5b2_4e53_8360_486de0852a40_jpg_3f1029801c.jpg,,,,,,,,,,,,,
45.02387,-0.68998,Cantenac,33460,CC Médoc Estuaire,Gironde,https://api.v2.clean2gether.com/uploads/3cac3966_2ac0_406e_b872_c6725e40d40d_jpg_21f5f39ecf.jpg,https://api.v2.clean2gether.com/uploads/087eed7b_2197_41d0_a315_63d486978a5d_jpg_a0e057db93.jpg,,,,,,,,,,,,
44.78872,-0.52732,Villenave-d'Ornon,33140,Bordeaux Métropole,Gironde,https://api.v2.clean2gether.com/uploads/66760fdd_3920_4ee3_b250_49900677651b_jpg_d5f5d718d8.jpg,https://api.v2.clean2gether.com/uploads/b0e3e4cf_19a9_461a_a78e_acec04eeef4d_jpg_7de1441519.jpg,https://api.v2.clean2gether.com/uploads/81e3c78b_5b5b_4601_b762_29a49b5c70f0_jpg_6b52e77528.jpg,,,,,,,,,,,
44.80476,-0.75966,Saint-Jean-d'Illac,33127,CC Jalle-Eau-Bourde,Gironde,https://api.v2.clean2gether.com/uploads/f0ea9120_a46a_426b_b811_21650d9e3d37_jpg_578fc4e0c7.jpg,,,,,,,,,,,,,
44.6259,-1.01497,Le Teich,33470,CA Bassin d'Arcachon Sud-Pôle Atlantique (COBAS),Gironde,https://api.v2.clean2gether.com/uploads/730e60a1_204e_433b_a2d8_2e7749ecb697_jpg_6235052dc4.jpg,,,,,,,,,,,,,
44.97983,-0.34572,Vérac,33240,CC du Fronsadais,Gironde,https://api.v2.clean2gether.com/uploads/0d09926c_e6c8_4df3_90f9_9789930e4da9_jpg_bb5f75f57b.jpg,,,,,,,,,,,,,
45.79378,-0.56353,Vénérand,17100,CA de Saintes,Charente-Maritime,https://api.v2.clean2gether.com/uploads/47_A5_AC_2_D_41_EA_45_D5_ABB_7_4_BC_8_E4_DABE_20_jpg_91cf73b7b3.jpg,,,,,,,,,,,,,
44.88713,-0.55736,Bordeaux,33300,Bordeaux Métropole,Gironde,https://api.v2.clean2gether.com/uploads/4_D1_EF_589_6_B81_415_A_8_D1_C_79_E0_FED_8_D0_D0_jpg_20652d6fcb.jpg,,,,,,,,,,,,,
44.80097,-0.77345,Saint-Jean-d'Illac,33127,CC Jalle-Eau-Bourde,Gironde,https://api.v2.clean2gether.com/uploads/1fac9798_29ed_4924_9a02_730fec33a3ba_jpg_57b278e453.jpg,,,,,,,,,,,,,
44.89028,-0.55748,Bordeaux,33300,Bordeaux Métropole,Gironde,https://api.v2.clean2gether.com/uploads/B6_B582_E9_4_F21_4_FF_9_BFB_3_FD_2439_CC_9_E7_B_jpg_01066c63ed.jpg,https://api.v2.clean2gether.com/uploads/001652_CA_B223_4363_9_C16_E05_F71_EEF_27_C_jpg_24286b5c4c.jpg,https://api.v2.clean2gether.com/uploads/3_A131_B90_0538_4_C1_B_A4_A8_5_E07_E7_A4692_E_jpg_394a301758.jpg,,,,,,,,,,,
46.30047,-1.09111,Charron,17230,CC Aunis Atlantique,Charente-Maritime,https://api.v2.clean2gether.com/uploads/A42_D560_A_F177_4_D10_B3_A6_F9621_B15261_D_jpg_dcafa056ec.jpg,https://api.v2.clean2gether.com/uploads/85344_A02_633_E_4_B70_95_B8_DF_95710_CEC_4_B_jpg_addf8e406a.jpg,,,,,,,,,,,,
46.3034,-1.08803,Charron,17230,CC Aunis Atlantique,Charente-Maritime,https://api.v2.clean2gether.com/uploads/0334005_E_AE_40_4238_B571_D93_AF_13_E39_AF_jpg_6d6ed6791c.jpg,,,,,,,,,,,,,
46.30608,-1.08718,Charron,17230,CC Aunis Atlantique,Charente-Maritime,https://api.v2.clean2gether.com/uploads/2_D784_C83_40_BC_4382_9189_348849_E4_BEF_0_jpg_2cfeaaa669.jpg,https://api.v2.clean2gether.com/uploads/A7159_DC_4_A27_D_421_F_892_E_57_D1_DC_930_D89_jpg_364c3cde59.jpg,https://api.v2.clean2gether.com/uploads/CFFF_75_B3_C980_4_D8_F_85_C6_11_CFC_4618570_jpg_2bbd11d444.jpg,,,,,,,,,,,
46.31126,-1.1022,Charron,17230,CC Aunis Atlantique,Charente-Maritime,https://api.v2.clean2gether.com/uploads/3_A5_F94_B6_DB_6_C_4_A68_862_C_1993_FB_199_CEC_jpg_2a3bdaa1b3.jpg,,,,,,,,,,,,,
46.3017,-1.09299,Charron,17230,CC Aunis Atlantique,Charente-Maritime,https://api.v2.clean2gether.com/uploads/3_C6478_C2_60_EB_4769_9_F5_E_74_A1_DB_499841_jpg_0d7db43d30.jpg,,,,,,,,,,,,,
46.30073,-1.0911,Charron,17230,CC Aunis Atlantique,Charente-Maritime,https://api.v2.clean2gether.com/uploads/85_E23320_3_B1_B_47_A8_B677_91_AABE_3_F4044_jpg_01d12ae33a.jpg,,,,,,,,,,,,,
44.97059,-0.24908,Les Billaux,33500,CA du Libournais,Gironde,https://api.v2.clean2gether.com/uploads/20190627_112910_jpg_8a36495bca.jpg,,,,,,,,,,,,,
44.74257,-0.51518,Cadaujac,33140,CC de Montesquieu,Gironde,https://api.v2.clean2gether.com/uploads/image_1eaed35f_0688_4bf2_bb77_9b63ab7012522840568873091399431_jpg_0d5f0bb4ee.jpg,,,,,,,,,,,,,
44.74324,-0.52256,Cadaujac,33140,CC de Montesquieu,Gironde,https://api.v2.clean2gether.com/uploads/image_d03461ee_2da7_4ca5_9c7f_efba72fbd30f3612053568032528812_jpg_b964dddd60.jpg,,,,,,,,,,,,,
44.83312,-0.54982,Bordeaux,33100,Bordeaux Métropole,Gironde,https://api.v2.clean2gether.com/uploads/C82146_BD_8_CBD_4234_A992_56_C725_C7_F7_FB_jpg_b0f26ecfe4.jpg,,,,,,,,,,,,,
44.9647,-0.25477,Les Billaux,33500,CA du Libournais,Gironde,https://api.v2.clean2gether.com/uploads/image_c18a483e_f59d_4603_9e1b_4dbd835aa4d8721873816_jpg_ce7449a45e.jpg,,,,,,,,,,,,,
44.93698,-0.61799,Blanquefort,33290,Bordeaux Métropole,Gironde,https://api.v2.clean2gether.com/uploads/71_DBA_7_D4_BB_83_4_EEC_9_D7_D_FB_84_CE_0671_EE_jpg_ee5af0f7c4.jpg,https://api.v2.clean2gether.com/uploads/54692_D7_E_F0_F4_41_C9_B3_BB_2055_FD_5732_BA_jpg_2b2ef8c0ac.jpg,https://api.v2.clean2gether.com/uploads/B20_CC_819_E51_C_49_A9_9_DF_7_9_C06512_F41_CD_jpg_70530a9074.jpg,https://api.v2.clean2gether.com/uploads/1_ADA_2648_215_C_45_FA_92_FE_E9_B79212_BF_36_jpg_17afe31809.jpg,https://api.v2.clean2gether.com/uploads/AA_2305_C7_B92_D_485_B_878_B_8830_FFF_3864_E_jpg_0cf87416ae.jpg,,,,,,,,,
44.938,-0.6239,Blanquefort,33290,Bordeaux Métropole,Gironde,https://api.v2.clean2gether.com/uploads/68_A0_F31_E_B54_A_4372_BCFF_8_B8_B4_F2_E9_B8_C_jpg_a76347c18a.jpg,https://api.v2.clean2gether.com/uploads/32_D7_AE_7_D_8226_4_A76_A9_ED_46_EB_44_B0_EEBA_jpg_931a4a4079.jpg,https://api.v2.clean2gether.com/uploads/484_BA_31_C_E317_4_CD_7_83_A8_D4_F08_F4_D0_B87_jpg_4c2f8bbd62.jpg,,,,,,,,,,,
44.89445,-0.58408,Bruges,33520,Bordeaux Métropole,Gironde,https://api.v2.clean2gether.com/uploads/0_DB_5322_D_992_F_4_C79_9631_5_FA_307058_F35_jpg_c6fe6c249f.jpg,,,,,,,,,,,,,
44.87185,-0.57591,Bordeaux,33300,Bordeaux Métropole,Gironde,https://api.v2.clean2gether.com/uploads/0_E7_A35_FC_17_FF_4915_99_BE_5_E795_A5_EC_9_E2_jpg_8f460ddf83.jpg,,,,,,,,,,,,,
45.66218,-0.08086,Saint-Simon,16120,CA du Grand Cognac,Charente,https://api.v2.clean2gether.com/uploads/C9387918_2_F37_4_CCD_BB_7_D_5_F9_EAA_8_E9_A85_8161d20c25.jpg,,,,,,,,,,,,,
45.67561,-0.21932,Bourg-Charente,16200,CA du Grand Cognac,Charente,https://api.v2.clean2gether.com/uploads/51398fe0_26f2_41e7_9e67_324fc6e35449_9f064e64d9.jpg,,,,,,,,,,,,,
45.91204,-0.10593,Barbezières,16140,CC Coeur de Charente,Charente,https://api.v2.clean2gether.com/uploads/62f7ed63_d96b_428d_aab8_166aae0f8046_7180aafd60.jpg,,,,,,,,,,,,,
45.57726,0.23356,Torsac,16410,CA du Grand Angoulême,Charente,https://api.v2.clean2gether.com/uploads/7cef4dd3_71c6_4802_93a7_63e7f0879ec1_3eaebf2d2e.jpg,,,,,,,,,,,,,
45.47086,-0.20307,Barret,16300,CC des 4B Sud Charente,Charente,https://api.v2.clean2gether.com/uploads/cc553aa9_df1f_416a_9fab_1cc55868b838_1f50aee96f.jpg,,,,,,,,,,,,,
45.84295,0.30905,Val-de-Bonnieure,16230,CC Coeur de Charente,Charente,https://api.v2.clean2gether.com/uploads/dab7bbc0_9404_4ab6_b035_87436de2f726_f06b80bd0b.jpg,,,,,,,,,,,,,
44.87197,-0.5036,Lormont,33310,Bordeaux Métropole,Gironde,https://api.v2.clean2gether.com/uploads/d1b52de4_e234_41ae_ba1c_2a2b58f01c45_050b84e0f8.jpg,,,,,,,,,,,,,
45.86818,0.28551,Val-de-Bonnieure,16230,CC Coeur de Charente,Charente,https://api.v2.clean2gether.com/uploads/f5c8e7a7_c69e_444e_8c70_cbca05877d28_a5cb921ec5.jpg,,,,,,,,,,,,,
44.93845,-0.45387,Saint-Loubès,33450,CC du Secteur de Saint-Loubès,Gironde,https://api.v2.clean2gether.com/uploads/10d6fce3_26a6_4562_a229_df21f736f772_fd63f5f3f5.jpg,,,,,,,,,,,,,
43.28135,-0.34098,Bizanos,64320,CA Pau Béarn Pyrénées,Pyrénées-Atlantiques,https://api.v2.clean2gether.com/uploads/c3f587cf_76bd_4c1f_b659_c3d9d9702d5f_8596f25833.jpg,https://api.v2.clean2gether.com/uploads/5e4fcb7a_0047_49d0_a10e_c52feafad26a_48cc3444f9.jpg,,,,,,,,,,,,
45.51079,-0.13497,Saint-Médard,16300,CC des 4B Sud Charente,Charente,https://api.v2.clean2gether.com/uploads/474d5802_fa6c_48b2_8adb_29f1de467e80_aa98085ae6.jpg,,,,,,,,,,,,,
45.74443,-0.37235,Cherves-Richemont,16370,CA du Grand Cognac,Charente,https://api.v2.clean2gether.com/uploads/058a9863_6e97_4205_ab0d_55658577c8f7_a31347ceec.jpg,,,,,,,,,,,,,
45.96563,0.24252,Verteuil-sur-Charente,16700,CC Val de Charente,Charente,https://api.v2.clean2gether.com/uploads/96b7eb1d_2b08_4eb1_ba7d_fa65964c3446_cc1b33c0e6.jpg,,,,,,,,,,,,,
45.64146,0.13999,Angoulême,16000,CA du Grand Angoulême,Charente,https://api.v2.clean2gether.com/uploads/50bfb544_55c4_4bf9_9e79_468b36a47cd3_a18979ee95.jpg,,,,,,,,,,,,,
45.17358,1.48697,Ussac,19270,CA du Bassin de Brive,Corrèze,https://api.v2.clean2gether.com/uploads/6c8e8a25_ad67_482c_a301_7fe569b29428_481ee79a7f.jpg,,,,,,,,,,,,,
44.78104,-0.54829,Villenave-d'Ornon,33140,Bordeaux Métropole,Gironde,https://api.v2.clean2gether.com/uploads/57_C54_A36_2_AF_2_4002_B8_F6_10905_C9_FF_32_A_2a3f12bcf8.jpg,https://api.v2.clean2gether.com/uploads/68_C15_E76_CDEC_499_D_9_D40_F5527_AF_68_B25_c9cf1aa088.jpg,https://api.v2.clean2gether.com/uploads/67913796_927_E_4_BED_8_F2_B_2_F6_F6_EB_96798_86fb6baebe.jpg,,,,,,,,,,,
45.63731,0.20999,Soyaux,16800,CA du Grand Angoulême,Charente,https://api.v2.clean2gether.com/uploads/1362456_B_B636_4_BC_0_AA_03_DF_49_C3_EA_90_DD_67b9b0247e.jpg,https://api.v2.clean2gether.com/uploads/47_EE_8363_FE_97_48_D8_8958_5_DDB_392_E15_C7_d7c1b70c13.jpg,,,,,,,,,,,,
44.63053,-0.48356,Saint-Selve,33650,CC de Montesquieu,Gironde,https://api.v2.clean2gether.com/uploads/809_CF_64_A_6071_4_B75_A00_C_DC_72680_FA_9_A6_aeb689c0a0.jpg,https://api.v2.clean2gether.com/uploads/3_A49_D993_A81_B_4129_91_A8_D48_E51_A8_C0_E7_6f3eea57bf.jpg,,,,,,,,,,,,
44.77913,-0.55857,Villenave-d'Ornon,33140,Bordeaux Métropole,Gironde,https://api.v2.clean2gether.com/uploads/DFDE_7_CC_0_5_C1_A_4_ACD_85_B3_A17439576_AE_8_bd7ca449b7.jpg,https://api.v2.clean2gether.com/uploads/35_D93910_9130_4_A4_C_8_D71_26463_FFAC_0_A6_7cc1662184.jpg,https://api.v2.clean2gether.com/uploads/9_B6_EE_4_F3_D7_EA_4_EE_2_832_C_C8_F1_D15_F7_E58_c85e0043cb.jpg,https://api.v2.clean2gether.com/uploads/A8_D9889_E_D368_4648_BAA_4_3_C8785752411_4314b7bdba.jpg,https://api.v2.clean2gether.com/uploads/C2_BA_6_DF_9_AFCA_4965_95_FD_23_CAB_5_B4_C52_E_ae180a23fc.jpg,,,,,,,,,
45.22349,0.08293,Saint-Quentin-de-Chalais,16210,CC Lavalette Tude Dronne,Charente,https://api.v2.clean2gether.com/uploads/21ed73a8_e221_4c07_baa4_d32ac659f5aa_2b14a3db5c.jpg,,,,,,,,,,,,,
45.23305,0.07499,Saint-Quentin-de-Chalais,16210,CC Lavalette Tude Dronne,Charente,https://api.v2.clean2gether.com/uploads/3a9a9180_f086_4092_a95f_63cc2093bfb7_32b849f04b.jpg,https://api.v2.clean2gether.com/uploads/40d82d02_75b9_4003_9f59_fefcf3ee9d25_10e73809c6.jpg,,,,,,,,,,,,
44.74293,-0.60081,Léognan,33850,CC de Montesquieu,Gironde,https://api.v2.clean2gether.com/uploads/79_CD_36_CE_B5_D0_430_B_B2_EB_EA_5_D4_F786959_54ef84d0dc.jpg,,,,,,,,,,,,,
45.58684,0.25359,Dirac,16410,CA du Grand Angoulême,Charente,https://api.v2.clean2gether.com/uploads/6_D2_E41_EF_FE_32_4_D14_A569_0_EE_7_B7_C0_E29_F_30fa9b9409.jpg,https://api.v2.clean2gether.com/uploads/3_AC_0294_F_8_C16_4_F20_8_B24_35_A9_C4_C88232_00186b2772.jpg,https://api.v2.clean2gether.com/uploads/C43571_AC_35_AB_4419_85_F5_9920874_B2_F5_B_1ade6fbb77.jpg,,,,,,,,,,,
44.75141,-0.65379,Canéjan,33610,CC Jalle-Eau-Bourde,Gironde,https://api.v2.clean2gether.com/uploads/df4d645d_10f2_4925_807c_962a6b85c2c5_e529e80d23.jpg,https://api.v2.clean2gether.com/uploads/083d8446_69e9_4ca3_a2a4_35488d968eb1_9f925a2147.jpg,,,,,,,,,,,,
45.69944,0.25395,Champniers,16430,CA du Grand Angoulême,Charente,https://api.v2.clean2gether.com/uploads/8_BAF_97_B5_D3_A2_495_C_95_DD_11928090_FAC_7_ecb8e63a70.jpg,https://api.v2.clean2gether.com/uploads/7_F7633_CD_D693_4_F14_BCF_0_FB_8029_CC_1_CAA_ee6cdf9fa8.jpg,,,,,,,,,,,,
44.86407,-0.33183,Saint-Germain-du-Puch,33750,CA du Libournais,Gironde,https://api.v2.clean2gether.com/uploads/6817a31d_bd51_4b67_a1c3_d3f661ba6403_604689abc3.jpg,https://api.v2.clean2gether.com/uploads/873b1830_88c3_4049_9ff5_d6f49b417e01_2cc565dde0.jpg,,,,,,,,,,,,
45.95612,0.37899,Chassiecq,16350,CC de Charente Limousine,Charente,https://api.v2.clean2gether.com/uploads/ccb0eb0f_c367_4170_9311_e150d762d071_5023c1c120.jpg,,,,,,,,,,,,,
46.28049,-0.58685,Sansais,79270,CA du Niortais,Deux-Sèvres,https://api.v2.clean2gether.com/uploads/6_A9651_EF_C803_44_C6_88_BA_1_B41_B5827362_d33b8bf277.jpg,,,,,,,,,,,,,
46.00316,0.8499,Saint-Christophe,16420,CC de Charente Limousine,Charente,https://api.v2.clean2gether.com/uploads/A6_E6_EB_68_B630_4638_90_B3_704_EFFED_63_DC_277cc82fa4.jpg,https://api.v2.clean2gether.com/uploads/48_DD_7423_C72_F_41_E4_9949_BC_7901_D540_AE_32477b3e64.jpg,https://api.v2.clean2gether.com/uploads/8_F76022_A_FF_85_4_A74_B0_F2_D4_B655_BB_5599_481c413499.jpg,,,,,,,,,,,
46.08626,-1.00953,Thairé,17290,CA de La Rochelle,Charente-Maritime,https://api.v2.clean2gether.com/uploads/6895a7ae_761c_45d9_8d2f_c64a5ed74bc3_1cfab410d5.jpg,,,,,,,,,,,,,
45.65323,-0.18348,Mainxe-Gondeville,16200,CA du Grand Cognac,Charente,https://api.v2.clean2gether.com/uploads/7919_F839_33_AB_48_DB_A64_B_F361_D4465_B26_20a1800507.jpg,,,,,,,,,,,,,
45.55861,0.00726,Roullet-Saint-Estèphe,16440,CA du Grand Angoulême,Charente,https://api.v2.clean2gether.com/uploads/A7093_B26_9143_41_A6_8_A44_6_A952_E21_F3_D3_c24ace0d44.jpg,,,,,,,,,,,,,
45.01819,0.10683,Ménesplet,24700,CC Isle Double Landais,Dordogne,https://api.v2.clean2gether.com/uploads/eedeb818_f412_469f_ab3e_8d28565f5fe6_b7ff3cd96d.jpg,,,,,,,,,,,,,
43.63509,-1.39848,Bénesse-Maremne,40130,CC Maremne Adour Côte Sud,Landes,https://api.v2.clean2gether.com/uploads/e07c530e_7f80_48c1_a70f_f78e4ef8f6bc_3152fc87e2.jpg,https://api.v2.clean2gether.com/uploads/b7fcdab5_6108_45af_be69_b66a9759b4f0_eb63d478fa.jpg,https://api.v2.clean2gether.com/uploads/44527d64_63db_4b88_9d71_e5708bdf3085_78d25e2462.jpg,https://api.v2.clean2gether.com/uploads/6d941dc2_bf74_40ac_bece_1d6645b1785c_00f0ded74b.jpg,https://api.v2.clean2gether.com/uploads/9811ee29_4478_416d_99ff_16085ea0ac93_50a93c062d.jpg,https://api.v2.clean2gether.com/uploads/cbd995f0_ef33_42cb_98dc_5032edfa0699_7284f415a4.jpg,https://api.v2.clean2gether.com/uploads/3657b02d_b12d_4e12_b036_7eba4c16de20_bb408ea454.jpg,https://api.v2.clean2gether.com/uploads/aad827b8_6441_4be1_8107_8243f7a75376_7368788f57.jpg,https://api.v2.clean2gether.com/uploads/da9dec1a_ed56_471c_b0a5_5d037b500bc3_1869293fa6.jpg,https://api.v2.clean2gether.com/uploads/33d81867_dd84_46bd_93c8_2fd7362fd10e_c46ac1d584.jpg,https://api.v2.clean2gether.com/uploads/f0651763_8f85_44ca_b9bf_da1d3b55a277_12bc744bee.jpg,https://api.v2.clean2gether.com/uploads/4fa049ab_5ab0_45c4_b1aa_3975f5e7a237_01d02b1519.jpg,,
45.69924,0.25306,Ruelle-sur-Touvre,16430,CA du Grand Angoulême,Charente,https://api.v2.clean2gether.com/uploads/ed53ff4a_88a1_4c79_bbc6_50476f42fd13_9a0f28445b.jpg,,,,,,,,,,,,,
45.74696,-0.44082,Saint-Sulpice-de-Cognac,16370,CA du Grand Cognac,Charente,https://api.v2.clean2gether.com/uploads/5e48fbd6_a744_484f_a940_63e383ca1b7b_d3801e4424.jpg,,,,,,,,,,,,,
45.64699,0.11142,Angoulême,16000,CA du Grand Angoulême,Charente,https://api.v2.clean2gether.com/uploads/04338_C66_94_F5_45_D3_AA_2_B_3_E96290_D53_A2_9eaeada874.jpg,,,,,,,,,,,,,
45.67789,-0.06942,Mérignac,16200,CA du Grand Cognac,Charente,https://api.v2.clean2gether.com/uploads/95af0a3f_4c57_43ca_b556_14acfc71e8ed_88165796c3.jpg,,,,,,,,,,,,,
45.69046,0.16049,Gond-Pontouvre,16160,CA du Grand Angoulême,Charente,https://api.v2.clean2gether.com/uploads/c0a1019c_42c4_4b8f_9858_042084737ab0_e53ea00e03.jpg,,,,,,,,,,,,,
45.70041,-0.4203,Chérac,17610,CA de Saintes,Charente-Maritime,https://api.v2.clean2gether.com/uploads/a3492509_3a24_4291_9ac7_9fb4087e3cc6_38ba12a9ad.jpg,,,,,,,,,,,,,
45.93021,-0.1004,Chives,17510,CC Vals de Saintonge,Charente-Maritime,https://api.v2.clean2gether.com/uploads/fe99fd9d_4001_47b7_8b2a_66f9b5b6da63_a6344267a9.jpg,,,,,,,,,,,,,
45.51041,-0.2036,Lagarde-sur-le-Né,16300,CC des 4B Sud Charente,Charente,https://api.v2.clean2gether.com/uploads/f8f5c4e4_fdf4_47cd_9b58_c41e2bc4abfc_4beed22722.jpg,,,,,,,,,,,,,
45.55338,0.3498,Rougnac,16320,CC Lavalette Tude Dronne,Charente,https://api.v2.clean2gether.com/uploads/362fb02d_82d3_4c0e_b705_0f09e8682ecd_b0472b394c.jpg,,,,,,,,,,,,,
45.60442,0.26386,Dirac,16410,CA du Grand Angoulême,Charente,https://api.v2.clean2gether.com/uploads/61608763_B974_4_D80_A054_6_ADEEEFFB_914_df0b7b6e94.jpg,,,,,,,,,,,,,
44.88247,-1.07536,Le Porge,33680,CC Médullienne,Gironde,https://api.v2.clean2gether.com/uploads/7_F3991_F0_1_DA_8_4993_9_BCE_83_BA_01_AFBE_3_E_5fb968fbae.jpg,https://api.v2.clean2gether.com/uploads/23980_E31_F38_D_42_FB_9985_95_ED_9_BB_39_AC_2_6d99b94eff.jpg,,,,,,,,,,,,
44.97857,-0.45065,Cubzac-les-Ponts,33240,CC du Grand Cubzaguais,Gironde,https://api.v2.clean2gether.com/uploads/2332167a_4cc1_4333_bcc0_4b84b82cb7d4_67b83dd17f.jpg,,,,,,,,,,,,,
45.67641,0.24108,Ruelle-sur-Touvre,16600,CA du Grand Angoulême,Charente,https://api.v2.clean2gether.com/uploads/52270898_3c5e_4f80_b238_a6d8e735a780_80d5d883d8.jpg,,,,,,,,,,,,,
44.95125,-0.25365,Saillans,33141,CC du Fronsadais,Gironde,https://api.v2.clean2gether.com/uploads/3c8fcb8d_505c_43a6_a2e3_a5da411ef5c2_5da5b51764.jpg,https://api.v2.clean2gether.com/uploads/448c99d7_2ee2_43d6_ae58_4e2a6c05c421_f2b7641246.jpg,https://api.v2.clean2gether.com/uploads/9323295a_2cf7_48b8_a29a_4f16a21b9eff_f014403580.jpg,,,,,,,,,,,
45.55392,0.21877,Torsac,16410,CA du Grand Angoulême,Charente,https://api.v2.clean2gether.com/uploads/776_CD_6_FC_581_D_4421_AC_41_D548_A2_B6_E280_ff8fd35a7b.jpg,,,,,,,,,,,,,
45.3652,-0.52927,Soubran,17150,CC de la Haute Saintonge,Charente-Maritime,https://api.v2.clean2gether.com/uploads/5a42da30_e1f6_4b13_948e_51c979ec6c16_e1a11bae15.jpg,,,,,,,,,,,,,
45.90577,0.0568,Aigre,16140,CC Coeur de Charente,Charente,https://api.v2.clean2gether.com/uploads/59a65c14_1a50_4f25_b34e_ef23ab6033f6_0e842eca8a.jpg,https://api.v2.clean2gether.com/uploads/b8e8d2a0_b203_459f_8ec2_8b7f85a24cc4_605bc27e3b.jpg,,,,,,,,,,,,
45.70529,0.2934,Mornac,16600,CA du Grand Angoulême,Charente,https://api.v2.clean2gether.com/uploads/3f234cf5_8982_4a03_ab76_3aa584b22ad3_8588b798e7.jpg,,,,,,,,,,,,,
45.78148,0.30523,La Rochette,16110,CC La Rochefoucauld - Porte du Périgord,Charente,https://api.v2.clean2gether.com/uploads/B968_E14_B_01_E6_4993_8_D41_F7_B61_EDAEB_61_2dc72be895.jpg,,,,,,,,,,,,,
45.69414,0.33904,Bunzac,16110,CC La Rochefoucauld - Porte du Périgord,Charente,https://api.v2.clean2gether.com/uploads/08e9b520_f394_40f9_b978_94d3a66b3e2d_b97bbe42d9.jpg,,,,,,,,,,,,,
45.73147,-0.65307,Saintes,17100,CA de Saintes,Charente-Maritime,https://api.v2.clean2gether.com/uploads/1_EBAC_3_C0_443_A_4_A1_C_A702_706_B2859_F15_E_869bc35a2d.jpg,,,,,,,,,,,,,
45.56888,0.18517,Torsac,16410,CA du Grand Angoulême,Charente,https://api.v2.clean2gether.com/uploads/19a99c1b_0218_4699_9700_94c9559aba79_58459cfb78.jpg,,,,,,,,,,,,,
45.75272,0.61204,Roussines,16310,CC de Charente Limousine,Charente,https://api.v2.clean2gether.com/uploads/5_A6_E1_AC_2_E176_4_E2_F_910_A_BEDFC_19267_D8_3c086c353c.jpg,https://api.v2.clean2gether.com/uploads/A7_EE_7369_183_D_4_DFA_9_D22_354_E9_BF_7383_A_139e3cb615.jpg,,,,,,,,,,,,
45.40273,0.23579,Salles-Lavalette,16190,CC Lavalette Tude Dronne,Charente,https://api.v2.clean2gether.com/uploads/4a6834e5_3e6e_4b1c_8283_c761217a2187_f16522b7d8.jpg,,,,,,,,,,,,,
45.53455,0.38065,Rougnac,16320,CC Lavalette Tude Dronne,Charente,https://api.v2.clean2gether.com/uploads/185aac48_8dee_4eae_b223_36178c03100c_300fca0d10.jpg,https://api.v2.clean2gether.com/uploads/15a87cc2_1a58_42af_9712_81172fa7886f_72bc805f54.jpg,https://api.v2.clean2gether.com/uploads/215cf7b7_d994_4165_9070_6e91e30cac52_7835fe6f5a.jpg,,,,,,,,,,,
46.19505,-1.07523,Dompierre-sur-Mer,17139,CA de La Rochelle,Charente-Maritime,https://api.v2.clean2gether.com/uploads/a6a11492_3c4c_4033_9161_69762fb705a1_3591d68dc1.jpg,,,,,,,,,,,,,
45.76458,0.39889,Taponnat-Fleurignac,16110,CC La Rochefoucauld - Porte du Périgord,Charente,https://api.v2.clean2gether.com/uploads/0574aebe_da45_46c6_9107_ec8212826dfa_006c42ead5.jpg,,,,,,,,,,,,,
45.8241,0.19498,Aussac-Vadalle,16560,CC Coeur de Charente,Charente,https://api.v2.clean2gether.com/uploads/ed068648_3f40_458d_a000_e990096fc24a_69f4bf3074.jpg,https://api.v2.clean2gether.com/uploads/d12ea263_193f_4a5e_9b8c_d2e25ff7b8de_28c5bab9fe.jpg,,,,,,,,,,,,
45.63435,0.20295,Soyaux,16800,CA du Grand Angoulême,Charente,https://api.v2.clean2gether.com/uploads/91590283_4d9f_4133_abc5_122dac3c1193_ff7e3e1da7.jpg,,,,,,,,,,,,,
45.67317,-0.29647,Châteaubernard,16100,CA du Grand Cognac,Charente,https://api.v2.clean2gether.com/uploads/5_A84_DCFE_D837_471_F_A60_D_447_F476355_A8_53c19075b1.jpg,https://api.v2.clean2gether.com/uploads/7_FD_4_BDCC_C6_BA_48_E7_88_AD_34_BED_0888026_2ee19b918d.jpg,https://api.v2.clean2gether.com/uploads/57398_E60_27_F7_41_F5_80_E4_11_D23184_DE_54_d2d673b388.jpg,https://api.v2.clean2gether.com/uploads/55_E05405_D563_4266_9153_5_C08882_F1_E6_E_ed4ef12e91.jpg,https://api.v2.clean2gether.com/uploads/E8_BB_8_C10_7_D08_4832_9_C21_A53_E99_A29_BC_5_2b75d0b9c3.jpg,https://api.v2.clean2gether.com/uploads/776_C579_F_AEE_0_4_FBC_9_E13_D97944168_D0_A_c49931be1e.jpg,,,,,,,,
45.48673,-0.54751,Mosnac,17240,CC de la Haute Saintonge,Charente-Maritime,https://api.v2.clean2gether.com/uploads/1533f304_b7c4_4fd2_aea8_a17bb1bc31bd_ec5d8b2e49.jpg,,,,,,,,,,,,,
45.66813,-0.94935,Saujon,17600,CA Royan Atlantique,Charente-Maritime,https://api.v2.clean2gether.com/uploads/C427452_F_9_A11_4_FC_3_B911_92_E16_A27_D72_A_50bf7507f3.jpg,,,,,,,,,,,,,
45.74658,-0.14332,Sigogne,16200,CA du Grand Cognac,Charente,https://api.v2.clean2gether.com/uploads/632_D4656_FF_49_4_E2_D_A97_B_C095_AE_133_BC_5_2116750b4f.jpg,,,,,,,,,,,,,
45.68332,-0.4114,Saint-Laurent-de-Cognac,17800,CA du Grand Cognac,Charente-Maritime,https://api.v2.clean2gether.com/uploads/f1070eef_d387_448d_9eb9_c6d72381916a_7b8da366b3.jpg,https://api.v2.clean2gether.com/uploads/2e6390c0_907d_438c_beee_b58edb00e65c_764cca7664.jpg,,,,,,,,,,,,
44.58511,-0.62215,Saint-Magne,33125,CC du Val de l'Eyre,Gironde,https://api.v2.clean2gether.com/uploads/e7dd63aa_8823_415f_8c5b_f485870c40d7_c22a6df79e.jpg,,,,,,,,,,,,,
44.8253,-0.5155,Floirac,33270,Bordeaux Métropole,Gironde,https://api.v2.clean2gether.com/uploads/aee77209_d211_445b_99cf_c493f7ea5617_dcd27f04bb.jpg,,,,,,,,,,,,,
44.82548,-0.51587,Floirac,33270,Bordeaux Métropole,Gironde,https://api.v2.clean2gether.com/uploads/f65996cc_c436_4a37_806a_53e2cb8a269d_66f3fed634.jpg,,,,,,,,,,,,,
45.68508,0.15589,Gond-Pontouvre,16160,CA du Grand Angoulême,Charente,https://api.v2.clean2gether.com/uploads/33bb5166_8951_4eaa_a58b_aafe2670562d_96fd557c12.jpg,,,,,,,,,,,,,
45.69073,0.14516,Saint-Yrieix-sur-Charente,16710,CA du Grand Angoulême,Charente,https://api.v2.clean2gether.com/uploads/9850ddde_f16f_4dc1_8234_373fbd23e890_4e550e4e74.jpg,,,,,,,,,,,,,
45.65118,0.11284,Angoulême,16000,CA du Grand Angoulême,Charente,https://api.v2.clean2gether.com/uploads/FF_0_A6731_9_F77_439_A_891_F_93_E1_EA_870445_a7a7b028fc.jpg,,,,,,,,,,,,,
44.97471,-0.34986,Tarnès,33240,CC du Fronsadais,Gironde,https://api.v2.clean2gether.com/uploads/5326e6e6_673a_4fa7_8298_bfbbfbdef1f7_441f53b2b7.jpg,https://api.v2.clean2gether.com/uploads/ef35d1b4_2a9d_4790_9325_151f57ec5ad2_c744cb82e5.jpg,,,,,,,,,,,,
45.53245,0.42179,Combiers,16380,CC Lavalette Tude Dronne,Charente,https://api.v2.clean2gether.com/uploads/3_A26_B8_D8_4099_4_D12_88_B1_1_F0652_A32_D5_F_2bf5ca145a.jpg,,,,,,,,,,,,,
44.77648,-0.53605,Villenave-d'Ornon,33140,Bordeaux Métropole,Gironde,https://api.v2.clean2gether.com/uploads/505_B7965_2421_41_EB_81_AF_4_A987_BB_6_BA_87_6f69f5826f.jpg,https://api.v2.clean2gether.com/uploads/9_D829_CDD_8550_4_F4_D_B073_BE_7053_B62_A73_c29ea96d91.jpg,,,,,,,,,,,,
44.64391,-0.47959,Saint-Selve,33650,CC de Montesquieu,Gironde,https://api.v2.clean2gether.com/uploads/C0_D7403_A_8391_4819_B36_C_FD_079_D4_D31_DB_3ed2fdf53e.jpg,https://api.v2.clean2gether.com/uploads/E7718368_715_C_4871_A390_6_D860_BBE_6285_332c82a742.jpg,,,,,,,,,,,,
45.72941,-0.25433,Réparsac,16200,CA du Grand Cognac,Charente,https://api.v2.clean2gether.com/uploads/66211d5f_349a_4920_a7cc_69f9a2aa0a6b_26c91e86ba.jpg,https://api.v2.clean2gether.com/uploads/e529876d_e38a_46bd_92f0_31ebf3140ea3_e3cabca672.jpg,https://api.v2.clean2gether.com/uploads/48215dd9_ea50_4efb_a12a_886d184460a3_358afc2e88.jpg,https://api.v2.clean2gether.com/uploads/13f92a80_9d74_48b5_b524_e0eeab8b0214_50bbdf9411.jpg,,,,,,,,,,
45.55824,0.14385,Mouthiers-sur-Boëme,16440,CA du Grand Angoulême,Charente,https://api.v2.clean2gether.com/uploads/5356_D28_F_E18_D_4_A06_A73_E_0993987_AC_113_5cb38719ba.jpg,,,,,,,,,,,,,
45.5607,0.11945,Mouthiers-sur-Boëme,16440,CA du Grand Angoulême,Charente,https://api.v2.clean2gether.com/uploads/A74_A7133_B251_4_D67_9386_38965_DADD_029_34ab222725.jpg,,,,,,,,,,,,,
45.6819,0.17549,Gond-Pontouvre,16160,CA du Grand Angoulême,Charente,https://api.v2.clean2gether.com/uploads/fd15b728_74c5_4a00_800e_754fae1dea6f_e8d30ed3b6.jpg,https://api.v2.clean2gether.com/uploads/dd614f36_9251_4da0_9a71_f9c5c3a36ec1_4010305a98.jpg,,,,,,,,,,,,
45.66844,-0.94872,Saujon,17600,CA Royan Atlantique,Charente-Maritime,https://api.v2.clean2gether.com/uploads/95_B57_CB_5_BDDD_43_FF_B973_3_AA_1072_E21_FE_da3b25800d.jpg,,,,,,,,,,,,,
45.74048,-0.39476,Louzac-Saint-André,16100,CA du Grand Cognac,Charente,https://api.v2.clean2gether.com/uploads/0_BD_8978_B_8_CAB_4_C5_D_9170_30_C1_FBD_8_F3_C6_714fbfb482.jpg,,,,,,,,,,,,,
44.87185,-1.12793,Le Porge,33680,CC Médullienne,Gironde,https://api.v2.clean2gether.com/uploads/5_D41_D4_C3_0_B28_4_B61_9_B45_FD_685_E8_AC_611_1939ca3310.jpg,,,,,,,,,,,,,
45.68947,0.74819,Saint-Mathieu,87440,CC Ouest Limousin,Haute-Vienne,https://api.v2.clean2gether.com/uploads/f2004452_3ccd_4ca6_ad4a_5b8eaa607f3c_b091460799.jpg,https://api.v2.clean2gether.com/uploads/2a9d10bc_dc59_43e3_9b2c_b76220c376c7_403ef171d1.jpg,,,,,,,,,,,,
45.96219,0.20355,Verteuil-sur-Charente,16510,CC Val de Charente,Charente,https://api.v2.clean2gether.com/uploads/4210ea36_6c9c_4b9c_a388_304f43fc995b_dcfccdbc27.jpg,https://api.v2.clean2gether.com/uploads/506804fd_6a01_4794_ac78_570603ba8192_72df9a7c07.jpg,https://api.v2.clean2gether.com/uploads/ecabf7df_e57c_4735_9401_0b9dccc29490_024ebdb798.jpg,,,,,,,,,,,
45.6259,0.26243,Garat,16410,CA du Grand Angoulême,Charente,https://api.v2.clean2gether.com/uploads/4_A6_F8_E15_0_E10_45_BD_82_C8_7_A21_E75_CDA_10_58a373e85d.jpg,,,,,,,,,,,,,
45.01035,-0.39472,Val de Virvée,33240,CC du Grand Cubzaguais,Gironde,https://api.v2.clean2gether.com/uploads/08dab5df_52c0_4677_8b1f_d2ef626320a6_136774a3e1.jpg,,,,,,,,,,,,,
45.7234,-0.17573,Les Métairies,16200,CA du Grand Cognac,Charente,https://api.v2.clean2gether.com/uploads/0_AEA_1_FE_7_A02_F_46_D9_8371_882_D12_C7728_F_a36b84c06a.jpg,,,,,,,,,,,,,
45.56121,0.27911,Dignac,16410,CA du Grand Angoulême,Charente,https://api.v2.clean2gether.com/uploads/f2350b26_0304_43af_a284_8c800c5ba3fa_41b3d6601d.jpg,,,,,,,,,,,,,
45.98629,0.13009,Courcôme,16240,CC Val de Charente,Charente,https://api.v2.clean2gether.com/uploads/D2_D07921_B9_F0_4_ECC_AED_4_1061_F4_C6_A505_9d00dee083.jpg,,,,,,,,,,,,,
45.63903,0.03734,Trois-Palis,16730,CA du Grand Angoulême,Charente,https://api.v2.clean2gether.com/uploads/2d823931_9041_4483_84c6_ace5512355ac_d3e04a0f7e.jpg,https://api.v2.clean2gether.com/uploads/ca8bb2e2_9d0e_4b0a_9c4c_9b3ebdd6c48a_89cb067f28.jpg,,,,,,,,,,,,
45.67745,0.17645,Gond-Pontouvre,16160,CA du Grand Angoulême,Charente,https://api.v2.clean2gether.com/uploads/bb08a157_b7e6_4163_8711_5cc8b6ffcf58_1f67972c74.jpg,,,,,,,,,,,,,
44.96797,-0.70806,Arsac,33460,CC Médoc Estuaire,Gironde,https://api.v2.clean2gether.com/uploads/27433578_b802_4bd7_bddc_45752f1377f9_4ce186b77d.jpg,,,,,,,,,,,,,
45.68806,0.55195,Écuras,16220,CC La Rochefoucauld - Porte du Périgord,Charente,https://api.v2.clean2gether.com/uploads/fe79229a_79da_49f2_a948_98b4389baca6_2ec9b4d619.jpg,https://api.v2.clean2gether.com/uploads/31a71400_9a39_49a3_b5bb_50c5084b0086_682299b122.jpg,,,,,,,,,,,,
45.90954,0.47651,Saint-Claud,16450,CC de Charente Limousine,Charente,https://api.v2.clean2gether.com/uploads/CB_468801_70_F8_435_D_B758_D05_FD_70_CBDFA_fa91a53e6f.jpg,https://api.v2.clean2gether.com/uploads/8_C1400_A0_4_F8_F_4_BA_4_BFE_0_5_A376_E22259_A_9e71186c50.jpg,,,,,,,,,,,,
45.72199,-0.36469,Cherves-Richemont,16370,CA du Grand Cognac,Charente,https://api.v2.clean2gether.com/uploads/CEC_70_D5_A_FA_94_42_EB_ADFF_8_B92_E2_A7_A1_F1_d717ad04de.jpg,,,,,,,,,,,,,
46.4785,0.30862,Iteuil,86240,CC des Vallées du Clain,Vienne,https://api.v2.clean2gether.com/uploads/B2_AC_6_FE_6_5716_4_B01_A777_DBE_604_C88762_1386d09bad.jpg,,,,,,,,,,,,,
45.26605,-0.5689,Saint-Aubin-de-Blaye,33820,CC de l'Estuaire,Gironde,https://api.v2.clean2gether.com/uploads/102869ee_8c7c_42ed_950f_9a56e9d521b9_52727344f5.jpg,,,,,,,,,,,,,
45.68242,0.15995,Gond-Pontouvre,16160,CA du Grand Angoulême,Charente,https://api.v2.clean2gether.com/uploads/cbbc69cf_05f6_4161_a030_f83f8e9f5506_47f21d60b7.jpg,,,,,,,,,,,,,
45.95708,0.86419,Brigueuil,16420,CC de Charente Limousine,Charente,https://api.v2.clean2gether.com/uploads/c1fdefdc_befc_4af9_8e77_4960d0be3b22_47ef107e5c.jpg,,,,,,,,,,,,,
45.95222,0.46927,Le Grand-Madieu,16450,CC de Charente Limousine,Charente,https://api.v2.clean2gether.com/uploads/11352_012ea94f7c.png,,,,,,,,,,,,,
45.8329,0.27908,Val-de-Bonnieure,16230,CC Coeur de Charente,Charente,https://api.v2.clean2gether.com/uploads/11361_2302dbd971.png,,,,,,,,,,,,,
45.6288,-0.03282,Mosnac-Saint-Simeux,16120,CA du Grand Cognac,Charente,https://api.v2.clean2gether.com/uploads/11365_9595c9308f.png,,,,,,,,,,,,,
45.63014,-0.01409,Mosnac-Saint-Simeux,16120,CA du Grand Cognac,Charente,https://api.v2.clean2gether.com/uploads/11387_a28e2bf05d.png,,,,,,,,,,,,,
44.58386,-1.21092,La Teste-de-Buch,33260,CA Bassin d'Arcachon Sud-Pôle Atlantique (COBAS),Gironde,https://api.v2.clean2gether.com/uploads/50_FFB_4_BF_FF_75_42_F5_8_A51_63_F866223_F29_8b81307126.jpg,,,,,,,,,,,,,
45.66455,-0.95437,Médis,17600,CA Royan Atlantique,Charente-Maritime,https://api.v2.clean2gether.com/uploads/24_D95_EF_1_D81_F_44_BD_B8_F0_B07851_F474_DE_b4bb14dbc8.jpg,,,,,,,,,,,,,
44.74441,-1.11804,Andernos-les-Bains,,CA du Bassin d'Arcachon Nord,,https://api.v2.clean2gether.com/uploads/11399_a0c2ba648a.png,,,,,,,,,,,,,
45.75928,-0.01652,Saint-Cybardeaux,16170,CC du Rouillacais,Charente,https://api.v2.clean2gether.com/uploads/80e13fa9_673f_4186_8190_7bda7df911bf_cecc22d32f.jpg,,,,,,,,,,,,,
45.6491,0.36573,Chazelles,16380,CC La Rochefoucauld - Porte du Périgord,Charente,https://api.v2.clean2gether.com/uploads/11406_a12a11ab2c.png,,,,,,,,,,,,,
45.64936,0.36544,Chazelles,16380,CC La Rochefoucauld - Porte du Périgord,Charente,https://api.v2.clean2gether.com/uploads/11405_195734ecbc.png,,,,,,,,,,,,,
45.64722,0.38127,Chazelles,16380,CC La Rochefoucauld - Porte du Périgord,Charente,https://api.v2.clean2gether.com/uploads/6237e226_b698_47d7_8293_d03ee9d7f0fb_babb4c9799.jpg,,,,,,,,,,,,,
45.71277,0.11555,Vindelle,16430,CA du Grand Angoulême,Charente,https://api.v2.clean2gether.com/uploads/7_ECB_7_D8_B_E86_B_4_FA_6_BB_0_D_A59_B84708_B7_D_f5c61146c2.jpg,https://api.v2.clean2gether.com/uploads/CF_4483_DC_8_F42_4_D45_BABB_D4477_D366221_ee1dac5477.jpg,https://api.v2.clean2gether.com/uploads/DB_60_D094_A149_44_BF_B248_C7_BF_072685_D6_cbc38a5683.jpg,,,,,,,,,,,
45.53289,0.23342,Fouquebrune,16410,CC Lavalette Tude Dronne,Charente,https://api.v2.clean2gether.com/uploads/b8c33270_2314_4cc5_8167_4cb302ee174b_944d50fbc3.jpg,,,,,,,,,,,,,
45.74293,0.26208,Brie,16590,CA du Grand Angoulême,Charente,https://api.v2.clean2gether.com/uploads/25_C9_C8_A7_4971_46_A5_8130_88_EA_58021_FA_6_30c6d85469.jpg,,,,,,,,,,,,,
45.76698,-0.027,Saint-Cybardeaux,16170,CC du Rouillacais,Charente,https://api.v2.clean2gether.com/uploads/7b1f3ec8_2855_47f7_a279_3baff3364719_bfc24c688d.jpg,,,,,,,,,,,,,
45.42374,0.11761,Montmoreau,16190,CC Lavalette Tude Dronne,Charente,https://api.v2.clean2gether.com/uploads/e7f99475_9e6a_49d3_aa45_27630d04fc87_76f2b7ea77.jpg,,,,,,,,,,,,,
45.40733,0.11761,Montmoreau,16190,CC Lavalette Tude Dronne,Charente,https://api.v2.clean2gether.com/uploads/0ec61e07_a11d_42eb_9df9_244c6a5cac85_6c190ba4f0.jpg,,,,,,,,,,,,,
45.08486,-0.11253,Lagorce,33230,CA du Libournais,Gironde,https://api.v2.clean2gether.com/uploads/5d1f8d37_e42e_4a8b_8d9f_7d0fb48a5325_830917a9b7.jpg,,,,,,,,,,,,,
45.58116,0.20333,Torsac,16410,CA du Grand Angoulême,Charente,https://api.v2.clean2gether.com/uploads/8013e371_4844_444d_b8ed_cc7de975542e_d1d18345a6.jpg,,,,,,,,,,,,,
45.7028,0.26324,Champniers,16430,CA du Grand Angoulême,Charente,https://api.v2.clean2gether.com/uploads/A9969_BBB_0_FF_6_4_DC_8_AB_1_F_D5_F9_ED_1_B43_D9_9106e305c3.jpg,,,,,,,,,,,,,
45.5563,-0.28747,Saint-Palais-du-Né,16300,CC des 4B Sud Charente,Charente,https://api.v2.clean2gether.com/uploads/8d1df697_4b5e_422f_9040_b9931e07da19_0e74667743.jpg,,,,,,,,,,,,,
45.6532,-0.35057,Gimeux,16130,CA du Grand Cognac,Charente,https://api.v2.clean2gether.com/uploads/0c00533b_0c9a_4e58_a7d9_fca22696b442_f398c98f62.jpg,,,,,,,,,,,,,
45.65021,0.11263,Angoulême,16000,CA du Grand Angoulême,Charente,https://api.v2.clean2gether.com/uploads/931788_E6_4_E62_4_C14_9_D41_797974_E46_B5_E_f4efc36d25.jpg,,,,,,,,,,,,,
44.74662,-0.63741,Canéjan,33610,CC Jalle-Eau-Bourde,Gironde,https://api.v2.clean2gether.com/uploads/b804e6b3_c40f_4dcb_8b2c_6ac9b30146a7_a218d652cc.jpg,,,,,,,,,,,,,
44.75147,-0.65341,Canéjan,33610,CC Jalle-Eau-Bourde,Gironde,https://api.v2.clean2gether.com/uploads/03f1518c_a783_4956_b65c_a13f38774a67_c5017096ef.jpg,,,,,,,,,,,,,
45.55829,-0.23946,Ambleville,16300,CA du Grand Cognac,Charente,https://api.v2.clean2gether.com/uploads/ADBBB_885_210_C_4_F8_B_8_C0_A_AD_56_D692_A866_a6f1fc03d3.jpg,,,,,,,,,,,,,
45.55835,-0.23897,Ambleville,16300,CA du Grand Cognac,Charente,https://api.v2.clean2gether.com/uploads/19_F060_FA_D3_CA_444_D_837_A_342_A9_FB_97_FED_efc6fbda29.jpg,https://api.v2.clean2gether.com/uploads/5456_BDFA_2_D36_4_F29_8_AE_6_042_E4_E30_E55_E_e6f25511a0.jpg,https://api.v2.clean2gether.com/uploads/54_A370_BA_13_B6_4921_8424_1_E74_FA_981_DA_2_d265ec935e.jpg,https://api.v2.clean2gether.com/uploads/0312_F02_F_7_EB_0_4017_9112_297_D1_ABCEA_26_4ccc9a0308.jpg,https://api.v2.clean2gether.com/uploads/B03594_FF_7062_486_E_A241_2_E565_A6_AA_243_7be3d1c760.jpg,,,,,,,,,
45.88075,0.17772,Mansle,16230,CC Coeur de Charente,Charente,https://api.v2.clean2gether.com/uploads/B647025_C_57_F0_497_C_9_D46_10_E659_F00_B6_C_890c5474d2.jpg,,,,,,,,,,,,,
45.8805,0.18058,Mansle,16230,CC Coeur de Charente,Charente,https://api.v2.clean2gether.com/uploads/fc14c7d6_cd24_40b3_85df_9ec9032a54a3_a79aedd638.jpg,https://api.v2.clean2gether.com/uploads/4b524e23_e75f_461c_836b_02ec884e1ecf_47c21a016a.jpg,https://api.v2.clean2gether.com/uploads/d72a3f28_4d90_45de_8189_fc30d545adb3_8fffc8fb50.jpg,https://api.v2.clean2gether.com/uploads/9a432578_65ee_4dcb_9d44_6b60de42ca47_18bc8b8da8.jpg,https://api.v2.clean2gether.com/uploads/039bbe06_aef7_4427_af8f_38618c63230f_5887737265.jpg,,,,,,,,,
45.8808,0.1739,Mansle,16230,CC Coeur de Charente,Charente,https://api.v2.clean2gether.com/uploads/7804_EA_96_ADA_8_4044_B221_6_ADD_3_E3_C8804_5373b9ee02.jpg,,,,,,,,,,,,,
45.65976,0.16095,Angoulême,16000,CA du Grand Angoulême,Charente,https://api.v2.clean2gether.com/uploads/11707_2bb036533b.png,,,,,,,,,,,,,
44.89039,-0.68011,Le Haillan,33185,Bordeaux Métropole,Gironde,https://api.v2.clean2gether.com/uploads/4_AB_51_AC_5_30_AE_44_C1_BA_3_D_97422428_C6_A4_838f20fbcc.jpg,,,,,,,,,,,,,
44.97713,-0.45327,Cubzac-les-Ponts,33240,CC du Grand Cubzaguais,Gironde,https://api.v2.clean2gether.com/uploads/16c531e7_af90_453b_9368_b462773c1d62_3307044423.jpg,,,,,,,,,,,,,
45.67295,0.11235,Saint-Yrieix-sur-Charente,16730,CA du Grand Angoulême,Charente,https://api.v2.clean2gether.com/uploads/2fe2a86f_be9a_4e74_9905_85d629fa72f1_80cda8989d.jpg,,,,,,,,,,,,,
45.9478,0.13054,Charmé,16140,CC Coeur de Charente,Charente,https://api.v2.clean2gether.com/uploads/0f7f6d4b_93cb_4cdd_bd3e_5be04d30bfee_e72a25632b.jpg,,,,,,,,,,,,,
45.70487,0.19261,Champniers,16430,CA du Grand Angoulême,Charente,https://api.v2.clean2gether.com/uploads/dfa3afb5_a909_4ab6_bde9_8d22a562d838_ff7df6d19e.jpg,,,,,,,,,,,,,
45.77792,0.31195,Agris,16110,CC La Rochefoucauld - Porte du Périgord,Charente,https://api.v2.clean2gether.com/uploads/8ba84cf1_a803_412d_a278_b874e096e552_453fed9fd2.jpg,,,,,,,,,,,,,
45.54948,0.122,Mouthiers-sur-Boëme,16440,CA du Grand Angoulême,Charente,https://api.v2.clean2gether.com/uploads/11973_b32bcf7829.png,,,,,,,,,,,,,
44.83744,-0.07309,Saint-Magne-de-Castillon,33350,CC Castillon/Pujols,Gironde,https://api.v2.clean2gether.com/uploads/203230c5_b556_44dd_850a_6bf28acdf9d1_8b90b89f27.jpg,,,,,,,,,,,,,
45.604810802555114,0.3156001120805741,Sers,16410,CA du Grand Angoulême,Charente,https://api.v2.clean2gether.com/uploads/c2g_upload_84ac170a96.jpg,,,,,,,,,,,,,
44.83741706544129,-0.07289305329322815,Saint-Magne-de-Castillon,33350,CC Castillon/Pujols,Gironde,https://api.v2.clean2gether.com/uploads/c2g_upload_cc6774bb43.jpg,https://api.v2.clean2gether.com/uploads/c2g_upload_9b46a6eef1.jpg,,,,,,,,,,,,
44.84521442776982,-0.06334807723760605,Saint-Magne-de-Castillon,33350,CC Castillon/Pujols,Gironde,https://api.v2.clean2gether.com/uploads/c2g_upload_5798f0d4e6.jpg,https://api.v2.clean2gether.com/uploads/c2g_upload_c54d88a6eb.jpg,,,,,,,,,,,,
45.90287977659914,0.17074674367904663,Saint-Groux,16230,CC Coeur de Charente,Charente,https://api.v2.clean2gether.com/uploads/c2g_upload_f148871762.jpg,,,,,,,,,,,,,
45.69290124666479,0.06663018061001402,Asnières-sur-Nouère,16290,CA du Grand Angoulême,Charente,https://api.v2.clean2gether.com/uploads/c2g_upload_5944144368.jpg,,,,,,,,,,,,,
45.66165815251019,-0.8046157658100128,Meursac,17120,CC de Gémozac et de la Saintonge Viticole,Charente-Maritime,https://api.v2.clean2gether.com/uploads/c2g_upload_d9e0fd0b51.jpg,,,,,,,,,,,,,
45.6613575159419,-0.804789774119854,Meursac,17120,CC de Gémozac et de la Saintonge Viticole,Charente-Maritime,https://api.v2.clean2gether.com/uploads/c2g_upload_09379c5ca3.jpg,https://api.v2.clean2gether.com/uploads/c2g_upload_a23470d5e5.jpg,https://api.v2.clean2gether.com/uploads/c2g_upload_964dc33146.jpg,https://api.v2.clean2gether.com/uploads/c2g_upload_a469b9e29b.jpg,,,,,,,,,,
45.66092471829682,-0.8052829653024672,Meursac,17120,CC de Gémozac et de la Saintonge Viticole,Charente-Maritime,https://api.v2.clean2gether.com/uploads/c2g_upload_cff2bab612.jpg,https://api.v2.clean2gether.com/uploads/c2g_upload_d09d7512f4.jpg,,,,,,,,,,,,
45.018818439426894,-0.24621907621622083,Saint-Martin-de-Laye,33910,CA du Libournais,Gironde,https://api.v2.clean2gether.com/uploads/c2g_upload_8554bd66ed.jpg,https://api.v2.clean2gether.com/uploads/c2g_upload_f35bb5a5d6.jpg,https://api.v2.clean2gether.com/uploads/c2g_upload_46ae268bac.jpg,,,,,,,,,,,
44.83681837333722,1.2706543912213168,Carsac-Aillac,24200,CC du Pays de Fénelon,Dordogne,https://api.v2.clean2gether.com/uploads/c2g_upload_4d91ce94f6.jpg,https://api.v2.clean2gether.com/uploads/c2g_upload_b82a3d0356.jpg,,,,,,,,,,,,
46.03129220599822,0.031132064759731293,Paizay-Naudouin-Embourie,16240,CC Val de Charente,Charente,https://api.v2.clean2gether.com/uploads/c2g_upload_a636d139c7.jpg,https://api.v2.clean2gether.com/uploads/c2g_upload_c8b5812c47.jpg,https://api.v2.clean2gether.com/uploads/c2g_upload_c076e0be32.jpg,https://api.v2.clean2gether.com/uploads/c2g_upload_4e5f739ca9.jpg,,,,,,,,,,
45.671826590912154,-0.03866136074066162,Moulidars,16290,CA du Grand Cognac,Charente,https://api.v2.clean2gether.com/uploads/c2g_upload_0f34c58360.jpg,,,,,,,,,,,,,
45.638587397616504,0.07074493914842606,Nersac,16440,CA du Grand Angoulême,Charente,https://api.v2.clean2gether.com/uploads/c2g_upload_33c6672bd5.jpg,,,,,,,,,,,,,
44.56395469615494,-0.02735685557126999,Fontet,33190,CC du Réolais en Sud Gironde,Gironde,https://api.v2.clean2gether.com/uploads/c2g_upload_653ba3ba9f.jpg,,,,,,,,,,,,,
45.642315239487296,-0.20487785339355472,Segonzac,16130,CA du Grand Cognac,Charente,https://api.v2.clean2gether.com/uploads/c2g_upload_74232adb62.jpg,https://api.v2.clean2gether.com/uploads/c2g_upload_4374bbff8c.jpg,,,,,,,,,,,,
46.178201427230185,-1.289392523467541,La Flotte,17630,CC de l'Ile de Ré,Charente-Maritime,https://api.v2.clean2gether.com/uploads/c2g_upload_856eac2ed8.jpg,,,,,,,,,,,,,
45.617575176447346,0.1323049378070481,La Couronne,16400,CA du Grand Angoulême,Charente,https://api.v2.clean2gether.com/uploads/c2g_upload_c0a731d28b.jpg,,,,,,,,,,,,,
45.96516024121346,-0.5537842311846145,La Vergne,17400,CC Vals de Saintonge,Charente-Maritime,https://api.v2.clean2gether.com/uploads/c2g_upload_329fe8b3fe.jpg,,,,,,,,,,,,,
45.601526357906614,0.26369648357239084,Dirac,16410,CA du Grand Angoulême,Charente,https://api.v2.clean2gether.com/uploads/c2g_upload_3c1707e644.jpg,https://api.v2.clean2gether.com/uploads/c2g_upload_b163b1a065.jpg,https://api.v2.clean2gether.com/uploads/c2g_upload_1e391e13aa.jpg,,,,,,,,,,,
45.68670232638348,0.16878202557563782,Gond-Pontouvre,16160,CA du Grand Angoulême,Charente,https://api.v2.clean2gether.com/uploads/c2g_upload_4dc2d990dd.jpg,,,,,,,,,,,,,
45.66815435108618,-0.9494801541755536,Saujon,17600,CA Royan Atlantique,Charente-Maritime,https://api.v2.clean2gether.com/uploads/c2g_upload_8d405ca745.jpg,,,,,,,,,,,,,
44.92525963147263,-0.5291076377034187,Ambarès-et-Lagrave,33440,Bordeaux Métropole,Gironde,https://api.v2.clean2gether.com/uploads/c2g_upload_6b893aec9f.jpg,,,,,,,,,,,,,
44.929341797615905,-0.5277869850397111,Ambarès-et-Lagrave,33440,Bordeaux Métropole,Gironde,https://api.v2.clean2gether.com/uploads/c2g_upload_bfc51a4289.jpg,https://api.v2.clean2gether.com/uploads/c2g_upload_14d30052fe.jpg,,,,,,,,,,,,
45.60805961083825,0.12439816277277652,La Couronne,16400,CA du Grand Angoulême,Charente,https://api.v2.clean2gether.com/uploads/c2g_upload_07e697980b.jpg,,,,,,,,,,,,,
45.615848971312474,0.13226831946636458,La Couronne,16400,CA du Grand Angoulême,Charente,https://api.v2.clean2gether.com/uploads/c2g_upload_9c420998a1.jpg,,,,,,,,,,,,,
45.64612158758866,0.08251413702964783,Linars,16730,CA du Grand Angoulême,Charente,https://api.v2.clean2gether.com/uploads/c2g_upload_e3b169ec3f.jpg,,,,,,,,,,,,,
45.66715988233172,-0.2629652501183914,Gensac-la-Pallue,16130,CA du Grand Cognac,Charente,https://api.v2.clean2gether.com/uploads/c2g_upload_3e7f16a698.jpg,https://api.v2.clean2gether.com/uploads/c2g_upload_6c104239df.jpg,,,,,,,,,,,,
45.60354533545953,0.13907991349697113,La Couronne,16400,CA du Grand Angoulême,Charente,https://api.v2.clean2gether.com/uploads/c2g_upload_670e6a975a.jpg,,,,,,,,,,,,,
45.72709379227132,0.2249404415488243,Champniers,16430,CA du Grand Angoulême,Charente,https://api.v2.clean2gether.com/uploads/c2g_upload_3d4bd03b96.jpg,,,,,,,,,,,,,
44.964778240931864,-0.25458320975303655,Les Billaux,33500,CA du Libournais,Gironde,https://api.v2.clean2gether.com/uploads/c2g_upload_9d227e2ae6.jpg,,,,,,,,,,,,,
45.75254493595652,-0.6307242250813155,Saintes,17100,CA de Saintes,Charente-Maritime,https://api.v2.clean2gether.com/uploads/c2g_upload_781c46ab3a.jpg,,,,,,,,,,,,,
44.964667695505156,-0.254601314663887,Les Billaux,33500,CA du Libournais,Gironde,https://api.v2.clean2gether.com/uploads/c2g_upload_fad9f713e2.jpg,https://api.v2.clean2gether.com/uploads/c2g_upload_8e1c1a324b.jpg,,,,,,,,,,,,
45.61034286901628,0.1619018241763115,Vœuil-et-Giget,16400,CA du Grand Angoulême,Charente,https://api.v2.clean2gether.com/uploads/c2g_upload_09590f61ff.jpg,,,,,,,,,,,,,
45.64719319703911,0.23451592773199081,Soyaux,16800,CA du Grand Angoulême,Charente,https://api.v2.clean2gether.com/uploads/c2g_upload_59f238a1ab.jpg,,,,,,,,,,,,,
45.60083800492532,0.11409332382872812,La Couronne,16400,CA du Grand Angoulême,Charente,https://api.v2.clean2gether.com/uploads/c2g_upload_76017e2d87.jpg,,,,,,,,,,,,,
45.274807634408475,0.7457734644412994,Agonac,24460,CA Le Grand Périgueux,Dordogne,https://api.v2.clean2gether.com/uploads/c2g_upload_490e6a985a.jpg,,,,,,,,,,,,,
45.27505277160441,0.7457701116800308,Agonac,24460,CA Le Grand Périgueux,Dordogne,https://api.v2.clean2gether.com/uploads/c2g_upload_c707f5f5f5.jpg,,,,,,,,,,,,,
45.64239587421155,-0.2048745006322861,Segonzac,16130,CA du Grand Cognac,Charente,https://api.v2.clean2gether.com/uploads/c2g_upload_c41809c712.jpg,,,,,,,,,,,,,
45.64298187889557,-0.20406145602464676,Segonzac,16130,CA du Grand Cognac,Charente,https://api.v2.clean2gether.com/uploads/c2g_upload_b02e69d364.jpg,,,,,,,,,,,,,
45.62544362212208,0.3559700399637222,Chazelles,16380,CC La Rochefoucauld - Porte du Périgord,Charente,https://api.v2.clean2gether.com/uploads/c2g_upload_6d927a4798.jpg,https://api.v2.clean2gether.com/uploads/c2g_upload_7b2b8a0192.jpg,https://api.v2.clean2gether.com/uploads/c2g_upload_931bf0bf60.jpg,,,,,,,,,,,
45.7005772241644,-0.30296327991885524,Boutiers-Saint-Trojan,16100,CA du Grand Cognac,Charente,https://api.v2.clean2gether.com/uploads/c2g_upload_3485ad3c0d.jpg,,,,,,,,,,,,,
46.49484275117548,0.2964367837657549,Iteuil,86240,CC des Vallées du Clain,Vienne,https://api.v2.clean2gether.com/uploads/c2g_upload_4ae5af7c30.jpg,,,,,,,,,,,,,
45.70072926801302,-0.3032931312918663,Boutiers-Saint-Trojan,16100,CA du Grand Cognac,Charente,https://api.v2.clean2gether.com/uploads/c2g_upload_2bdbb66a03.jpg,,,,,,,,,,,,,
43.41800914565575,-1.4736806863206051,Ustaritz,64480,CA du Pays Basque,Pyrénées-Atlantiques,https://api.v2.clean2gether.com/uploads/c2g_upload_ee31b829ca.jpg,,,,,,,,,,,,,
43.42567782128301,-1.4851003904940752,Arcangues,64200,CA du Pays Basque,Pyrénées-Atlantiques,https://api.v2.clean2gether.com/uploads/c2g_upload_4a96cf89ac.jpg,,,,,,,,,,,,,
